{"type": "FeatureCollection", "meta": {"dataset": "airports", "note": "OurAirports (パブリックドメイン) を aviation-data(npm) 経由で取得・整形。座標/標高/周波数/滑走路は同データに基づく。運航前に AIP Japan で照合すること。", "source": "OurAirports (public domain)", "updated": "2026-07-03", "count": 286}, "features": [{"type": "Feature", "properties": {"type": "airport", "ident": "RJAA", "iata": "NRT", "name": "Narita International Airport", "class": "large airport", "elev_ft": 141, "muni": "Narita", "region": "JP-12", "rwy_ft": 13123, "rwy": "16R/34L", "rwy_cnt": 2, "freqs": {"APP": "124.4", "ATIS": "128.25", "GND": "121.85", "TWR": "118.2"}}, "geometry": {"type": "Point", "coordinates": [140.386002, 35.764702]}}, {"type": "Feature", "properties": {"type": "airport", "ident": "RJBB", "iata": "KIX", "name": "Kansai International Airport", "class": "large airport", "elev_ft": 26, "muni": "Osaka", "region": "JP-27", "rwy_ft": 13123, "rwy": "06L/24R", "rwy_cnt": 2, "freqs": {"APP": "120.25", "ATIS": "127.85", "GND": "121.6"}}, "geometry": {"type": "Point", "coordinates": [135.244003, 34.427299]}}, {"type": "Feature", "properties": {"type": "airport", "ident": "RJCC", "iata": "CTS", "name": "New Chitose Airport", "class": "large airport", "elev_ft": 82, "muni": "Sapporo", "region": "JP-01", "rwy_ft": 9840, "rwy": "01L/19R", "rwy_cnt": 2, "freqs": {"APP": "120.1", "ATIS": "128.6", "GND": "121.6", "TWR": "118.8"}}, "geometry": {"type": "Point", "coordinates": [141.692001, 42.7752]}}, {"type": "Feature", "properties": {"type": "airport", "ident": "RJFF", "iata": "FUK", "name": "Fukuoka Airport", "class": "large airport", "elev_ft": 32, "muni": "Fukuoka", "region": "JP-40", "rwy_ft": 9186, "rwy": "16L/34R", "rwy_cnt": 2, "freqs": {"APP": "119.1", "ATIS": "127.2", "GND": "121.7", "TWR": "118.4"}}, "geometry": {"type": "Point", "coordinates": [130.451004, 33.585899]}}, {"type": "Feature", "properties": {"type": "airport", "ident": "RJFK", "iata": "KOJ", "name": "Kagoshima Airport", "class": "large airport", "elev_ft": 906, "muni": "Kagoshima", "region": "JP-46", "rwy_ft": 9840, "rwy": "16/34", "rwy_cnt": 1, "freqs": {"APP": "126.00", "ATIS": "127.05", "GND": "121.7", "TWR": "118.2"}}, "geometry": {"type": "Point", "coordinates": [130.718994, 31.8034]}}, {"type": "Feature", "properties": {"type": "airport", "ident": "RJGG", "iata": "NGO", "name": "Chubu Centrair International Airport", "class": "large airport", "elev_ft": 15, "muni": "Tokoname", "region": "JP-23", "rwy_ft": 11483, "rwy": "18/36", "rwy_cnt": 1, "freqs": {"APP": "121.05", "ATIS": "121.075", "GND": "121.8", "TWR": "118.85"}}, "geometry": {"type": "Point", "coordinates": [136.804993, 34.858398]}}, {"type": "Feature", "properties": {"type": "airport", "ident": "RJOO", "iata": "ITM", "name": "Osaka International Airport", "class": "large airport", "elev_ft": 50, "muni": "Osaka", "region": "JP-27", "rwy_ft": 9840, "rwy": "14R/32L", "rwy_cnt": 2, "freqs": {"APP": "120.45", "ATIS": "128.6", "GND": "121.7", "TWR": "118.1"}}, "geometry": {"type": "Point", "coordinates": [135.438004, 34.7855]}}, {"type": "Feature", "properties": {"type": "airport", "ident": "RJSS", "iata": "SDJ", "name": "Sendai Airport", "class": "large airport", "elev_ft": 15, "muni": "Natori", "region": "JP-04", "rwy_ft": 9842, "rwy": "09/27", "rwy_cnt": 2, "freqs": {"APP": "120.4", "ATIS": "126.45", "GND": "121.7", "TWR": "118.7"}}, "geometry": {"type": "Point", "coordinates": [140.917007, 38.139702]}}, {"type": "Feature", "properties": {"type": "airport", "ident": "RJTT", "iata": "HND", "name": "Tokyo Haneda International Airport", "class": "large airport", "elev_ft": 35, "muni": "Tokyo", "region": "JP-13", "rwy_ft": 11024, "rwy": "16L/34R", "rwy_cnt": 4, "freqs": {"RDO": "126.9", "APP": "119.1", "ATIS": "128.8", "GND": "118.225", "TWR": "118.1"}}, "geometry": {"type": "Point", "coordinates": [139.779999, 35.552299]}}, {"type": "Feature", "properties": {"type": "airport", "ident": "RJTY", "iata": "OKO", "name": "Yokota Air Base", "class": "large airport", "elev_ft": 463, "muni": "Fussa", "region": "JP-13", "rwy_ft": 11000, "rwy": "18/36", "rwy_cnt": 1, "freqs": {"RDO": "29.21", "APP": "118.3", "ATIS": "128.4", "GND": "133.2", "TWR": "134.3"}}, "geometry": {"type": "Point", "coordinates": [139.348007, 35.748501]}}, {"type": "Feature", "properties": {"type": "airport", "ident": "ROAH", "iata": "OKA", "name": "Naha Airport / JASDF Naha Air Base", "class": "large airport", "elev_ft": 12, "muni": "Naha", "region": "JP-47", "rwy_ft": 9840, "rwy": "18L/36R", "rwy_cnt": 2, "freqs": {"RDO": "126.9", "ATIS": "127.8", "GND": "121.8", "TWR": "118.1"}}, "geometry": {"type": "Point", "coordinates": [127.646004, 26.195801]}}, {"type": "Feature", "properties": {"type": "airport", "ident": "RODN", "iata": "DNA", "name": "Kadena Air Base", "class": "large airport", "elev_ft": 143, "muni": "Okinawa", "region": "JP-47", "rwy_ft": 12100, "rwy": "05L/23R", "rwy_cnt": 2, "freqs": {"ATIS": "124.2", "GND": "118.5", "TWR": "126.2"}}, "geometry": {"type": "Point", "coordinates": [127.769444, 26.351667]}}, {"type": "Feature", "properties": {"type": "airport", "ident": "RJAF", "iata": "MMJ", "name": "Shinshu-Matsumoto Airport", "class": "medium airport", "elev_ft": 2182, "muni": "Matsumoto", "region": "JP-20", "rwy_ft": 6560, "rwy": "18/36", "rwy_cnt": 1}, "geometry": {"type": "Point", "coordinates": [137.923004, 36.166801]}}, {"type": "Feature", "properties": {"type": "airport", "ident": "RJAH", "iata": "IBR", "name": "Ibaraki Airport / JASDF Hyakuri Air Base", "class": "medium airport", "elev_ft": 105, "muni": "Omitama", "region": "JP-08", "rwy_ft": 8860, "rwy": "03/21", "rwy_cnt": 1, "freqs": {"APP": "120.1", "GND": "27.58", "TWR": "126.2"}}, "geometry": {"type": "Point", "coordinates": [140.414993, 36.181099]}}, {"type": "Feature", "properties": {"type": "airport", "ident": "RJAW", "iata": "IWO", "name": "Ioto (Iwo Jima) Airbase", "class": "medium airport", "elev_ft": 384, "muni": "Ogasawara", "region": "JP-13", "rwy_ft": 8700, "rwy": "07/25", "rwy_cnt": 1, "freqs": {"GND": "23.68", "TWR": "126.2"}}, "geometry": {"type": "Point", "coordinates": [141.32261, 24.784153]}}, {"type": "Feature", "properties": {"type": "airport", "ident": "RJBD", "iata": "SHM", "name": "Nanki Shirahama Airport", "class": "medium airport", "elev_ft": 298, "muni": "Shirahama", "region": "JP-30", "rwy_ft": 6560, "rwy": "15/33", "rwy_cnt": 1}, "geometry": {"type": "Point", "coordinates": [135.363998, 33.662201]}}, {"type": "Feature", "properties": {"type": "airport", "ident": "RJBE", "iata": "UKB", "name": "Kobe Airport", "class": "medium airport", "elev_ft": 22, "muni": "Kobe", "region": "JP-28", "rwy_ft": 8202, "rwy": "09/27", "rwy_cnt": 1, "freqs": {"APP": "121.15", "ATIS": "128.075", "TWR": "118.5"}}, "geometry": {"type": "Point", "coordinates": [135.223999, 34.632801]}}, {"type": "Feature", "properties": {"type": "airport", "ident": "RJBT", "iata": "TJH", "name": "Konotori Tajima Airport", "class": "medium airport", "elev_ft": 584, "muni": "Toyooka", "region": "JP-28", "rwy_ft": 3937, "rwy": "01/19", "rwy_cnt": 1, "freqs": {"UNICOM": "130.8"}}, "geometry": {"type": "Point", "coordinates": [134.787003, 35.512798]}}, {"type": "Feature", "properties": {"type": "airport", "ident": "RJCB", "iata": "OBO", "name": "Tokachi-Obihiro Airport", "class": "medium airport", "elev_ft": 505, "muni": "Obihiro", "region": "JP-01", "rwy_ft": 8202, "rwy": "17/35", "rwy_cnt": 1, "freqs": {"TWR": "118.7"}}, "geometry": {"type": "Point", "coordinates": [143.216995, 42.733299]}}, {"type": "Feature", "properties": {"type": "airport", "ident": "RJCH", "iata": "HKD", "name": "Hakodate Airport", "class": "medium airport", "elev_ft": 151, "muni": "Hakodate", "region": "JP-01", "rwy_ft": 9842, "rwy": "12/30", "rwy_cnt": 1, "freqs": {"APP": "119.00", "ATIS": "126.6", "TWR": "118.35"}}, "geometry": {"type": "Point", "coordinates": [140.822006, 41.77]}}, {"type": "Feature", "properties": {"type": "airport", "ident": "RJCJ", "iata": "", "name": "JASDF Chitose Air Base", "class": "medium airport", "elev_ft": 87, "muni": "Chitose", "region": "JP-01", "rwy_ft": 13124, "rwy": "18L/36R", "rwy_cnt": 2, "freqs": {"APP": "120.1", "GND": "121.7", "TWR": "118.2"}}, "geometry": {"type": "Point", "coordinates": [141.666, 42.794498]}}, {"type": "Feature", "properties": {"type": "airport", "ident": "RJCK", "iata": "KUH", "name": "Kushiro Airport", "class": "medium airport", "elev_ft": 327, "muni": "Kushiro", "region": "JP-01", "rwy_ft": 8202, "rwy": "17/35", "rwy_cnt": 1, "freqs": {"TWR": "118.05"}}, "geometry": {"type": "Point", "coordinates": [144.192993, 43.041]}}, {"type": "Feature", "properties": {"type": "airport", "ident": "RJCM", "iata": "MMB", "name": "Memanbetsu Airport", "class": "medium airport", "elev_ft": 135, "muni": "Ōzora", "region": "JP-01", "rwy_ft": 8202, "rwy": "18/36", "rwy_cnt": 1, "freqs": {"TWR": "118.85"}}, "geometry": {"type": "Point", "coordinates": [144.164001, 43.8806]}}, {"type": "Feature", "properties": {"type": "airport", "ident": "RJCN", "iata": "SHB", "name": "Nakashibetsu Airport", "class": "medium airport", "elev_ft": 234, "muni": "Nakashibetsu", "region": "JP-01", "rwy_ft": 6560, "rwy": "08/26", "rwy_cnt": 1}, "geometry": {"type": "Point", "coordinates": [144.960007, 43.577499]}}, {"type": "Feature", "properties": {"type": "airport", "ident": "RJCO", "iata": "OKD", "name": "Sapporo Okadama Airport", "class": "medium airport", "elev_ft": 25, "muni": "Sapporo", "region": "JP-01", "rwy_ft": 4920, "rwy": "14/32", "rwy_cnt": 1, "freqs": {"GND": "121.8", "TWR": "126.2"}}, "geometry": {"type": "Point", "coordinates": [141.38134, 43.117447]}}, {"type": "Feature", "properties": {"type": "airport", "ident": "RJCS", "iata": "", "name": "JASDF Kenebetsu Airfield", "class": "medium airport", "elev_ft": 0, "muni": "Betsukai", "region": "JP-01"}, "geometry": {"type": "Point", "coordinates": [144.741354, 43.425154]}}, {"type": "Feature", "properties": {"type": "airport", "ident": "RJCT", "iata": "", "name": "Tokachi Airport", "class": "medium airport", "elev_ft": 281, "muni": "Obihiro", "region": "JP-01", "rwy_ft": 4920, "rwy": "13/31", "rwy_cnt": 2, "freqs": {"TWR": "126.2"}}, "geometry": {"type": "Point", "coordinates": [143.158005, 42.890499]}}, {"type": "Feature", "properties": {"type": "airport", "ident": "RJCW", "iata": "WKJ", "name": "Wakkanai Airport", "class": "medium airport", "elev_ft": 30, "muni": "Wakkanai", "region": "JP-01", "rwy_ft": 6560, "rwy": "08/26", "rwy_cnt": 1, "freqs": {"RDO": "118.3"}}, "geometry": {"type": "Point", "coordinates": [141.800995, 45.404202]}}, {"type": "Feature", "properties": {"type": "airport", "ident": "RJDB", "iata": "IKI", "name": "Iki Airport", "class": "medium airport", "elev_ft": 41, "muni": "Iki", "region": "JP-42", "rwy_ft": 4331, "rwy": "02/20", "rwy_cnt": 1, "freqs": {"RDO": "118.2"}}, "geometry": {"type": "Point", "coordinates": [129.785004, 33.749001]}}, {"type": "Feature", "properties": {"type": "airport", "ident": "RJDC", "iata": "UBJ", "name": "Yamaguchi Ube Airport", "class": "medium airport", "elev_ft": 23, "muni": "Ube", "region": "JP-35", "rwy_ft": 8200, "rwy": "07/25", "rwy_cnt": 1}, "geometry": {"type": "Point", "coordinates": [131.279007, 33.93]}}, {"type": "Feature", "properties": {"type": "airport", "ident": "RJDT", "iata": "TSJ", "name": "Tsushima Airport", "class": "medium airport", "elev_ft": 213, "muni": "Tsushima", "region": "JP-42", "rwy_ft": 6234, "rwy": "14/32", "rwy_cnt": 1}, "geometry": {"type": "Point", "coordinates": [129.330994, 34.284901]}}, {"type": "Feature", "properties": {"type": "airport", "ident": "RJEB", "iata": "MBE", "name": "Monbetsu Airport", "class": "medium airport", "elev_ft": 80, "muni": "Monbetsu", "region": "JP-01", "rwy_ft": 6562, "rwy": "14/32", "rwy_cnt": 1, "freqs": {"RDO": "118.15"}}, "geometry": {"type": "Point", "coordinates": [143.404007, 44.303902]}}, {"type": "Feature", "properties": {"type": "airport", "ident": "RJEC", "iata": "AKJ", "name": "Asahikawa Airport", "class": "medium airport", "elev_ft": 721, "muni": "Higashikagura", "region": "JP-01", "rwy_ft": 8200, "rwy": "16/34", "rwy_cnt": 1, "freqs": {"TWR": "118.55"}}, "geometry": {"type": "Point", "coordinates": [142.447006, 43.670799]}}, {"type": "Feature", "properties": {"type": "airport", "ident": "RJEO", "iata": "OIR", "name": "Okushiri Airport", "class": "medium airport", "elev_ft": 161, "muni": "Okushiri Island", "region": "JP-01", "rwy_ft": 4922, "rwy": "13/31", "rwy_cnt": 1, "freqs": {"RDO": "122.7"}}, "geometry": {"type": "Point", "coordinates": [139.432999, 42.071701]}}, {"type": "Feature", "properties": {"type": "airport", "ident": "RJER", "iata": "RIS", "name": "Rishiri Airport", "class": "medium airport", "elev_ft": 112, "muni": "Rishiri", "region": "JP-01", "rwy_ft": 5906, "rwy": "07/25", "rwy_cnt": 1, "freqs": {"RDO": "122.7"}}, "geometry": {"type": "Point", "coordinates": [141.186005, 45.242001]}}, {"type": "Feature", "properties": {"type": "airport", "ident": "RJFA", "iata": "", "name": "JASDF Ashiya Air Base", "class": "medium airport", "elev_ft": 98, "muni": "Ashiya", "region": "JP-40", "rwy_ft": 5380, "rwy": "12/30", "rwy_cnt": 1, "freqs": {"GND": "27.58", "TWR": "126.2"}}, "geometry": {"type": "Point", "coordinates": [130.653, 33.883099]}}, {"type": "Feature", "properties": {"type": "airport", "ident": "RJFC", "iata": "KUM", "name": "Yakushima Airport", "class": "medium airport", "elev_ft": 124, "muni": "Yakushima", "region": "JP-46", "rwy_ft": 4921, "rwy": "14/32", "rwy_cnt": 1, "freqs": {"RDO": "118.65"}}, "geometry": {"type": "Point", "coordinates": [130.658997, 30.385599]}}, {"type": "Feature", "properties": {"type": "airport", "ident": "RJFE", "iata": "FUJ", "name": "Fukue Airport", "class": "medium airport", "elev_ft": 273, "muni": "Goto", "region": "JP-42", "rwy_ft": 6561, "rwy": "03/21", "rwy_cnt": 1}, "geometry": {"type": "Point", "coordinates": [128.832993, 32.666302]}}, {"type": "Feature", "properties": {"type": "airport", "ident": "RJFG", "iata": "TNE", "name": "New Tanegashima Airport", "class": "medium airport", "elev_ft": 768, "muni": "Tanegashima", "region": "JP-46", "rwy_ft": 6544, "rwy": "13/31", "rwy_cnt": 1, "freqs": {"RDO": "118.75", "APP": "133.85"}}, "geometry": {"type": "Point", "coordinates": [130.990997, 30.605101]}}, {"type": "Feature", "properties": {"type": "airport", "ident": "RJFM", "iata": "KMI", "name": "Miyazaki Airport", "class": "medium airport", "elev_ft": 20, "muni": "Miyazaki", "region": "JP-45", "rwy_ft": 8200, "rwy": "09/27", "rwy_cnt": 1, "freqs": {"APP": "121.4", "ATIS": "126.8", "GND": "121.9", "TWR": "118.3"}}, "geometry": {"type": "Point", "coordinates": [131.449005, 31.877199]}}, {"type": "Feature", "properties": {"type": "airport", "ident": "RJFO", "iata": "OIT", "name": "Oita Airport", "class": "medium airport", "elev_ft": 19, "muni": "Oita", "region": "JP-44", "rwy_ft": 9840, "rwy": "01/19", "rwy_cnt": 1, "freqs": {"APP": "120.6", "ATIS": "127.8", "GND": "121.6", "TWR": "118.8"}}, "geometry": {"type": "Point", "coordinates": [131.737, 33.479401]}}, {"type": "Feature", "properties": {"type": "airport", "ident": "RJFR", "iata": "KKJ", "name": "Kitakyushu Airport", "class": "medium airport", "elev_ft": 21, "muni": "Kitakyushu", "region": "JP-40", "rwy_ft": 8202, "rwy": "18/36", "rwy_cnt": 1}, "geometry": {"type": "Point", "coordinates": [131.035004, 33.845901]}}, {"type": "Feature", "properties": {"type": "airport", "ident": "RJFS", "iata": "HSG", "name": "Saga Airport", "class": "medium airport", "elev_ft": 6, "muni": "Saga", "region": "JP-41", "rwy_ft": 6562, "rwy": "11/29", "rwy_cnt": 1, "freqs": {"RDO": "118.05"}}, "geometry": {"type": "Point", "coordinates": [130.302002, 33.1497]}}, {"type": "Feature", "properties": {"type": "airport", "ident": "RJFT", "iata": "KMJ", "name": "Kumamoto Airport", "class": "medium airport", "elev_ft": 642, "muni": "Kumamoto", "region": "JP-43", "rwy_ft": 9840, "rwy": "07/25", "rwy_cnt": 1, "freqs": {"APP": "118.9", "ATIS": "128.8", "GND": "121.8", "TWR": "118.7"}}, "geometry": {"type": "Point", "coordinates": [130.854996, 32.837299]}}, {"type": "Feature", "properties": {"type": "airport", "ident": "RJFU", "iata": "NGS", "name": "Nagasaki Airport", "class": "medium airport", "elev_ft": 15, "muni": "Nagasaki", "region": "JP-42", "rwy_ft": 9840, "rwy": "14/32", "rwy_cnt": 1, "freqs": {"APP": "119.175", "ATIS": "126.85", "GND": "121.6", "TWR": "118.5"}}, "geometry": {"type": "Point", "coordinates": [129.914001, 32.916901]}}, {"type": "Feature", "properties": {"type": "airport", "ident": "RJFY", "iata": "", "name": "JMSDF Kanoya Air Base", "class": "medium airport", "elev_ft": 214, "muni": "Kanoya", "region": "JP-46", "rwy_ft": 7382, "rwy": "08R/26L", "rwy_cnt": 2, "freqs": {"APP": "122.15", "ATIS": "24.68", "GND": "23.68", "TWR": "126.2"}}, "geometry": {"type": "Point", "coordinates": [130.838805, 31.36672]}}, {"type": "Feature", "properties": {"type": "airport", "ident": "RJFZ", "iata": "", "name": "JASDF Tsuiki Air Base", "class": "medium airport", "elev_ft": 55, "muni": "Tsuiki", "region": "JP-40", "rwy_ft": 7870, "rwy": "07/25", "rwy_cnt": 1, "freqs": {"APP": "120.1", "GND": "126.2", "TWR": "126.2"}}, "geometry": {"type": "Point", "coordinates": [131.039993, 33.685001]}}, {"type": "Feature", "properties": {"type": "airport", "ident": "RJKA", "iata": "ASJ", "name": "Amami Airport", "class": "medium airport", "elev_ft": 27, "muni": "Amami", "region": "JP-46", "rwy_ft": 6560, "rwy": "03/21", "rwy_cnt": 1, "freqs": {"RDO": "118.15"}}, "geometry": {"type": "Point", "coordinates": [129.712997, 28.430599]}}, {"type": "Feature", "properties": {"type": "airport", "ident": "RJKB", "iata": "OKE", "name": "Okinoerabu Airport", "class": "medium airport", "elev_ft": 101, "muni": "Wadomari", "region": "JP-46", "rwy_ft": 4430, "rwy": "04/22", "rwy_cnt": 1, "freqs": {"RDO": "118.05"}}, "geometry": {"type": "Point", "coordinates": [128.705564, 27.431604]}}, {"type": "Feature", "properties": {"type": "airport", "ident": "RJKI", "iata": "KKX", "name": "Kikai Airport", "class": "medium airport", "elev_ft": 21, "muni": "Kikai", "region": "JP-46", "rwy_ft": 4307, "rwy": "07/25", "rwy_cnt": 1}, "geometry": {"type": "Point", "coordinates": [129.927994, 28.321301]}}, {"type": "Feature", "properties": {"type": "airport", "ident": "RJKN", "iata": "TKN", "name": "Tokunoshima Airport", "class": "medium airport", "elev_ft": 17, "muni": "Amagi", "region": "JP-46", "rwy_ft": 6561, "rwy": "01/19", "rwy_cnt": 1, "freqs": {"RDO": "122.7"}}, "geometry": {"type": "Point", "coordinates": [128.881356, 27.836382]}}, {"type": "Feature", "properties": {"type": "airport", "ident": "RJNA", "iata": "NKM", "name": "Nagoya Airport / JASDF Komaki Air Base", "class": "medium airport", "elev_ft": 52, "muni": "Nagoya", "region": "JP-23", "rwy_ft": 8990, "rwy": "16/34", "rwy_cnt": 1, "freqs": {"APP": "121.05", "GND": "121.7", "TWR": "118.7"}}, "geometry": {"type": "Point", "coordinates": [136.924095, 35.255759]}}, {"type": "Feature", "properties": {"type": "airport", "ident": "RJNF", "iata": "FKJ", "name": "Fukui Airport", "class": "medium airport", "elev_ft": 19, "muni": "Fukui", "region": "JP-18", "rwy_ft": 4329, "rwy": "18/36", "rwy_cnt": 1, "freqs": {"APP": "120.1"}}, "geometry": {"type": "Point", "coordinates": [136.223999, 36.142799]}}, {"type": "Feature", "properties": {"type": "airport", "ident": "RJNG", "iata": "QGU", "name": "Gifu Airport", "class": "medium airport", "elev_ft": 128, "muni": "Gifu", "region": "JP-21", "rwy_ft": 8860, "rwy": "10/28", "rwy_cnt": 1, "freqs": {"APP": "120.3", "GND": "27.58", "TWR": "122.00"}}, "geometry": {"type": "Point", "coordinates": [136.869995, 35.3941]}}, {"type": "Feature", "properties": {"type": "airport", "ident": "RJNH", "iata": "", "name": "JASDF Hamamatsu Air Base", "class": "medium airport", "elev_ft": 150, "muni": "Hamamatsu", "region": "JP-22", "rwy_ft": 8366, "rwy": "09/27", "rwy_cnt": 1, "freqs": {"APP": "120.1", "GND": "126.2", "TWR": "126.2"}}, "geometry": {"type": "Point", "coordinates": [137.703003, 34.750198]}}, {"type": "Feature", "properties": {"type": "airport", "ident": "RJNK", "iata": "KMQ", "name": "Komatsu Airport / JASDF Komatsu Air Base", "class": "medium airport", "elev_ft": 36, "muni": "Kanazawa", "region": "JP-17", "rwy_ft": 8876, "rwy": "06T/24T", "rwy_cnt": 1, "freqs": {"APP": "120.1", "GND": "121.7", "TWR": "118.25"}}, "geometry": {"type": "Point", "coordinates": [136.406998, 36.3946]}}, {"type": "Feature", "properties": {"type": "airport", "ident": "RJNO", "iata": "OKI", "name": "Oki Global Geopark Airport", "class": "medium airport", "elev_ft": 311, "muni": "Okinoshima", "region": "JP-32", "rwy_ft": 6531, "rwy": "08/26", "rwy_cnt": 1}, "geometry": {"type": "Point", "coordinates": [133.323566, 36.178388]}}, {"type": "Feature", "properties": {"type": "airport", "ident": "RJNS", "iata": "FSZ", "name": "Mount Fuji Shizuoka Airport", "class": "medium airport", "elev_ft": 433, "muni": "Makinohara / Shimada", "region": "JP-22", "rwy_ft": 7218, "rwy": "12/30", "rwy_cnt": 1}, "geometry": {"type": "Point", "coordinates": [138.187752, 34.796043]}}, {"type": "Feature", "properties": {"type": "airport", "ident": "RJNT", "iata": "TOY", "name": "Toyama Airport", "class": "medium airport", "elev_ft": 95, "muni": "Toyama", "region": "JP-16", "rwy_ft": 6562, "rwy": "02/20", "rwy_cnt": 1, "freqs": {"TWR": "124.3"}}, "geometry": {"type": "Point", "coordinates": [137.188004, 36.6483]}}, {"type": "Feature", "properties": {"type": "airport", "ident": "RJNW", "iata": "NTQ", "name": "Noto Satoyama Airport", "class": "medium airport", "elev_ft": 718, "muni": "Wajima", "region": "JP-17", "rwy_ft": 6562, "rwy": "07/25", "rwy_cnt": 1}, "geometry": {"type": "Point", "coordinates": [136.962006, 37.293098]}}, {"type": "Feature", "properties": {"type": "airport", "ident": "RJNY", "iata": "", "name": "JASDF Shizuhama Air Base", "class": "medium airport", "elev_ft": 23, "muni": "Yaizu", "region": "JP-22", "rwy_ft": 4920, "rwy": "09/27", "rwy_cnt": 1, "freqs": {"TWR": "120.1"}}, "geometry": {"type": "Point", "coordinates": [138.298004, 34.812801]}}, {"type": "Feature", "properties": {"type": "airport", "ident": "RJOA", "iata": "HIJ", "name": "Hiroshima Airport", "class": "medium airport", "elev_ft": 1088, "muni": "Hiroshima", "region": "JP-34", "rwy_ft": 9842, "rwy": "10/28", "rwy_cnt": 1, "freqs": {"APP": "124.05", "ATIS": "127.25", "TWR": "118.6"}}, "geometry": {"type": "Point", "coordinates": [132.919006, 34.4361]}}, {"type": "Feature", "properties": {"type": "airport", "ident": "RJOB", "iata": "OKJ", "name": "Okayama Momotaro Airport", "class": "medium airport", "elev_ft": 806, "muni": "Okayama", "region": "JP-33", "rwy_ft": 9843, "rwy": "07/25", "rwy_cnt": 1, "freqs": {"APP": "120.4", "TWR": "124.3"}}, "geometry": {"type": "Point", "coordinates": [133.854996, 34.756901]}}, {"type": "Feature", "properties": {"type": "airport", "ident": "RJOC", "iata": "IZO", "name": "Izumo Enmusubi Airport", "class": "medium airport", "elev_ft": 15, "muni": "Izumo", "region": "JP-32", "rwy_ft": 6562, "rwy": "07/25", "rwy_cnt": 1, "freqs": {"APP": "120.1"}}, "geometry": {"type": "Point", "coordinates": [132.889999, 35.413601]}}, {"type": "Feature", "properties": {"type": "airport", "ident": "RJOF", "iata": "", "name": "JASDF Hofu Airfield", "class": "medium airport", "elev_ft": 7, "muni": "Hofu", "region": "JP-35", "rwy_ft": 4856, "rwy": "12/30", "rwy_cnt": 2, "freqs": {"GND": "133.00", "TWR": "126.2"}}, "geometry": {"type": "Point", "coordinates": [131.548716, 34.034746]}}, {"type": "Feature", "properties": {"type": "airport", "ident": "RJOH", "iata": "YGJ", "name": "Yonago Kitaro Airport / JASDF Miho Air Base", "class": "medium airport", "elev_ft": 20, "muni": "Yonago", "region": "JP-31", "rwy_ft": 8202, "rwy": "07/25", "rwy_cnt": 1, "freqs": {"GND": "118.00", "TWR": "126.2"}}, "geometry": {"type": "Point", "coordinates": [133.235992, 35.492199]}}, {"type": "Feature", "properties": {"type": "airport", "ident": "RJOI", "iata": "IWK", "name": "Iwakuni Kintaikyo Airport / Marine Corps Air Station Iwakuni", "class": "medium airport", "elev_ft": 7, "muni": "Iwakuni", "region": "JP-35", "rwy_ft": 8000, "rwy": "02/20", "rwy_cnt": 2, "freqs": {"APP": "128.00", "ATIS": "128.4", "GND": "121.3", "TWR": "123.8"}}, "geometry": {"type": "Point", "coordinates": [132.247238, 34.146333]}}, {"type": "Feature", "properties": {"type": "airport", "ident": "RJOK", "iata": "KCZ", "name": "Kochi Ryoma Airport", "class": "medium airport", "elev_ft": 42, "muni": "Nankoku", "region": "JP-39", "rwy_ft": 8203, "rwy": "14/32", "rwy_cnt": 1, "freqs": {"APP": "125.00", "ATIS": "126.45", "TWR": "118.75"}}, "geometry": {"type": "Point", "coordinates": [133.669006, 33.546101]}}, {"type": "Feature", "properties": {"type": "airport", "ident": "RJOM", "iata": "MYJ", "name": "Matsuyama Airport", "class": "medium airport", "elev_ft": 25, "muni": "Matsuyama", "region": "JP-38", "rwy_ft": 8200, "rwy": "14/32", "rwy_cnt": 1, "freqs": {"APP": "128.00", "ATIS": "126.65", "TWR": "118.35"}}, "geometry": {"type": "Point", "coordinates": [132.699997, 33.827202]}}, {"type": "Feature", "properties": {"type": "airport", "ident": "RJOR", "iata": "TTJ", "name": "Tottori Sand Dunes Conan Airport", "class": "medium airport", "elev_ft": 65, "muni": "Tottori", "region": "JP-31", "rwy_ft": 6562, "rwy": "10/28", "rwy_cnt": 1}, "geometry": {"type": "Point", "coordinates": [134.167007, 35.530102]}}, {"type": "Feature", "properties": {"type": "airport", "ident": "RJOS", "iata": "TKS", "name": "Tokushima Awaodori Airport / JMSDF Tokushima Air Base", "class": "medium airport", "elev_ft": 26, "muni": "Tokushima", "region": "JP-36", "rwy_ft": 6560, "rwy": "11/29", "rwy_cnt": 1, "freqs": {"APP": "124.00", "ATIS": "24.68", "TWR": "118.00"}}, "geometry": {"type": "Point", "coordinates": [134.606995, 34.132801]}}, {"type": "Feature", "properties": {"type": "airport", "ident": "RJOT", "iata": "TAK", "name": "Takamatsu Airport", "class": "medium airport", "elev_ft": 607, "muni": "Takamatsu", "region": "JP-37", "rwy_ft": 8200, "rwy": "08/26", "rwy_cnt": 1, "freqs": {"APP": "121.2", "ATIS": "127.45", "TWR": "118.3"}}, "geometry": {"type": "Point", "coordinates": [134.016006, 34.214199]}}, {"type": "Feature", "properties": {"type": "airport", "ident": "RJOW", "iata": "IWJ", "name": "Iwami Airport", "class": "medium airport", "elev_ft": 184, "muni": "Masuda", "region": "JP-32", "rwy_ft": 6562, "rwy": "11/29", "rwy_cnt": 1}, "geometry": {"type": "Point", "coordinates": [131.789993, 34.676399]}}, {"type": "Feature", "properties": {"type": "airport", "ident": "RJOY", "iata": "", "name": "Yao Airport", "class": "medium airport", "elev_ft": 39, "muni": "Yao", "region": "JP-27", "rwy_ft": 4890, "rwy": "09/27", "rwy_cnt": 2, "freqs": {"APP": "120.45", "GND": "121.8", "TWR": "124.35"}}, "geometry": {"type": "Point", "coordinates": [135.602997, 34.596298]}}, {"type": "Feature", "properties": {"type": "airport", "ident": "RJSA", "iata": "AOJ", "name": "Aomori Airport", "class": "medium airport", "elev_ft": 664, "muni": "Aomori", "region": "JP-02", "rwy_ft": 9846, "rwy": "06/24", "rwy_cnt": 1, "freqs": {"TWR": "118.3"}}, "geometry": {"type": "Point", "coordinates": [140.690994, 40.734699]}}, {"type": "Feature", "properties": {"type": "airport", "ident": "RJSC", "iata": "GAJ", "name": "Yamagata Airport", "class": "medium airport", "elev_ft": 353, "muni": "Higashine", "region": "JP-06", "rwy_ft": 6560, "rwy": "01/19", "rwy_cnt": 1}, "geometry": {"type": "Point", "coordinates": [140.371002, 38.4119]}}, {"type": "Feature", "properties": {"type": "airport", "ident": "RJSD", "iata": "SDS", "name": "Sado Airport", "class": "medium airport", "elev_ft": 88, "muni": "Sado", "region": "JP-15", "rwy_ft": 3390, "rwy": "10/28", "rwy_cnt": 1}, "geometry": {"type": "Point", "coordinates": [138.414001, 38.0602]}}, {"type": "Feature", "properties": {"type": "airport", "ident": "RJSF", "iata": "FKS", "name": "Fukushima Airport", "class": "medium airport", "elev_ft": 1221, "muni": "Sukagawa", "region": "JP-07", "rwy_ft": 8202, "rwy": "01/19", "rwy_cnt": 1}, "geometry": {"type": "Point", "coordinates": [140.431, 37.227402]}}, {"type": "Feature", "properties": {"type": "airport", "ident": "RJSH", "iata": "HHE", "name": "JMSDF Hachinohe Air Base / Hachinohe Airport", "class": "medium airport", "elev_ft": 152, "muni": "Hachinohe", "region": "JP-02", "rwy_ft": 7380, "rwy": "07/25", "rwy_cnt": 3, "freqs": {"APP": "120.7", "ATIS": "24.58", "TWR": "126.2"}}, "geometry": {"type": "Point", "coordinates": [141.465428, 40.551181]}}, {"type": "Feature", "properties": {"type": "airport", "ident": "RJSI", "iata": "HNA", "name": "Iwate Hanamaki Airport", "class": "medium airport", "elev_ft": 297, "muni": "Hanamaki", "region": "JP-03", "rwy_ft": 8202, "rwy": "02/20", "rwy_cnt": 1}, "geometry": {"type": "Point", "coordinates": [141.134995, 39.4286]}}, {"type": "Feature", "properties": {"type": "airport", "ident": "RJSK", "iata": "AXT", "name": "Akita Airport", "class": "medium airport", "elev_ft": 313, "muni": "Akita", "region": "JP-05", "rwy_ft": 8200, "rwy": "10/28", "rwy_cnt": 1, "freqs": {"RDO": "127.1", "TWR": "118.6"}}, "geometry": {"type": "Point", "coordinates": [140.218994, 39.615601]}}, {"type": "Feature", "properties": {"type": "airport", "ident": "RJSM", "iata": "MSJ", "name": "Misawa Airport / Misawa Air Base", "class": "medium airport", "elev_ft": 119, "muni": "Misawa", "region": "JP-02", "rwy_ft": 10000, "rwy": "10/28", "rwy_cnt": 1, "freqs": {"APP": "120.7", "ATIS": "128.4", "GND": "118.65", "TWR": "125.3"}}, "geometry": {"type": "Point", "coordinates": [141.367996, 40.703201]}}, {"type": "Feature", "properties": {"type": "airport", "ident": "RJSN", "iata": "KIJ", "name": "Niigata Airport", "class": "medium airport", "elev_ft": 29, "muni": "Niigata", "region": "JP-15", "rwy_ft": 8200, "rwy": "10/28", "rwy_cnt": 2, "freqs": {"APP": "121.4", "ATIS": "128.45", "TWR": "118.00"}}, "geometry": {"type": "Point", "coordinates": [139.121002, 37.955898]}}, {"type": "Feature", "properties": {"type": "airport", "ident": "RJSR", "iata": "ONJ", "name": "Odate Noshiro Airport", "class": "medium airport", "elev_ft": 292, "muni": "Kitaakita", "region": "JP-05", "rwy_ft": 6562, "rwy": "11/29", "rwy_cnt": 1}, "geometry": {"type": "Point", "coordinates": [140.371002, 40.191898]}}, {"type": "Feature", "properties": {"type": "airport", "ident": "RJST", "iata": "", "name": "JASDF Matsushima Air Base", "class": "medium airport", "elev_ft": 7, "muni": "Ishinomaki", "region": "JP-04", "rwy_ft": 8860, "rwy": "07/25", "rwy_cnt": 2, "freqs": {"APP": "120.1", "GND": "27.58", "TWR": "126.2"}}, "geometry": {"type": "Point", "coordinates": [141.220001, 38.4049]}}, {"type": "Feature", "properties": {"type": "airport", "ident": "RJSY", "iata": "SYO", "name": "Shonai Airport", "class": "medium airport", "elev_ft": 86, "muni": "Shonai", "region": "JP-06", "rwy_ft": 6560, "rwy": "09/27", "rwy_cnt": 1, "freqs": {"RDO": "118.8"}}, "geometry": {"type": "Point", "coordinates": [139.787003, 38.812199]}}, {"type": "Feature", "properties": {"type": "airport", "ident": "RJTA", "iata": "NJA", "name": "JMSDF Atsugi Air Base / Naval Air Facility Atsugi", "class": "medium airport", "elev_ft": 205, "muni": "Ayase / Yamato", "region": "JP-14", "rwy_ft": 8000, "rwy": "01/19", "rwy_cnt": 1, "freqs": {"RDO": "305.00", "APP": "123.8", "ATIS": "24.68", "GND": "141.2", "TWR": "126.2"}}, "geometry": {"type": "Point", "coordinates": [139.449997, 35.454601]}}, {"type": "Feature", "properties": {"type": "airport", "ident": "RJTE", "iata": "", "name": "JMSDF Tateyama Air Base", "class": "medium airport", "elev_ft": 10, "muni": "Tateyama", "region": "JP-12", "rwy_ft": 984, "rwy": "09/27", "rwy_cnt": 1, "freqs": {"APP": "119.1", "TWR": "126.2"}}, "geometry": {"type": "Point", "coordinates": [139.828995, 34.987099]}}, {"type": "Feature", "properties": {"type": "airport", "ident": "RJTF", "iata": "", "name": "Chofu Airport", "class": "medium airport", "elev_ft": 141, "muni": "Chofu", "region": "JP-13", "rwy_ft": 2625, "rwy": "17/35", "rwy_cnt": 1}, "geometry": {"type": "Point", "coordinates": [139.528, 35.6717]}}, {"type": "Feature", "properties": {"type": "airport", "ident": "RJTH", "iata": "HAC", "name": "Hachijojima Airport", "class": "medium airport", "elev_ft": 303, "muni": "Hachijojima", "region": "JP-13", "rwy_ft": 6563, "rwy": "08/26", "rwy_cnt": 1, "freqs": {"RDO": "118.7"}}, "geometry": {"type": "Point", "coordinates": [139.785995, 33.115002]}}, {"type": "Feature", "properties": {"type": "airport", "ident": "RJTJ", "iata": "", "name": "Iruma Air Base", "class": "medium airport", "elev_ft": 295, "muni": "Sayama", "region": "JP-13", "rwy_ft": 6562, "rwy": "17/35", "rwy_cnt": 1, "freqs": {"APP": "118.3", "GND": "27.58", "TWR": "126.2"}}, "geometry": {"type": "Point", "coordinates": [139.410995, 35.8419]}}, {"type": "Feature", "properties": {"type": "airport", "ident": "RJTK", "iata": "", "name": "JGSDF Kisarazu Airfield", "class": "medium airport", "elev_ft": 10, "muni": "Kisarazu", "region": "JP-12", "rwy_ft": 6004, "rwy": "02/20", "rwy_cnt": 1, "freqs": {"APP": "119.1", "TWR": "126.2"}}, "geometry": {"type": "Point", "coordinates": [139.910004, 35.3983]}}, {"type": "Feature", "properties": {"type": "airport", "ident": "RJTL", "iata": "", "name": "JMSDF Shimofusa Air Base", "class": "medium airport", "elev_ft": 98, "muni": "Matsudo", "region": "JP-12", "rwy_ft": 7380, "rwy": "01/19", "rwy_cnt": 1, "freqs": {"APP": "126.00", "GND": "138.3", "TWR": "138.3"}}, "geometry": {"type": "Point", "coordinates": [140.011002, 35.798901]}}, {"type": "Feature", "properties": {"type": "airport", "ident": "RJTO", "iata": "OIM", "name": "Oshima Airport", "class": "medium airport", "elev_ft": 130, "muni": "Izu Oshima", "region": "JP-13", "rwy_ft": 5905, "rwy": "03/21", "rwy_cnt": 1}, "geometry": {"type": "Point", "coordinates": [139.360001, 34.782001]}}, {"type": "Feature", "properties": {"type": "airport", "ident": "RJTQ", "iata": "MYE", "name": "Miyakejima Airport", "class": "medium airport", "elev_ft": 67, "muni": "Miyakejima", "region": "JP-13", "rwy_ft": 4350, "rwy": "02/20", "rwy_cnt": 1, "freqs": {"RDO": "118.05"}}, "geometry": {"type": "Point", "coordinates": [139.559998, 34.073601]}}, {"type": "Feature", "properties": {"type": "airport", "ident": "RJTU", "iata": "", "name": "Utsunomiya Airport", "class": "medium airport", "elev_ft": 334, "muni": "Utsunomiya", "region": "JP-09", "rwy_ft": 5570, "rwy": "01/19", "rwy_cnt": 1, "freqs": {"APP": "120.1", "TWR": "23.68"}}, "geometry": {"type": "Point", "coordinates": [139.87101, 36.5145]}}, {"type": "Feature", "properties": {"type": "airport", "ident": "ROIG", "iata": "ISG", "name": "New Ishigaki Airport", "class": "medium airport", "elev_ft": 102, "muni": "Ishigaki", "region": "JP-47", "rwy_ft": 6562, "rwy": "04/22", "rwy_cnt": 1}, "geometry": {"type": "Point", "coordinates": [124.245, 24.396389]}}, {"type": "Feature", "properties": {"type": "airport", "ident": "ROKJ", "iata": "UEO", "name": "Kumejima Airport", "class": "medium airport", "elev_ft": 23, "muni": "Kumejima", "region": "JP-47", "rwy_ft": 6562, "rwy": "03/21", "rwy_cnt": 1, "freqs": {"RDO": "122.7"}}, "geometry": {"type": "Point", "coordinates": [126.71384, 26.363445]}}, {"type": "Feature", "properties": {"type": "airport", "ident": "ROMD", "iata": "MMD", "name": "Minamidaito Airport", "class": "medium airport", "elev_ft": 167, "muni": "Minamidaito", "region": "JP-47", "rwy_ft": 4921, "rwy": "02/20", "rwy_cnt": 1, "freqs": {"RDO": "126.2"}}, "geometry": {"type": "Point", "coordinates": [131.263, 25.8465]}}, {"type": "Feature", "properties": {"type": "airport", "ident": "ROMY", "iata": "MMY", "name": "Miyako Airport", "class": "medium airport", "elev_ft": 150, "muni": "Miyakojima", "region": "JP-47", "rwy_ft": 6560, "rwy": "04/22", "rwy_cnt": 1, "freqs": {"APP": "120.3", "TWR": "118.2"}}, "geometry": {"type": "Point", "coordinates": [125.294998, 24.782801]}}, {"type": "Feature", "properties": {"type": "airport", "ident": "RORE", "iata": "IEJ", "name": "Iejima Airport", "class": "medium airport", "elev_ft": 246, "muni": "Ie", "region": "JP-47", "rwy_ft": 4920, "rwy": "04/22", "rwy_cnt": 1}, "geometry": {"type": "Point", "coordinates": [127.786801, 26.722537]}}, {"type": "Feature", "properties": {"type": "airport", "ident": "RORK", "iata": "KTD", "name": "Kitadaito Airport", "class": "medium airport", "elev_ft": 80, "muni": "Kitadaitōjima", "region": "JP-47", "rwy_ft": 4921, "rwy": "03/21", "rwy_cnt": 1, "freqs": {"RDO": "126.2"}}, "geometry": {"type": "Point", "coordinates": [131.326996, 25.9447]}}, {"type": "Feature", "properties": {"type": "airport", "ident": "RORS", "iata": "SHI", "name": "Shimojishima Airport", "class": "medium airport", "elev_ft": 54, "muni": "Miyakojima", "region": "JP-47", "rwy_ft": 9842, "rwy": "17/35", "rwy_cnt": 1, "freqs": {"APP": "120.3", "GND": "121.7", "TWR": "118.3"}}, "geometry": {"type": "Point", "coordinates": [125.144997, 24.8267]}}, {"type": "Feature", "properties": {"type": "airport", "ident": "RORT", "iata": "TRA", "name": "Tarama Airport", "class": "medium airport", "elev_ft": 36, "muni": "Tarama", "region": "JP-47", "rwy_ft": 4921, "rwy": "18/36", "rwy_cnt": 1, "freqs": {"RDO": "118.6"}}, "geometry": {"type": "Point", "coordinates": [124.675453, 24.653793]}}, {"type": "Feature", "properties": {"type": "airport", "ident": "RORY", "iata": "RNJ", "name": "Yoron Airport", "class": "medium airport", "elev_ft": 52, "muni": "Yoron", "region": "JP-46", "rwy_ft": 4340, "rwy": "14/32", "rwy_cnt": 1, "freqs": {"RDO": "118.3"}}, "geometry": {"type": "Point", "coordinates": [128.401648, 27.043847]}}, {"type": "Feature", "properties": {"type": "airport", "ident": "ROTM", "iata": "", "name": "Futenma Marine Corps Air Station", "class": "medium airport", "elev_ft": 247, "muni": "", "region": "JP-47", "rwy_ft": 9000, "rwy": "06/24", "rwy_cnt": 1, "freqs": {"ATIS": "23.03", "GND": "122.8", "TWR": "123.6"}}, "geometry": {"type": "Point", "coordinates": [127.755997, 26.2743]}}, {"type": "Feature", "properties": {"type": "airport", "ident": "ROYN", "iata": "OGN", "name": "Yonaguni Airport", "class": "medium airport", "elev_ft": 70, "muni": "Yonaguni", "region": "JP-47", "rwy_ft": 4920, "rwy": "08/26", "rwy_cnt": 1, "freqs": {"RDO": "118.5"}}, "geometry": {"type": "Point", "coordinates": [122.979827, 24.467298]}}, {"type": "Feature", "properties": {"type": "airport", "ident": "ROIT", "iata": "", "name": "Oita Prefectural (Oitakenou) Airport", "class": "small airport", "elev_ft": 771, "muni": "Bungo-ono", "region": "JP-44"}, "geometry": {"type": "Point", "coordinates": [131.505577, 33.026331]}}, {"type": "Feature", "properties": {"type": "airport", "ident": "JP-0013", "iata": "", "name": "Fukagawa Gliderport", "class": "small airport", "elev_ft": 0, "muni": "Fukagawa", "region": "JP-01"}, "geometry": {"type": "Point", "coordinates": [142.03745, 43.69892]}}, {"type": "Feature", "properties": {"type": "airport", "ident": "JP-0019", "iata": "", "name": "JGSDF Camp Horobetsu Airfield", "class": "small airport", "elev_ft": 10, "muni": "Noboribetsu", "region": "JP-01"}, "geometry": {"type": "Point", "coordinates": [141.088906, 42.40013]}}, {"type": "Feature", "properties": {"type": "airport", "ident": "JP-0039", "iata": "", "name": "JGSDF Camp Nayoro Airfield and Heliport", "class": "small airport", "elev_ft": 0, "muni": "Nayoro", "region": "JP-01"}, "geometry": {"type": "Point", "coordinates": [142.442508, 44.384575]}}, {"type": "Feature", "properties": {"type": "airport", "ident": "JP-0052", "iata": "", "name": "Hokkaido Spaceport", "class": "small airport", "elev_ft": 50, "muni": "Bisei", "region": "JP-01"}, "geometry": {"type": "Point", "coordinates": [143.441759, 42.499971]}}, {"type": "Feature", "properties": {"type": "airport", "ident": "JP-0071", "iata": "", "name": "Hokkaido University Yubari River Gliderport", "class": "small airport", "elev_ft": 30, "muni": "Ebetsu", "region": "JP-01"}, "geometry": {"type": "Point", "coordinates": [141.62755, 43.10809]}}, {"type": "Feature", "properties": {"type": "airport", "ident": "JP-0090", "iata": "", "name": "Toyosaka Airstrip", "class": "small airport", "elev_ft": 1952, "muni": "Akitakata", "region": "JP-34", "rwy_ft": 690, "rwy": "03/21", "rwy_cnt": 1}, "geometry": {"type": "Point", "coordinates": [132.79609, 34.624145]}}, {"type": "Feature", "properties": {"type": "airport", "ident": "RJA2", "iata": "", "name": "Otone Airfield", "class": "small airport", "elev_ft": 8, "muni": "Kawachi", "region": "JP-08", "rwy_ft": 1970, "rwy": "07/25", "rwy_cnt": 1}, "geometry": {"type": "Point", "coordinates": [140.241219, 35.85937]}}, {"type": "Feature", "properties": {"type": "airport", "ident": "RJA3", "iata": "", "name": "Ryugasaki Airfield", "class": "small airport", "elev_ft": 0, "muni": "Ryugasaki", "region": "JP-08", "rwy_ft": 2625, "rwy": "08/26", "rwy_cnt": 1}, "geometry": {"type": "Point", "coordinates": [140.242152, 35.906276]}}, {"type": "Feature", "properties": {"type": "airport", "ident": "JP-0095", "iata": "", "name": "Tokyo Flight Park Moriya Airstrip", "class": "small airport", "elev_ft": 0, "muni": "Moriya", "region": "JP-08"}, "geometry": {"type": "Point", "coordinates": [139.974189, 35.929944]}}, {"type": "Feature", "properties": {"type": "airport", "ident": "JP-0096", "iata": "", "name": "Bando Auxiliary Airfield", "class": "small airport", "elev_ft": 0, "muni": "Bando", "region": "JP-08"}, "geometry": {"type": "Point", "coordinates": [139.873595, 36.015713]}}, {"type": "Feature", "properties": {"type": "airport", "ident": "JP-0097", "iata": "", "name": "Sekiyado Gliderport", "class": "small airport", "elev_ft": 0, "muni": "Noda", "region": "JP-12"}, "geometry": {"type": "Point", "coordinates": [139.816561, 36.015574]}}, {"type": "Feature", "properties": {"type": "airport", "ident": "JP-0098", "iata": "", "name": "Hoshubana Gliderport", "class": "small airport", "elev_ft": 0, "muni": "Kasukabe", "region": "JP-11"}, "geometry": {"type": "Point", "coordinates": [139.81066, 36.03903]}}, {"type": "Feature", "properties": {"type": "airport", "ident": "JP-0099", "iata": "", "name": "Yomiuri Otone Gliderport", "class": "small airport", "elev_ft": 0, "muni": "Kazo", "region": "JP-11"}, "geometry": {"type": "Point", "coordinates": [139.67117, 36.16458]}}, {"type": "Feature", "properties": {"type": "airport", "ident": "JP-0100", "iata": "", "name": "Kazo Gliderport", "class": "small airport", "elev_ft": 0, "muni": "Kazo", "region": "JP-11"}, "geometry": {"type": "Point", "coordinates": [139.61748, 36.1866]}}, {"type": "Feature", "properties": {"type": "airport", "ident": "JP-0101", "iata": "", "name": "Hanyu Gliderport", "class": "small airport", "elev_ft": 0, "muni": "Hanyu", "region": "JP-11"}, "geometry": {"type": "Point", "coordinates": [139.6031, 36.19942]}}, {"type": "Feature", "properties": {"type": "airport", "ident": "JP-0102", "iata": "", "name": "Menuma Gliderport", "class": "small airport", "elev_ft": 89, "muni": "Kumagaya", "region": "JP-11"}, "geometry": {"type": "Point", "coordinates": [139.41697, 36.21338]}}, {"type": "Feature", "properties": {"type": "airport", "ident": "JP-0103", "iata": "", "name": "Menuma Number 2 Gliderport", "class": "small airport", "elev_ft": 0, "muni": "Kumagaya", "region": "JP-11"}, "geometry": {"type": "Point", "coordinates": [139.43405, 36.20044]}}, {"type": "Feature", "properties": {"type": "airport", "ident": "JP-0104", "iata": "", "name": "Skyfield Watarase", "class": "small airport", "elev_ft": 0, "muni": "Tochigi", "region": "JP-09"}, "geometry": {"type": "Point", "coordinates": [139.677944, 36.251671]}}, {"type": "Feature", "properties": {"type": "airport", "ident": "JP-0105", "iata": "", "name": "Itakura Gliderport", "class": "small airport", "elev_ft": 59, "muni": "Itakura", "region": "JP-10"}, "geometry": {"type": "Point", "coordinates": [139.63388, 36.26616]}}, {"type": "Feature", "properties": {"type": "airport", "ident": "JP-0106", "iata": "", "name": "Makado Gliderport", "class": "small airport", "elev_ft": 0, "muni": "Sano", "region": "JP-09"}, "geometry": {"type": "Point", "coordinates": [139.59103, 36.2697]}}, {"type": "Feature", "properties": {"type": "airport", "ident": "JP-0108", "iata": "", "name": "Kinugawa Gliderport", "class": "small airport", "elev_ft": 0, "muni": "Utsunomiya", "region": "JP-09"}, "geometry": {"type": "Point", "coordinates": [139.94322, 36.68102]}}, {"type": "Feature", "properties": {"type": "airport", "ident": "JP-0109", "iata": "", "name": "Oyama Kinu Gliderport", "class": "small airport", "elev_ft": 0, "muni": "Oyama", "region": "JP-09"}, "geometry": {"type": "Point", "coordinates": [139.90523, 36.30085]}}, {"type": "Feature", "properties": {"type": "airport", "ident": "JP-0110", "iata": "", "name": "Fujikawa Airstrip", "class": "small airport", "elev_ft": 16, "muni": "Shizuoka", "region": "JP-22"}, "geometry": {"type": "Point", "coordinates": [138.6318, 35.12073]}}, {"type": "Feature", "properties": {"type": "airport", "ident": "JP-0111", "iata": "", "name": "Hamakita Gliderport", "class": "small airport", "elev_ft": 0, "muni": "Hamamatsu", "region": "JP-22"}, "geometry": {"type": "Point", "coordinates": [137.82417, 34.83975]}}, {"type": "Feature", "properties": {"type": "airport", "ident": "JP-0112", "iata": "", "name": "Okazaki Gliderport", "class": "small airport", "elev_ft": 0, "muni": "Okazaki", "region": "JP-23"}, "geometry": {"type": "Point", "coordinates": [137.14662, 34.94533]}}, {"type": "Feature", "properties": {"type": "airport", "ident": "JP-0113", "iata": "", "name": "Kasaoka Air Station", "class": "small airport", "elev_ft": 1, "muni": "Kasaoka", "region": "JP-33"}, "geometry": {"type": "Point", "coordinates": [133.488961, 34.476022]}}, {"type": "Feature", "properties": {"type": "airport", "ident": "JP-0114", "iata": "", "name": "Suika Airport", "class": "small airport", "elev_ft": 0, "muni": "Hokuei", "region": "JP-31"}, "geometry": {"type": "Point", "coordinates": [133.7043, 35.4395]}}, {"type": "Feature", "properties": {"type": "airport", "ident": "JP-0117", "iata": "", "name": "Urayasu Emergency Runway", "class": "small airport", "elev_ft": 0, "muni": "Urayasu", "region": "JP-12"}, "geometry": {"type": "Point", "coordinates": [139.935061, 35.638194]}}, {"type": "Feature", "properties": {"type": "airport", "ident": "JP-0320", "iata": "", "name": "Honda Airport", "class": "small airport", "elev_ft": 0, "muni": "Kawajima", "region": "JP-11"}, "geometry": {"type": "Point", "coordinates": [139.524125, 35.97633]}}, {"type": "Feature", "properties": {"type": "airport", "ident": "JP-0329", "iata": "", "name": "Suginohaku Hobby Field Ultralightport", "class": "small airport", "elev_ft": 0, "muni": "Akiota", "region": "JP-34"}, "geometry": {"type": "Point", "coordinates": [132.27509, 34.61506]}}, {"type": "Feature", "properties": {"type": "airport", "ident": "JP-0333", "iata": "", "name": "Makabe Gliderport", "class": "small airport", "elev_ft": 0, "muni": "Sakuragawa", "region": "JP-08"}, "geometry": {"type": "Point", "coordinates": [140.07195, 36.26608]}}, {"type": "Feature", "properties": {"type": "airport", "ident": "JP-0334", "iata": "", "name": "Nirasaki Gliderport", "class": "small airport", "elev_ft": 0, "muni": "Nirasaki", "region": "JP-19"}, "geometry": {"type": "Point", "coordinates": [138.46484, 35.69042]}}, {"type": "Feature", "properties": {"type": "airport", "ident": "JP-0335", "iata": "", "name": "Futaba Airport", "class": "small airport", "elev_ft": 1028, "muni": "Kai", "region": "JP-19"}, "geometry": {"type": "Point", "coordinates": [138.48345, 35.68141]}}, {"type": "Feature", "properties": {"type": "airport", "ident": "JP-0361", "iata": "", "name": "Iwabuchi Watergate Auxiliary Airfield", "class": "small airport", "elev_ft": 0, "muni": "Kita, Tokyo", "region": "JP-13"}, "geometry": {"type": "Point", "coordinates": [139.738133, 35.782031]}}, {"type": "Feature", "properties": {"type": "airport", "ident": "JP-0363", "iata": "", "name": "Isesaki Auxiliary Airfield", "class": "small airport", "elev_ft": 0, "muni": "Isesaki", "region": "JP-10"}, "geometry": {"type": "Point", "coordinates": [139.158261, 36.298871]}}, {"type": "Feature", "properties": {"type": "airport", "ident": "JP-0394", "iata": "", "name": "Tokyo Flying Club Airstrip", "class": "small airport", "elev_ft": 0, "muni": "Konosu", "region": "JP-11"}, "geometry": {"type": "Point", "coordinates": [139.50088, 36.03546]}}, {"type": "Feature", "properties": {"type": "airport", "ident": "JP-0395", "iata": "", "name": "Mint Airstrip", "class": "small airport", "elev_ft": 0, "muni": "Kawajima", "region": "JP-11"}, "geometry": {"type": "Point", "coordinates": [139.498, 36.00216]}}, {"type": "Feature", "properties": {"type": "airport", "ident": "JP-0397", "iata": "", "name": "Yuhikoku Kawajima Airstrip", "class": "small airport", "elev_ft": 0, "muni": "Kawajima", "region": "JP-11"}, "geometry": {"type": "Point", "coordinates": [139.500289, 36.011448]}}, {"type": "Feature", "properties": {"type": "airport", "ident": "JP-0400", "iata": "", "name": "Kamisato Gliderport", "class": "small airport", "elev_ft": 0, "muni": "Kamisato", "region": "JP-11"}, "geometry": {"type": "Point", "coordinates": [139.1518, 36.27324]}}, {"type": "Feature", "properties": {"type": "airport", "ident": "JP-0401", "iata": "", "name": "Air Wing Motor Paraglider School Osato Landing Area", "class": "small airport", "elev_ft": 0, "muni": "Kumagaya", "region": "JP-11"}, "geometry": {"type": "Point", "coordinates": [139.43146, 36.08799]}}, {"type": "Feature", "properties": {"type": "airport", "ident": "JP-0402", "iata": "", "name": "Fukiage Airstrip", "class": "small airport", "elev_ft": 0, "muni": "Konosu", "region": "JP-11"}, "geometry": {"type": "Point", "coordinates": [139.45908, 36.0811]}}, {"type": "Feature", "properties": {"type": "airport", "ident": "JP-0403", "iata": "", "name": "Kumagaya Flying Club Osato Airfield", "class": "small airport", "elev_ft": 0, "muni": "Kumagaya", "region": "JP-11"}, "geometry": {"type": "Point", "coordinates": [139.4131, 36.11246]}}, {"type": "Feature", "properties": {"type": "airport", "ident": "JP-0413", "iata": "", "name": "Kishigawa Airstrip", "class": "small airport", "elev_ft": 0, "muni": "Kinokawa", "region": "JP-30"}, "geometry": {"type": "Point", "coordinates": [135.33142, 34.23008]}}, {"type": "Feature", "properties": {"type": "airport", "ident": "JP-0422", "iata": "", "name": "Kisogawa Gliderport", "class": "small airport", "elev_ft": 16, "muni": "Kaizu", "region": "JP-21"}, "geometry": {"type": "Point", "coordinates": [136.67814, 35.21016]}}, {"type": "Feature", "properties": {"type": "airport", "ident": "JP-0423", "iata": "", "name": "Ono Gliderport", "class": "small airport", "elev_ft": 80, "muni": "Ono", "region": "JP-21"}, "geometry": {"type": "Point", "coordinates": [136.60299, 35.4492]}}, {"type": "Feature", "properties": {"type": "airport", "ident": "JP-0424", "iata": "", "name": "Hida Airpark", "class": "small airport", "elev_ft": 2343, "muni": "Takayama", "region": "JP-21"}, "geometry": {"type": "Point", "coordinates": [137.313573, 36.17939]}}, {"type": "Feature", "properties": {"type": "airport", "ident": "JP-0438", "iata": "", "name": "Tanaka Airstrip", "class": "small airport", "elev_ft": 0, "muni": "Tokamachi", "region": "JP-15"}, "geometry": {"type": "Point", "coordinates": [138.76491, 37.10633]}}, {"type": "Feature", "properties": {"type": "airport", "ident": "JP-0449", "iata": "", "name": "Ojima R/C Skyport", "class": "small airport", "elev_ft": 0, "muni": "Ota", "region": "JP-10"}, "geometry": {"type": "Point", "coordinates": [139.31917, 36.23945]}}, {"type": "Feature", "properties": {"type": "airport", "ident": "JP-0453", "iata": "", "name": "Yoichi Agricultural Airfield / Appleport Yoichi", "class": "small airport", "elev_ft": 139, "muni": "Yoichi", "region": "JP-01"}, "geometry": {"type": "Point", "coordinates": [140.80753, 43.17089]}}, {"type": "Feature", "properties": {"type": "airport", "ident": "JP-0454", "iata": "", "name": "Izena Auxiliary Airfield", "class": "small airport", "elev_ft": 20, "muni": "Izena", "region": "JP-47"}, "geometry": {"type": "Point", "coordinates": [127.91536, 26.93657]}}, {"type": "Feature", "properties": {"type": "airport", "ident": "JP-0455", "iata": "", "name": "Kakuda Airfield", "class": "small airport", "elev_ft": 30, "muni": "Kakuda", "region": "JP-04"}, "geometry": {"type": "Point", "coordinates": [140.80282, 38.01017]}}, {"type": "Feature", "properties": {"type": "airport", "ident": "JP-0456", "iata": "", "name": "Kuju Gliderport", "class": "small airport", "elev_ft": 2625, "muni": "Taketa", "region": "JP-44"}, "geometry": {"type": "Point", "coordinates": [131.23344, 33.03444]}}, {"type": "Feature", "properties": {"type": "airport", "ident": "JP-0457", "iata": "", "name": "Shiraoi Gliderport", "class": "small airport", "elev_ft": 43, "muni": "Shiraoi", "region": "JP-01"}, "geometry": {"type": "Point", "coordinates": [141.254919, 42.536824]}}, {"type": "Feature", "properties": {"type": "airport", "ident": "JP-0458", "iata": "", "name": "Shintoku Agricultural Airfield", "class": "small airport", "elev_ft": 692, "muni": "Shintoku", "region": "JP-01"}, "geometry": {"type": "Point", "coordinates": [142.87658, 43.07622]}}, {"type": "Feature", "properties": {"type": "airport", "ident": "JP-0459", "iata": "", "name": "Skyport Bibai", "class": "small airport", "elev_ft": 65, "muni": "Bibai", "region": "JP-01"}, "geometry": {"type": "Point", "coordinates": [141.85892, 43.38992]}}, {"type": "Feature", "properties": {"type": "airport", "ident": "JP-0460", "iata": "", "name": "Kitami Agricultural Airfield / Skyport Kitami", "class": "small airport", "elev_ft": 609, "muni": "Kitami", "region": "JP-01"}, "geometry": {"type": "Point", "coordinates": [143.73064, 43.77998]}}, {"type": "Feature", "properties": {"type": "airport", "ident": "JP-0461", "iata": "", "name": "Suwanose-jima Airport", "class": "small airport", "elev_ft": 351, "muni": "Toshima", "region": "JP-46"}, "geometry": {"type": "Point", "coordinates": [129.70221, 29.60624]}}, {"type": "Feature", "properties": {"type": "airport", "ident": "JP-0462", "iata": "", "name": "Semine Airstrip", "class": "small airport", "elev_ft": 171, "muni": "Kuriyama", "region": "JP-04"}, "geometry": {"type": "Point", "coordinates": [141.02163, 38.68017]}}, {"type": "Feature", "properties": {"type": "airport", "ident": "JP-0463", "iata": "", "name": "Takikawa Sky Park", "class": "small airport", "elev_ft": 75, "muni": "Takikawa", "region": "JP-01"}, "geometry": {"type": "Point", "coordinates": [141.894103, 43.549349]}}, {"type": "Feature", "properties": {"type": "airport", "ident": "JP-0465", "iata": "", "name": "Fukushima (Iizaka) Skypark", "class": "small airport", "elev_ft": 1318, "muni": "Ozaso", "region": "JP-07"}, "geometry": {"type": "Point", "coordinates": [140.38767, 37.82322]}}, {"type": "Feature", "properties": {"type": "airport", "ident": "JP-0466", "iata": "", "name": "Betsukai Flight Park", "class": "small airport", "elev_ft": 407, "muni": "Betsukai", "region": "JP-01"}, "geometry": {"type": "Point", "coordinates": [144.78309, 43.47484]}}, {"type": "Feature", "properties": {"type": "airport", "ident": "JP-0467", "iata": "", "name": "Shirakawa Gliderport", "class": "small airport", "elev_ft": 0, "muni": "Kumamoto", "region": "JP-43"}, "geometry": {"type": "Point", "coordinates": [130.630532, 32.776029]}}, {"type": "Feature", "properties": {"type": "airport", "ident": "JP-0468", "iata": "", "name": "Aso Auxiliary Airfield", "class": "small airport", "elev_ft": 0, "muni": "Aso", "region": "JP-43"}, "geometry": {"type": "Point", "coordinates": [131.10005, 33.00891]}}, {"type": "Feature", "properties": {"type": "airport", "ident": "JP-0469", "iata": "", "name": "Hofu Gliderport", "class": "small airport", "elev_ft": 0, "muni": "Hofu", "region": "JP-35"}, "geometry": {"type": "Point", "coordinates": [131.54031, 34.03937]}}, {"type": "Feature", "properties": {"type": "airport", "ident": "JP-0470", "iata": "", "name": "Nagano City Gliderport", "class": "small airport", "elev_ft": 0, "muni": "Nagano", "region": "JP-20"}, "geometry": {"type": "Point", "coordinates": [138.256073, 36.63339]}}, {"type": "Feature", "properties": {"type": "airport", "ident": "JP-0471", "iata": "", "name": "Kirigamine Gliderport", "class": "small airport", "elev_ft": 0, "muni": "Suwa", "region": "JP-20"}, "geometry": {"type": "Point", "coordinates": [138.16283, 36.09332]}}, {"type": "Feature", "properties": {"type": "airport", "ident": "JP-0472", "iata": "", "name": "Shinshinotsu Gliderport", "class": "small airport", "elev_ft": 0, "muni": "Iwamizawa", "region": "JP-01", "rwy_ft": 3280, "rwy": "18/36", "rwy_cnt": 1}, "geometry": {"type": "Point", "coordinates": [141.652436, 43.2743]}}, {"type": "Feature", "properties": {"type": "airport", "ident": "JP-0473", "iata": "", "name": "Toma Skypark Gliderport", "class": "small airport", "elev_ft": 0, "muni": "Toma", "region": "JP-01", "rwy_ft": 2630, "rwy": "05/23", "rwy_cnt": 1}, "geometry": {"type": "Point", "coordinates": [142.51119, 43.87484]}}, {"type": "Feature", "properties": {"type": "airport", "ident": "JP-0474", "iata": "", "name": "Biei Gliderport", "class": "small airport", "elev_ft": 0, "muni": "Biei", "region": "JP-01", "rwy_ft": 1960, "rwy": "13/31", "rwy_cnt": 1}, "geometry": {"type": "Point", "coordinates": [142.56389, 43.53125]}}, {"type": "Feature", "properties": {"type": "airport", "ident": "JP-0484", "iata": "", "name": "Sengokudaira Auxiliary Airfield", "class": "small airport", "elev_ft": 0, "muni": "Eiheiji", "region": "JP-18"}, "geometry": {"type": "Point", "coordinates": [136.33646, 36.10811]}}, {"type": "Feature", "properties": {"type": "airport", "ident": "JP-0591", "iata": "", "name": "Juo Airfield", "class": "small airport", "elev_ft": 0, "muni": "Hitachi", "region": "JP-08"}, "geometry": {"type": "Point", "coordinates": [140.66923, 36.666323]}}, {"type": "Feature", "properties": {"type": "airport", "ident": "JP-0592", "iata": "", "name": "Tokai Paraplane Airstrip", "class": "small airport", "elev_ft": 0, "muni": "Ena", "region": "JP-21"}, "geometry": {"type": "Point", "coordinates": [137.34719, 35.33082]}}, {"type": "Feature", "properties": {"type": "airport", "ident": "JP-0596", "iata": "", "name": "Fukushima Robot Test Field Minamisoma Runway", "class": "small airport", "elev_ft": 0, "muni": "Minamisoma", "region": "JP-07"}, "geometry": {"type": "Point", "coordinates": [141.008363, 37.632442]}}, {"type": "Feature", "properties": {"type": "airport", "ident": "JP-0597", "iata": "", "name": "Fukushima Robot Test Field Namie Runway", "class": "small airport", "elev_ft": 0, "muni": "Namie", "region": "JP-07"}, "geometry": {"type": "Point", "coordinates": [141.032, 37.50672]}}, {"type": "Feature", "properties": {"type": "airport", "ident": "JP-0598", "iata": "", "name": "Rifu Morigo Auxiliary Airfield", "class": "small airport", "elev_ft": 0, "muni": "Rifu", "region": "JP-04"}, "geometry": {"type": "Point", "coordinates": [140.98477, 38.35937]}}, {"type": "Feature", "properties": {"type": "airport", "ident": "JP-0599", "iata": "", "name": "Abukuma Flying Club Airstrip", "class": "small airport", "elev_ft": 0, "muni": "Date", "region": "JP-07"}, "geometry": {"type": "Point", "coordinates": [140.604283, 37.86812]}}, {"type": "Feature", "properties": {"type": "airport", "ident": "JP-0600", "iata": "", "name": "Shirataka Aero Park / Mutsumi Airfield", "class": "small airport", "elev_ft": 0, "muni": "Shirataka", "region": "JP-06"}, "geometry": {"type": "Point", "coordinates": [140.0619, 38.16359]}}, {"type": "Feature", "properties": {"type": "airport", "ident": "JP-0601", "iata": "", "name": "Inazawa Auxiliary Microlight Airport", "class": "small airport", "elev_ft": 381, "muni": "Daisen", "region": "JP-05", "rwy_ft": 725, "rwy": "18/36", "rwy_cnt": 1}, "geometry": {"type": "Point", "coordinates": [140.40957, 39.6158]}}, {"type": "Feature", "properties": {"type": "airport", "ident": "JP-0602", "iata": "", "name": "Arakawa Airstrip", "class": "small airport", "elev_ft": 0, "muni": "Kosaka", "region": "JP-05"}, "geometry": {"type": "Point", "coordinates": [140.735114, 40.370013]}}, {"type": "Feature", "properties": {"type": "airport", "ident": "JP-0623", "iata": "", "name": "Niikappu Auxiliary Airfield", "class": "small airport", "elev_ft": 0, "muni": "Niikappu", "region": "JP-01"}, "geometry": {"type": "Point", "coordinates": [142.454649, 42.462803]}}, {"type": "Feature", "properties": {"type": "airport", "ident": "JP-0626", "iata": "", "name": "Bihoro Air Park", "class": "small airport", "elev_ft": 0, "muni": "Bihoro", "region": "JP-01"}, "geometry": {"type": "Point", "coordinates": [144.07879, 43.81589]}}, {"type": "Feature", "properties": {"type": "airport", "ident": "JP-0634", "iata": "", "name": "JGSDF Shinodayama Airfield", "class": "small airport", "elev_ft": 0, "muni": "Izumi", "region": "JP-27"}, "geometry": {"type": "Point", "coordinates": [135.46242, 34.49568]}}, {"type": "Feature", "properties": {"type": "airport", "ident": "JP-0635", "iata": "", "name": "JGSDF Aonogahara East Airstrip", "class": "small airport", "elev_ft": 0, "muni": "Ono", "region": "JP-28"}, "geometry": {"type": "Point", "coordinates": [134.90918, 34.89599]}}, {"type": "Feature", "properties": {"type": "airport", "ident": "JP-0636", "iata": "", "name": "JGSDF Aonogahara West Airstrip", "class": "small airport", "elev_ft": 0, "muni": "Ono", "region": "JP-28"}, "geometry": {"type": "Point", "coordinates": [134.904728, 34.892392]}}, {"type": "Feature", "properties": {"type": "airport", "ident": "JP-0638", "iata": "", "name": "Kisarazu Nakajima Auxiliary Airfield / Kisarazu Heliport", "class": "small airport", "elev_ft": 0, "muni": "Kisarazu", "region": "JP-12"}, "geometry": {"type": "Point", "coordinates": [139.91993, 35.42106]}}, {"type": "Feature", "properties": {"type": "airport", "ident": "JP-0648", "iata": "", "name": "Oshino Sky Sports Club", "class": "small airport", "elev_ft": 0, "muni": "Oshino", "region": "JP-19"}, "geometry": {"type": "Point", "coordinates": [138.86428, 35.4651]}}, {"type": "Feature", "properties": {"type": "airport", "ident": "JP-0690", "iata": "", "name": "Fukuda Nishidai Airfield", "class": "small airport", "elev_ft": 0, "muni": "Abu", "region": "JP-35"}, "geometry": {"type": "Point", "coordinates": [131.59634, 34.50577]}}, {"type": "Feature", "properties": {"type": "airport", "ident": "JP-0707", "iata": "", "name": "Utsunomiya Auxiliary Airfield", "class": "small airport", "elev_ft": 0, "muni": "Utsunomiya", "region": "JP-09"}, "geometry": {"type": "Point", "coordinates": [139.96614, 36.57566]}}, {"type": "Feature", "properties": {"type": "airport", "ident": "JP-0743", "iata": "", "name": "Kuge Flying Club Airstrip", "class": "small airport", "elev_ft": 0, "muni": "Kumagaya", "region": "JP-11"}, "geometry": {"type": "Point", "coordinates": [139.43258, 36.10627]}}, {"type": "Feature", "properties": {"type": "airport", "ident": "JP-0826", "iata": "", "name": "Locus Lake Biwa Flying Adventure / Lake Biwa MPPG Paraglider Airfield", "class": "small airport", "elev_ft": 0, "muni": "Moriyama", "region": "JP-25"}, "geometry": {"type": "Point", "coordinates": [135.94852, 35.08479]}}, {"type": "Feature", "properties": {"type": "airport", "ident": "JP-0829", "iata": "", "name": "JGSDF Osadano Airstrip", "class": "small airport", "elev_ft": 0, "muni": "Fukuchiyama", "region": "JP-26"}, "geometry": {"type": "Point", "coordinates": [135.18161, 35.28523]}}, {"type": "Feature", "properties": {"type": "airport", "ident": "JP-0855", "iata": "", "name": "Ryu's Skypark", "class": "small airport", "elev_ft": 0, "muni": "Tsu", "region": "JP-24"}, "geometry": {"type": "Point", "coordinates": [136.545568, 34.638053]}}, {"type": "Feature", "properties": {"type": "airport", "ident": "JP-0856", "iata": "", "name": "Kushidagawa Gliderport", "class": "small airport", "elev_ft": 0, "muni": "Matsusaka", "region": "JP-24"}, "geometry": {"type": "Point", "coordinates": [136.57514, 34.59808]}}, {"type": "Feature", "properties": {"type": "airport", "ident": "JP-0860", "iata": "", "name": "Namiki Auxiliary Airfield", "class": "small airport", "elev_ft": 0, "muni": "Namegata", "region": "JP-08"}, "geometry": {"type": "Point", "coordinates": [140.48573, 36.11309]}}, {"type": "Feature", "properties": {"type": "airport", "ident": "JP-0865", "iata": "", "name": "Akeno Auxiliary Airfield", "class": "small airport", "elev_ft": 0, "muni": "Chikusei", "region": "JP-08"}, "geometry": {"type": "Point", "coordinates": [140.00184, 36.22588]}}, {"type": "Feature", "properties": {"type": "airport", "ident": "JP-0874", "iata": "", "name": "Mito Flying Club Airfield", "class": "small airport", "elev_ft": 0, "muni": "Mito", "region": "JP-08"}, "geometry": {"type": "Point", "coordinates": [140.51258, 36.32147]}}, {"type": "Feature", "properties": {"type": "airport", "ident": "JP-0876", "iata": "", "name": "Oarai Auxiliary Airfield", "class": "small airport", "elev_ft": 0, "muni": "Mito", "region": "JP-08"}, "geometry": {"type": "Point", "coordinates": [140.50303, 36.30517]}}, {"type": "Feature", "properties": {"type": "airport", "ident": "JP-0898", "iata": "", "name": "Izu Flying Club Airfield", "class": "small airport", "elev_ft": 0, "muni": "Izu", "region": "JP-22"}, "geometry": {"type": "Point", "coordinates": [139.0045, 34.99628]}}, {"type": "Feature", "properties": {"type": "airport", "ident": "JP-1045", "iata": "", "name": "JGDSF Camp Bihoro Airfield", "class": "small airport", "elev_ft": 0, "muni": "Bihoro", "region": "JP-01"}, "geometry": {"type": "Point", "coordinates": [144.16707, 43.82618]}}, {"type": "Feature", "properties": {"type": "airport", "ident": "JP-1131", "iata": "", "name": "Mageshima Airport", "class": "small airport", "elev_ft": 0, "muni": "Nishinoomote", "region": "JP-46"}, "geometry": {"type": "Point", "coordinates": [130.851216, 30.73569]}}, {"type": "Feature", "properties": {"type": "airport", "ident": "JP-1184", "iata": "", "name": "Kamishihoro Air Park", "class": "small airport", "elev_ft": 0, "muni": "Kamishihoro", "region": "JP-01"}, "geometry": {"type": "Point", "coordinates": [143.277673, 43.244787]}}, {"type": "Feature", "properties": {"type": "airport", "ident": "JP-1185", "iata": "", "name": "Hopeland Airfield", "class": "small airport", "elev_ft": 144, "muni": "Makubetsu", "region": "JP-01"}, "geometry": {"type": "Point", "coordinates": [143.311721, 42.859581]}}, {"type": "Feature", "properties": {"type": "airport", "ident": "JP-1186", "iata": "", "name": "Sarobetsu Flight Club Airfield", "class": "small airport", "elev_ft": 0, "muni": "Toyotomi", "region": "JP-01"}, "geometry": {"type": "Point", "coordinates": [141.654321, 45.114106]}}, {"type": "Feature", "properties": {"type": "airport", "ident": "JP-1189", "iata": "", "name": "UFO Park Airfield", "class": "small airport", "elev_ft": 0, "muni": "Ishikari", "region": "JP-01", "rwy_ft": 1160, "rwy": "01/19", "rwy_cnt": 2}, "geometry": {"type": "Point", "coordinates": [141.435487, 43.343161]}}, {"type": "Feature", "properties": {"type": "airport", "ident": "JP-1226", "iata": "", "name": "Yuri Airstrip", "class": "small airport", "elev_ft": 0, "muni": "Yurihonjo", "region": "JP-05"}, "geometry": {"type": "Point", "coordinates": [140.054859, 39.299205]}}, {"type": "Feature", "properties": {"type": "airport", "ident": "JP-1267", "iata": "", "name": "Chiyoda Auxiliary Airstrip", "class": "small airport", "elev_ft": 59, "muni": "Kasumigaura", "region": "JP-08"}, "geometry": {"type": "Point", "coordinates": [140.253211, 36.142082]}}, {"type": "Feature", "properties": {"type": "airport", "ident": "JP-1271", "iata": "", "name": "Tashiro Nanohana Airfield", "class": "small airport", "elev_ft": 0, "muni": "Odate", "region": "JP-05"}, "geometry": {"type": "Point", "coordinates": [140.469894, 40.293173]}}, {"type": "Feature", "properties": {"type": "airport", "ident": "JP-1303", "iata": "", "name": "Taragi Auxiliary Airfield", "class": "small airport", "elev_ft": 0, "muni": "Taragi", "region": "JP-43"}, "geometry": {"type": "Point", "coordinates": [130.915607, 32.276669]}}, {"type": "Feature", "properties": {"type": "airport", "ident": "JP-1333", "iata": "", "name": "Kita-Ariake Auxiliary Airfield", "class": "small airport", "elev_ft": 0, "muni": "Shiroishi", "region": "JP-41"}, "geometry": {"type": "Point", "coordinates": [130.187592, 33.148715]}}, {"type": "Feature", "properties": {"type": "airport", "ident": "JP-1334", "iata": "", "name": "Ubuyama Auxiliary Airfield", "class": "small airport", "elev_ft": 0, "muni": "Ubuyama", "region": "JP-43"}, "geometry": {"type": "Point", "coordinates": [131.209242, 32.98732]}}, {"type": "Feature", "properties": {"type": "airport", "ident": "JP-1335", "iata": "", "name": "Imari Flying Club Airfield", "class": "small airport", "elev_ft": 0, "muni": "Imari", "region": "JP-41"}, "geometry": {"type": "Point", "coordinates": [129.997357, 33.318118]}}, {"type": "Feature", "properties": {"type": "airport", "ident": "JP-1652", "iata": "", "name": "Bekanbe Airfield", "class": "small airport", "elev_ft": 390, "muni": "Akkeshi", "region": "JP-01"}, "geometry": {"type": "Point", "coordinates": [144.7079, 43.32851]}}, {"type": "Feature", "properties": {"type": "airport", "ident": "JP-1653", "iata": "", "name": "Yausubetsu Airfield", "class": "small airport", "elev_ft": 108, "muni": "Betsukai", "region": "JP-01"}, "geometry": {"type": "Point", "coordinates": [144.9978, 43.2872]}}, {"type": "Feature", "properties": {"type": "airport", "ident": "JP-1660", "iata": "", "name": "Otaki Airfield", "class": "small airport", "elev_ft": 1621, "muni": "Date", "region": "JP-01"}, "geometry": {"type": "Point", "coordinates": [141.101933, 42.665802]}}, {"type": "Feature", "properties": {"type": "airport", "ident": "JP-1679", "iata": "", "name": "Soratomo Wind Park Gliderport", "class": "small airport", "elev_ft": 43, "muni": "Tahara", "region": "JP-23"}, "geometry": {"type": "Point", "coordinates": [137.18636, 34.66842]}}, {"type": "Feature", "properties": {"type": "airport", "ident": "JP-1712", "iata": "", "name": "Ashoro Meto Airfield", "class": "small airport", "elev_ft": 797, "muni": "Ashoro", "region": "JP-01"}, "geometry": {"type": "Point", "coordinates": [143.43245, 43.31811]}}, {"type": "Feature", "properties": {"type": "airport", "ident": "JP-1716", "iata": "", "name": "Atsuma Sky Park", "class": "small airport", "elev_ft": 3, "muni": "Atsuma", "region": "JP-01"}, "geometry": {"type": "Point", "coordinates": [141.87865, 42.64362]}}, {"type": "Feature", "properties": {"type": "airport", "ident": "JP-1900", "iata": "", "name": "JGSDF Narashino Airfield", "class": "small airport", "elev_ft": 95, "muni": "Funabashi", "region": "JP-12"}, "geometry": {"type": "Point", "coordinates": [140.06481, 35.71426]}}, {"type": "Feature", "properties": {"type": "airport", "ident": "JP-1904", "iata": "", "name": "Yoshiigawa Eku Gliderport", "class": "small airport", "elev_ft": 13, "muni": "Setouchi", "region": "JP-33"}, "geometry": {"type": "Point", "coordinates": [134.07234, 34.6744]}}, {"type": "Feature", "properties": {"type": "airport", "ident": "JP-1931", "iata": "", "name": "Ieshima West (LHA) Airfield", "class": "small airport", "elev_ft": 0, "muni": "Ie", "region": "JP-47"}, "geometry": {"type": "Point", "coordinates": [127.75647, 26.72998]}}, {"type": "Feature", "properties": {"type": "airport", "ident": "JP-2073", "iata": "", "name": "Hirosaki Fifteen Club Airstrip", "class": "small airport", "elev_ft": 935, "muni": "Hirosaki", "region": "JP-02"}, "geometry": {"type": "Point", "coordinates": [140.3239, 40.70151]}}, {"type": "Feature", "properties": {"type": "airport", "ident": "JP-2079", "iata": "", "name": "Kawayo Green Ranch Airport", "class": "small airport", "elev_ft": 187, "muni": "Oirase", "region": "JP-02"}, "geometry": {"type": "Point", "coordinates": [141.37704, 40.629479]}}, {"type": "Feature", "properties": {"type": "airport", "ident": "JP-2080", "iata": "", "name": "Tsubasa Flying Club Kawashima Auxiliary Airfield", "class": "small airport", "elev_ft": 115, "muni": "Yuki", "region": "JP-09"}, "geometry": {"type": "Point", "coordinates": [139.907005, 36.285424]}}, {"type": "Feature", "properties": {"type": "airport", "ident": "JP-2082", "iata": "", "name": "Skyfield Nasu", "class": "small airport", "elev_ft": 1130, "muni": "Nasushiobara", "region": "JP-09"}, "geometry": {"type": "Point", "coordinates": [139.97566, 36.96241]}}, {"type": "Feature", "properties": {"type": "airport", "ident": "JP-2089", "iata": "", "name": "JGSDF Mitsukojiyama Airstrip", "class": "small airport", "elev_ft": 0, "muni": "Kanazawa", "region": "JP-17"}, "geometry": {"type": "Point", "coordinates": [136.67166, 36.5229]}}, {"type": "Feature", "properties": {"type": "airport", "ident": "JP-2114", "iata": "", "name": "Nishigawara Airfield", "class": "small airport", "elev_ft": 0, "muni": "Itoigawa", "region": "JP-15"}, "geometry": {"type": "Point", "coordinates": [137.86808, 36.99445]}}, {"type": "Feature", "properties": {"type": "airport", "ident": "JP-2137", "iata": "", "name": "Tsukuba Gliderport", "class": "small airport", "elev_ft": 0, "muni": "Chikusei", "region": "JP-08"}, "geometry": {"type": "Point", "coordinates": [140.06, 36.23878]}}, {"type": "Feature", "properties": {"type": "airport", "ident": "JP-2148", "iata": "", "name": "Sekijo Auxiliary Airfield", "class": "small airport", "elev_ft": 108, "muni": "Chikusei", "region": "JP-08"}, "geometry": {"type": "Point", "coordinates": [139.905916, 36.271218]}}, {"type": "Feature", "properties": {"type": "airport", "ident": "JP-2174", "iata": "", "name": "Nukata Auxiliary Airfield", "class": "small airport", "elev_ft": 768, "muni": "Toyokawa", "region": "JP-23"}, "geometry": {"type": "Point", "coordinates": [137.34113, 34.89433]}}, {"type": "Feature", "properties": {"type": "airport", "ident": "JP-2254", "iata": "", "name": "Shirosato Auxiliary Airfield", "class": "small airport", "elev_ft": 70, "muni": "Shirosato", "region": "JP-08"}, "geometry": {"type": "Point", "coordinates": [140.35816, 36.53145]}}, {"type": "Feature", "properties": {"type": "airport", "ident": "JP-2286", "iata": "", "name": "Tachibana Wind Park", "class": "small airport", "elev_ft": 7, "muni": "Suooshima", "region": "JP-35"}, "geometry": {"type": "Point", "coordinates": [132.27028, 33.89122]}}, {"type": "Feature", "properties": {"type": "airport", "ident": "JP-2314", "iata": "", "name": "Hikone Kojinyama Hangglider Park", "class": "small airport", "elev_ft": 289, "muni": "Hikone", "region": "JP-25"}, "geometry": {"type": "Point", "coordinates": [136.19201, 35.23572]}}, {"type": "Feature", "properties": {"type": "airport", "ident": "JP-2543", "iata": "", "name": "Tatsuda Auxiliary Airfield", "class": "small airport", "elev_ft": 3, "muni": "Aisai", "region": "JP-23"}, "geometry": {"type": "Point", "coordinates": [136.68484, 35.15797]}}, {"type": "Feature", "properties": {"type": "airport", "ident": "JP-2558", "iata": "", "name": "Ichishicho Gliderport", "class": "small airport", "elev_ft": 52, "muni": "Tsu", "region": "JP-24"}, "geometry": {"type": "Point", "coordinates": [136.42173, 34.66876]}}, {"type": "Feature", "properties": {"type": "airport", "ident": "JP-3029", "iata": "", "name": "Kumagaya Trike Club Airfield", "class": "small airport", "elev_ft": 86, "muni": "Kumagaya", "region": "JP-11"}, "geometry": {"type": "Point", "coordinates": [139.40029, 36.12158]}}, {"type": "Feature", "properties": {"type": "airport", "ident": "JP-3047", "iata": "", "name": "Haneda Gliderport", "class": "small airport", "elev_ft": 72, "muni": "Joso", "region": "JP-08"}, "geometry": {"type": "Point", "coordinates": [139.90626, 36.13585]}}, {"type": "Feature", "properties": {"type": "airport", "ident": "JP-3069", "iata": "", "name": "Yamatanigawa Auxiliary Airfield", "class": "small airport", "elev_ft": 2575, "muni": "Tono", "region": "JP-03"}, "geometry": {"type": "Point", "coordinates": [141.45675, 39.36165]}}, {"type": "Feature", "properties": {"type": "airport", "ident": "JP-3085", "iata": "", "name": "Agawa Skypark Gliderport", "class": "small airport", "elev_ft": 2703, "muni": "Niyodogawa", "region": "JP-39"}, "geometry": {"type": "Point", "coordinates": [133.06374, 33.57508]}}, {"type": "Feature", "properties": {"type": "airport", "ident": "JP-3095", "iata": "", "name": "Kawane Skypark Gliderport", "class": "small airport", "elev_ft": 1945, "muni": "Shimada", "region": "JP-22"}, "geometry": {"type": "Point", "coordinates": [138.10416, 34.95518]}}, {"type": "Feature", "properties": {"type": "airport", "ident": "JP-3126", "iata": "", "name": "Osato Gliderport", "class": "small airport", "elev_ft": 20, "muni": "Osato", "region": "JP-04"}, "geometry": {"type": "Point", "coordinates": [140.99466, 38.4368]}}, {"type": "Feature", "properties": {"type": "airport", "ident": "JP-3127", "iata": "", "name": "Izumigatake Paragliding School", "class": "small airport", "elev_ft": 1900, "muni": "Sendai", "region": "JP-04"}, "geometry": {"type": "Point", "coordinates": [140.72037, 38.39275]}}, {"type": "Feature", "properties": {"type": "airport", "ident": "JP-3163", "iata": "", "name": "Kozaki Airfield", "class": "small airport", "elev_ft": 10, "muni": "Kozaki", "region": "JP-12"}, "geometry": {"type": "Point", "coordinates": [140.40668, 35.90741]}}, {"type": "Feature", "properties": {"type": "airport", "ident": "JP-3253", "iata": "", "name": "Ogurayama Paraglider Launch", "class": "small airport", "elev_ft": 4203, "muni": "Omachi", "region": "JP-20"}, "geometry": {"type": "Point", "coordinates": [137.8226, 36.57134]}}, {"type": "Feature", "properties": {"type": "airport", "ident": "JP-3352", "iata": "", "name": "JGSDF Nihonbara Airfield", "class": "small airport", "elev_ft": 827, "muni": "Nagi", "region": "JP-33"}, "geometry": {"type": "Point", "coordinates": [134.13694, 35.11956]}}, {"type": "Feature", "properties": {"type": "airport", "ident": "JP-3438", "iata": "", "name": "Kannami Hang Glider Landing Field", "class": "small airport", "elev_ft": 771, "muni": "Kannami", "region": "JP-22"}, "geometry": {"type": "Point", "coordinates": [139.01496, 35.10152]}}, {"type": "Feature", "properties": {"type": "airport", "ident": "JP-3497", "iata": "", "name": "Kannami Glider Park", "class": "small airport", "elev_ft": 791, "muni": "Kannami", "region": "JP-22"}, "geometry": {"type": "Point", "coordinates": [139.01887, 35.1031]}}, {"type": "Feature", "properties": {"type": "airport", "ident": "RJ04", "iata": "", "name": "Shikabe Airfield", "class": "small airport", "elev_ft": 63, "muni": "Shikabe", "region": "JP-01", "rwy_ft": 3313, "rwy": "07/25", "rwy_cnt": 1}, "geometry": {"type": "Point", "coordinates": [140.793293, 42.045033]}}, {"type": "Feature", "properties": {"type": "airport", "ident": "RJAK", "iata": "", "name": "JGSDF Kasumigaura Airfield", "class": "small airport", "elev_ft": 92, "muni": "Tsuchiura", "region": "JP-08"}, "geometry": {"type": "Point", "coordinates": [140.192993, 36.034698]}}, {"type": "Feature", "properties": {"type": "airport", "ident": "RJAM", "iata": "MUS", "name": "JMSDF Minami Torishima Air Base", "class": "small airport", "elev_ft": 22, "muni": "Ogasawara", "region": "JP-13", "rwy_ft": 4500, "rwy": "05/23", "rwy_cnt": 1}, "geometry": {"type": "Point", "coordinates": [153.979004, 24.2897]}}, {"type": "Feature", "properties": {"type": "airport", "ident": "RJAN", "iata": "", "name": "Niijima Airport", "class": "small airport", "elev_ft": 92, "muni": "Niijima Village", "region": "JP-13", "rwy_ft": 2625, "rwy": "11/29", "rwy_cnt": 1}, "geometry": {"type": "Point", "coordinates": [139.268997, 34.3694]}}, {"type": "Feature", "properties": {"type": "airport", "ident": "RJAZ", "iata": "", "name": "Kozushima Airport", "class": "small airport", "elev_ft": 452, "muni": "Kozushima", "region": "JP-13", "rwy_ft": 2625, "rwy": "11/29", "rwy_cnt": 1}, "geometry": {"type": "Point", "coordinates": [139.134003, 34.189999]}}, {"type": "Feature", "properties": {"type": "airport", "ident": "RJBK", "iata": "", "name": "Kohnan Airport", "class": "small airport", "elev_ft": 3, "muni": "Okayama", "region": "JP-33", "rwy_ft": 4327, "rwy": "09/27", "rwy_cnt": 1, "freqs": {"RDO": "130.75"}}, "geometry": {"type": "Point", "coordinates": [133.932999, 34.590801]}}, {"type": "Feature", "properties": {"type": "airport", "ident": "RJCA", "iata": "", "name": "JGSDF Camp Asahikawa Airfield", "class": "small airport", "elev_ft": 377, "muni": "Asahikawa", "region": "JP-01", "rwy_ft": 2624, "rwy": "08/26", "rwy_cnt": 1, "freqs": {"TWR": "126.2"}}, "geometry": {"type": "Point", "coordinates": [142.365432, 43.794734]}}, {"type": "Feature", "properties": {"type": "airport", "ident": "RJCR", "iata": "RBJ", "name": "Rebun Airport", "class": "small airport", "elev_ft": 92, "muni": "Rebun", "region": "JP-01", "rwy_ft": 2625, "rwy": "14/32", "rwy_cnt": 1}, "geometry": {"type": "Point", "coordinates": [141.039001, 45.455002]}}, {"type": "Feature", "properties": {"type": "airport", "ident": "RJCY", "iata": "", "name": "JASDF Yakumo Airbase", "class": "small airport", "elev_ft": 65, "muni": "Yakumo", "region": "JP-01"}, "geometry": {"type": "Point", "coordinates": [140.265729, 42.245955]}}, {"type": "Feature", "properties": {"type": "airport", "ident": "RJDA", "iata": "AXJ", "name": "Amakusa Airport", "class": "small airport", "elev_ft": 340, "muni": "Amakusa", "region": "JP-43", "rwy_ft": 3281, "rwy": "13/31", "rwy_cnt": 1, "freqs": {"RDO": "130.775"}}, "geometry": {"type": "Point", "coordinates": [130.158997, 32.482498]}}, {"type": "Feature", "properties": {"type": "airport", "ident": "RJDK", "iata": "", "name": "Kamigoto Airport", "class": "small airport", "elev_ft": 263, "muni": "Shinkamigoto", "region": "JP-42", "rwy_ft": 2625, "rwy": "17/35", "rwy_cnt": 1}, "geometry": {"type": "Point", "coordinates": [129.192363, 33.013576]}}, {"type": "Feature", "properties": {"type": "airport", "ident": "RJDM", "iata": "", "name": "JGSDF Metabaru Airfield", "class": "small airport", "elev_ft": 49, "muni": "Yoshinogari", "region": "JP-41"}, "geometry": {"type": "Point", "coordinates": [130.413787, 33.325445]}}, {"type": "Feature", "properties": {"type": "airport", "ident": "RJDO", "iata": "", "name": "Ojika Airport", "class": "small airport", "elev_ft": 30, "muni": "Ojika", "region": "JP-42", "rwy_ft": 2625, "rwy": "03/21", "rwy_cnt": 1}, "geometry": {"type": "Point", "coordinates": [129.089996, 33.1908]}}, {"type": "Feature", "properties": {"type": "airport", "ident": "RJDU", "iata": "OMJ", "name": "JMSDF Omura Air Base", "class": "small airport", "elev_ft": 0, "muni": "Nagasaki", "region": "JP-42"}, "geometry": {"type": "Point", "coordinates": [129.934168, 32.928046]}}, {"type": "Feature", "properties": {"type": "airport", "ident": "RJFN", "iata": "", "name": "JASDF Nyūtabaru Air Base", "class": "small airport", "elev_ft": 259, "muni": "Shintomi", "region": "JP-45", "rwy_ft": 8860, "rwy": "10/28", "rwy_cnt": 1, "freqs": {"APP": "120.1", "GND": "27.58", "TWR": "126.2"}}, "geometry": {"type": "Point", "coordinates": [131.451004, 32.083599]}}, {"type": "Feature", "properties": {"type": "airport", "ident": "RJOE", "iata": "", "name": "JGSDF Akeno Airfield", "class": "small airport", "elev_ft": 20, "muni": "Ise", "region": "JP-24"}, "geometry": {"type": "Point", "coordinates": [136.671997, 34.533298]}}, {"type": "Feature", "properties": {"type": "airport", "ident": "RJOZ", "iata": "", "name": "Ozuki Airfield", "class": "small airport", "elev_ft": 13, "muni": "Shimonoseki", "region": "JP-35", "rwy_ft": 3940, "rwy": "17/35", "rwy_cnt": 2, "freqs": {"ATIS": "24.58", "TWR": "122.00"}}, "geometry": {"type": "Point", "coordinates": [131.052002, 34.0453]}}, {"type": "Feature", "properties": {"type": "airport", "ident": "RJSO", "iata": "", "name": "JMSDF Ōminato Base", "class": "small airport", "elev_ft": 24, "muni": "Mutsu", "region": "JP-02"}, "geometry": {"type": "Point", "coordinates": [141.132171, 41.232808]}}, {"type": "Feature", "properties": {"type": "airport", "ident": "RJSU", "iata": "", "name": "JGSDF Kasuminome Airfield", "class": "small airport", "elev_ft": 20, "muni": "Sendai", "region": "JP-04"}, "geometry": {"type": "Point", "coordinates": [140.923004, 38.2356]}}, {"type": "Feature", "properties": {"type": "airport", "ident": "RJT2", "iata": "", "name": "Miho Airfield", "class": "small airport", "elev_ft": 9, "muni": "Shizuoka", "region": "JP-22"}, "geometry": {"type": "Point", "coordinates": [138.53074, 35.01394]}}, {"type": "Feature", "properties": {"type": "airport", "ident": "RJTC", "iata": "", "name": "Tachikawa Airfield", "class": "small airport", "elev_ft": 312, "muni": "Tachikawa", "region": "JP-13", "rwy_ft": 2953, "rwy": "01/19", "rwy_cnt": 1}, "geometry": {"type": "Point", "coordinates": [139.403243, 35.7121]}}, {"type": "Feature", "properties": {"type": "airport", "ident": "RODE", "iata": "", "name": "Iejima Auxiliary Air Base", "class": "small airport", "elev_ft": 184, "muni": "Ie", "region": "JP-47", "rwy_ft": 4780, "rwy": "04/22", "rwy_cnt": 2, "freqs": {"CTAF": "28.73"}}, "geometry": {"type": "Point", "coordinates": [127.765217, 26.725953]}}, {"type": "Feature", "properties": {"type": "airport", "ident": "ROKR", "iata": "KJP", "name": "Kerama Airport", "class": "small airport", "elev_ft": 156, "muni": "Zamami", "region": "JP-47", "rwy_ft": 2625, "rwy": "02/20", "rwy_cnt": 1}, "geometry": {"type": "Point", "coordinates": [127.293423, 26.168337]}}, {"type": "Feature", "properties": {"type": "airport", "ident": "RORA", "iata": "AGJ", "name": "Aguni Airport", "class": "small airport", "elev_ft": 38, "muni": "Aguni", "region": "JP-47", "rwy_ft": 2625, "rwy": "01/19", "rwy_cnt": 1}, "geometry": {"type": "Point", "coordinates": [127.240335, 26.592755]}}, {"type": "Feature", "properties": {"type": "airport", "ident": "RORH", "iata": "HTR", "name": "Hateruma Airport", "class": "small airport", "elev_ft": 43, "muni": "Taketomi", "region": "JP-47", "rwy_ft": 2625, "rwy": "02/20", "rwy_cnt": 1}, "geometry": {"type": "Point", "coordinates": [123.80558, 24.059751]}}, {"type": "Feature", "properties": {"type": "airport", "ident": "RJX7", "iata": "", "name": "Satsuma Iōjima Airport", "class": "small airport", "elev_ft": 338, "muni": "Mishima", "region": "JP-46", "rwy_ft": 1713, "rwy": "18/36", "rwy_cnt": 1}, "geometry": {"type": "Point", "coordinates": [130.270556, 30.784722]}}, {"type": "Feature", "properties": {"type": "airport", "ident": "RJAO", "iata": "", "name": "JMSDF Chichijima Airfield", "class": "seaplane base", "elev_ft": 0, "muni": "Ogasawara", "region": "JP-13"}, "geometry": {"type": "Point", "coordinates": [142.192032, 27.090231]}}, {"type": "Feature", "properties": {"type": "airport", "ident": "JP-1262", "iata": "", "name": "Tsushima Seaplane Base", "class": "seaplane base", "elev_ft": 0, "muni": "Tsushima", "region": "JP-42"}, "geometry": {"type": "Point", "coordinates": [129.304722, 34.305833]}}, {"type": "Feature", "properties": {"type": "airport", "ident": "JP-1339", "iata": "", "name": "Setouchi Seaplanes Nakaumi Skyport", "class": "seaplane base", "elev_ft": 0, "muni": "Matsue", "region": "JP-32"}, "geometry": {"type": "Point", "coordinates": [133.134601, 35.490226]}}, {"type": "Feature", "properties": {"type": "airport", "ident": "JP-2544", "iata": "", "name": "Onomichi Seaplane Base", "class": "seaplane base", "elev_ft": 0, "muni": "Onomichi", "region": "JP-34"}, "geometry": {"type": "Point", "coordinates": [133.282378, 34.390869]}}, {"type": "Feature", "properties": {"type": "airport", "ident": "JP-2545", "iata": "", "name": "Setouchi Seaplanes Beppu Seaplane Base", "class": "seaplane base", "elev_ft": 0, "muni": "Beppu", "region": "JP-44"}, "geometry": {"type": "Point", "coordinates": [131.50398, 33.29861]}}, {"type": "Feature", "properties": {"type": "airport", "ident": "JP-3099", "iata": "", "name": "JMSDF Sasebo Base Sakibe Seaplane Base", "class": "seaplane base", "elev_ft": 0, "muni": "Sasebo", "region": "JP-42"}, "geometry": {"type": "Point", "coordinates": [129.73557, 33.12606]}}]}