{"type":"FeatureCollection","meta":{"dataset":"airspace","note":"管制圏/情報圏/進入管制区は空港周波数データ(OurAirports)からの概略導出(円近似)。原子力施設は概略位置。正確な範囲・高度は必ず AIP Japan / 告示で照合すること。","classes":{"CTR":63,"INFO":22,"TCA":10,"RSTR":18}},"features":[{"type":"Feature","properties":{"type":"airspace","class":"CTR","name":"Narita International Airport 管制圏","apt":"RJAA","radius_nm":5,"alt":"SFC～(告示高度)","freq":"TWR 118.2"},"geometry":{"type":"Point","coordinates":[140.386,35.7647]}},{"type":"Feature","properties":{"type":"airspace","class":"TCA","name":"Narita International Airport 進入管制区(概略)","apt":"RJAA","radius_nm":24,"alt":"(告示による)","freq":"APP 124.4"},"geometry":{"type":"Point","coordinates":[140.386,35.7647]}},{"type":"Feature","properties":{"type":"airspace","class":"TCA","name":"Kansai International Airport 進入管制区(概略)","apt":"RJBB","radius_nm":24,"alt":"(告示による)","freq":"APP 120.25"},"geometry":{"type":"Point","coordinates":[135.244,34.4273]}},{"type":"Feature","properties":{"type":"airspace","class":"CTR","name":"New Chitose Airport 管制圏","apt":"RJCC","radius_nm":5,"alt":"SFC～(告示高度)","freq":"TWR 118.8"},"geometry":{"type":"Point","coordinates":[141.692,42.7752]}},{"type":"Feature","properties":{"type":"airspace","class":"TCA","name":"New Chitose Airport 進入管制区(概略)","apt":"RJCC","radius_nm":24,"alt":"(告示による)","freq":"APP 120.1"},"geometry":{"type":"Point","coordinates":[141.692,42.7752]}},{"type":"Feature","properties":{"type":"airspace","class":"CTR","name":"Fukuoka Airport 管制圏","apt":"RJFF","radius_nm":5,"alt":"SFC～(告示高度)","freq":"TWR 118.4"},"geometry":{"type":"Point","coordinates":[130.451,33.5859]}},{"type":"Feature","properties":{"type":"airspace","class":"TCA","name":"Fukuoka Airport 進入管制区(概略)","apt":"RJFF","radius_nm":24,"alt":"(告示による)","freq":"APP 119.1"},"geometry":{"type":"Point","coordinates":[130.451,33.5859]}},{"type":"Feature","properties":{"type":"airspace","class":"CTR","name":"Kagoshima Airport 管制圏","apt":"RJFK","radius_nm":5,"alt":"SFC～(告示高度)","freq":"TWR 118.2"},"geometry":{"type":"Point","coordinates":[130.71899,31.8034]}},{"type":"Feature","properties":{"type":"airspace","class":"TCA","name":"Kagoshima Airport 進入管制区(概略)","apt":"RJFK","radius_nm":24,"alt":"(告示による)","freq":"APP 126.00"},"geometry":{"type":"Point","coordinates":[130.71899,31.8034]}},{"type":"Feature","properties":{"type":"airspace","class":"CTR","name":"Chubu Centrair International Airport 管制圏","apt":"RJGG","radius_nm":5,"alt":"SFC～(告示高度)","freq":"TWR 118.85"},"geometry":{"type":"Point","coordinates":[136.80499,34.8584]}},{"type":"Feature","properties":{"type":"airspace","class":"TCA","name":"Chubu Centrair International Airport 進入管制区(概略)","apt":"RJGG","radius_nm":24,"alt":"(告示による)","freq":"APP 121.05"},"geometry":{"type":"Point","coordinates":[136.80499,34.8584]}},{"type":"Feature","properties":{"type":"airspace","class":"CTR","name":"Osaka International Airport 管制圏","apt":"RJOO","radius_nm":5,"alt":"SFC～(告示高度)","freq":"TWR 118.1"},"geometry":{"type":"Point","coordinates":[135.438,34.7855]}},{"type":"Feature","properties":{"type":"airspace","class":"TCA","name":"Osaka International Airport 進入管制区(概略)","apt":"RJOO","radius_nm":24,"alt":"(告示による)","freq":"APP 120.45"},"geometry":{"type":"Point","coordinates":[135.438,34.7855]}},{"type":"Feature","properties":{"type":"airspace","class":"CTR","name":"Sendai Airport 管制圏","apt":"RJSS","radius_nm":5,"alt":"SFC～(告示高度)","freq":"TWR 118.7"},"geometry":{"type":"Point","coordinates":[140.91701,38.1397]}},{"type":"Feature","properties":{"type":"airspace","class":"TCA","name":"Sendai Airport 進入管制区(概略)","apt":"RJSS","radius_nm":24,"alt":"(告示による)","freq":"APP 120.4"},"geometry":{"type":"Point","coordinates":[140.91701,38.1397]}},{"type":"Feature","properties":{"type":"airspace","class":"CTR","name":"Tokyo Haneda International Airport 管制圏","apt":"RJTT","radius_nm":5,"alt":"SFC～(告示高度)","freq":"TWR 118.1"},"geometry":{"type":"Point","coordinates":[139.78,35.5523]}},{"type":"Feature","properties":{"type":"airspace","class":"TCA","name":"Tokyo Haneda International Airport 進入管制区(概略)","apt":"RJTT","radius_nm":24,"alt":"(告示による)","freq":"APP 119.1"},"geometry":{"type":"Point","coordinates":[139.78,35.5523]}},{"type":"Feature","properties":{"type":"airspace","class":"CTR","name":"Yokota Air Base 管制圏","apt":"RJTY","radius_nm":5,"alt":"SFC～(告示高度)","freq":"TWR 134.3"},"geometry":{"type":"Point","coordinates":[139.34801,35.7485]}},{"type":"Feature","properties":{"type":"airspace","class":"TCA","name":"Yokota Air Base 進入管制区(概略)","apt":"RJTY","radius_nm":24,"alt":"(告示による)","freq":"APP 118.3"},"geometry":{"type":"Point","coordinates":[139.34801,35.7485]}},{"type":"Feature","properties":{"type":"airspace","class":"CTR","name":"Naha Airport / JASDF Naha Air Base 管制圏","apt":"ROAH","radius_nm":5,"alt":"SFC～(告示高度)","freq":"TWR 118.1"},"geometry":{"type":"Point","coordinates":[127.646,26.1958]}},{"type":"Feature","properties":{"type":"airspace","class":"CTR","name":"Kadena Air Base 管制圏","apt":"RODN","radius_nm":5,"alt":"SFC～(告示高度)","freq":"TWR 126.2"},"geometry":{"type":"Point","coordinates":[127.76944,26.35167]}},{"type":"Feature","properties":{"type":"airspace","class":"CTR","name":"Ibaraki Airport / JASDF Hyakuri Air Base 管制圏","apt":"RJAH","radius_nm":5,"alt":"SFC～(告示高度)","freq":"TWR 126.2"},"geometry":{"type":"Point","coordinates":[140.41499,36.1811]}},{"type":"Feature","properties":{"type":"airspace","class":"CTR","name":"Ioto (Iwo Jima) Airbase 管制圏","apt":"RJAW","radius_nm":5,"alt":"SFC～(告示高度)","freq":"TWR 126.2"},"geometry":{"type":"Point","coordinates":[141.32261,24.78415]}},{"type":"Feature","properties":{"type":"airspace","class":"CTR","name":"Kobe Airport 管制圏","apt":"RJBE","radius_nm":5,"alt":"SFC～(告示高度)","freq":"TWR 118.5"},"geometry":{"type":"Point","coordinates":[135.224,34.6328]}},{"type":"Feature","properties":{"type":"airspace","class":"CTR","name":"Tokachi-Obihiro Airport 管制圏","apt":"RJCB","radius_nm":5,"alt":"SFC～(告示高度)","freq":"TWR 118.7"},"geometry":{"type":"Point","coordinates":[143.21699,42.7333]}},{"type":"Feature","properties":{"type":"airspace","class":"CTR","name":"Hakodate Airport 管制圏","apt":"RJCH","radius_nm":5,"alt":"SFC～(告示高度)","freq":"TWR 118.35"},"geometry":{"type":"Point","coordinates":[140.82201,41.77]}},{"type":"Feature","properties":{"type":"airspace","class":"CTR","name":"JASDF Chitose Air Base 管制圏","apt":"RJCJ","radius_nm":5,"alt":"SFC～(告示高度)","freq":"TWR 118.2"},"geometry":{"type":"Point","coordinates":[141.666,42.7945]}},{"type":"Feature","properties":{"type":"airspace","class":"CTR","name":"Kushiro Airport 管制圏","apt":"RJCK","radius_nm":5,"alt":"SFC～(告示高度)","freq":"TWR 118.05"},"geometry":{"type":"Point","coordinates":[144.19299,43.041]}},{"type":"Feature","properties":{"type":"airspace","class":"CTR","name":"Memanbetsu Airport 管制圏","apt":"RJCM","radius_nm":5,"alt":"SFC～(告示高度)","freq":"TWR 118.85"},"geometry":{"type":"Point","coordinates":[144.164,43.8806]}},{"type":"Feature","properties":{"type":"airspace","class":"CTR","name":"Sapporo Okadama Airport 管制圏","apt":"RJCO","radius_nm":5,"alt":"SFC～(告示高度)","freq":"TWR 126.2"},"geometry":{"type":"Point","coordinates":[141.38134,43.11745]}},{"type":"Feature","properties":{"type":"airspace","class":"CTR","name":"Tokachi Airport 管制圏","apt":"RJCT","radius_nm":5,"alt":"SFC～(告示高度)","freq":"TWR 126.2"},"geometry":{"type":"Point","coordinates":[143.15801,42.8905]}},{"type":"Feature","properties":{"type":"airspace","class":"INFO","name":"Wakkanai Airport 情報圏","apt":"RJCW","radius_nm":5,"alt":"SFC～(告示高度)","freq":"RDO 118.3"},"geometry":{"type":"Point","coordinates":[141.801,45.4042]}},{"type":"Feature","properties":{"type":"airspace","class":"INFO","name":"Iki Airport 情報圏","apt":"RJDB","radius_nm":5,"alt":"SFC～(告示高度)","freq":"RDO 118.2"},"geometry":{"type":"Point","coordinates":[129.785,33.749]}},{"type":"Feature","properties":{"type":"airspace","class":"INFO","name":"Monbetsu Airport 情報圏","apt":"RJEB","radius_nm":5,"alt":"SFC～(告示高度)","freq":"RDO 118.15"},"geometry":{"type":"Point","coordinates":[143.40401,44.3039]}},{"type":"Feature","properties":{"type":"airspace","class":"CTR","name":"Asahikawa Airport 管制圏","apt":"RJEC","radius_nm":5,"alt":"SFC～(告示高度)","freq":"TWR 118.55"},"geometry":{"type":"Point","coordinates":[142.44701,43.6708]}},{"type":"Feature","properties":{"type":"airspace","class":"INFO","name":"Okushiri Airport 情報圏","apt":"RJEO","radius_nm":5,"alt":"SFC～(告示高度)","freq":"RDO 122.7"},"geometry":{"type":"Point","coordinates":[139.433,42.0717]}},{"type":"Feature","properties":{"type":"airspace","class":"INFO","name":"Rishiri Airport 情報圏","apt":"RJER","radius_nm":5,"alt":"SFC～(告示高度)","freq":"RDO 122.7"},"geometry":{"type":"Point","coordinates":[141.186,45.242]}},{"type":"Feature","properties":{"type":"airspace","class":"CTR","name":"JASDF Ashiya Air Base 管制圏","apt":"RJFA","radius_nm":5,"alt":"SFC～(告示高度)","freq":"TWR 126.2"},"geometry":{"type":"Point","coordinates":[130.653,33.8831]}},{"type":"Feature","properties":{"type":"airspace","class":"INFO","name":"Yakushima Airport 情報圏","apt":"RJFC","radius_nm":5,"alt":"SFC～(告示高度)","freq":"RDO 118.65"},"geometry":{"type":"Point","coordinates":[130.659,30.3856]}},{"type":"Feature","properties":{"type":"airspace","class":"INFO","name":"New Tanegashima Airport 情報圏","apt":"RJFG","radius_nm":5,"alt":"SFC～(告示高度)","freq":"RDO 118.75"},"geometry":{"type":"Point","coordinates":[130.991,30.6051]}},{"type":"Feature","properties":{"type":"airspace","class":"CTR","name":"Miyazaki Airport 管制圏","apt":"RJFM","radius_nm":5,"alt":"SFC～(告示高度)","freq":"TWR 118.3"},"geometry":{"type":"Point","coordinates":[131.449,31.8772]}},{"type":"Feature","properties":{"type":"airspace","class":"CTR","name":"Oita Airport 管制圏","apt":"RJFO","radius_nm":5,"alt":"SFC～(告示高度)","freq":"TWR 118.8"},"geometry":{"type":"Point","coordinates":[131.737,33.4794]}},{"type":"Feature","properties":{"type":"airspace","class":"INFO","name":"Saga Airport 情報圏","apt":"RJFS","radius_nm":5,"alt":"SFC～(告示高度)","freq":"RDO 118.05"},"geometry":{"type":"Point","coordinates":[130.302,33.1497]}},{"type":"Feature","properties":{"type":"airspace","class":"CTR","name":"Kumamoto Airport 管制圏","apt":"RJFT","radius_nm":5,"alt":"SFC～(告示高度)","freq":"TWR 118.7"},"geometry":{"type":"Point","coordinates":[130.855,32.8373]}},{"type":"Feature","properties":{"type":"airspace","class":"CTR","name":"Nagasaki Airport 管制圏","apt":"RJFU","radius_nm":5,"alt":"SFC～(告示高度)","freq":"TWR 118.5"},"geometry":{"type":"Point","coordinates":[129.914,32.9169]}},{"type":"Feature","properties":{"type":"airspace","class":"CTR","name":"JMSDF Kanoya Air Base 管制圏","apt":"RJFY","radius_nm":5,"alt":"SFC～(告示高度)","freq":"TWR 126.2"},"geometry":{"type":"Point","coordinates":[130.83881,31.36672]}},{"type":"Feature","properties":{"type":"airspace","class":"CTR","name":"JASDF Tsuiki Air Base 管制圏","apt":"RJFZ","radius_nm":5,"alt":"SFC～(告示高度)","freq":"TWR 126.2"},"geometry":{"type":"Point","coordinates":[131.03999,33.685]}},{"type":"Feature","properties":{"type":"airspace","class":"INFO","name":"Amami Airport 情報圏","apt":"RJKA","radius_nm":5,"alt":"SFC～(告示高度)","freq":"RDO 118.15"},"geometry":{"type":"Point","coordinates":[129.713,28.4306]}},{"type":"Feature","properties":{"type":"airspace","class":"INFO","name":"Okinoerabu Airport 情報圏","apt":"RJKB","radius_nm":5,"alt":"SFC～(告示高度)","freq":"RDO 118.05"},"geometry":{"type":"Point","coordinates":[128.70556,27.4316]}},{"type":"Feature","properties":{"type":"airspace","class":"INFO","name":"Tokunoshima Airport 情報圏","apt":"RJKN","radius_nm":5,"alt":"SFC～(告示高度)","freq":"RDO 122.7"},"geometry":{"type":"Point","coordinates":[128.88136,27.83638]}},{"type":"Feature","properties":{"type":"airspace","class":"CTR","name":"Nagoya Airport / JASDF Komaki Air Base 管制圏","apt":"RJNA","radius_nm":5,"alt":"SFC～(告示高度)","freq":"TWR 118.7"},"geometry":{"type":"Point","coordinates":[136.92409,35.25576]}},{"type":"Feature","properties":{"type":"airspace","class":"CTR","name":"Gifu Airport 管制圏","apt":"RJNG","radius_nm":5,"alt":"SFC～(告示高度)","freq":"TWR 122.00"},"geometry":{"type":"Point","coordinates":[136.86999,35.3941]}},{"type":"Feature","properties":{"type":"airspace","class":"CTR","name":"JASDF Hamamatsu Air Base 管制圏","apt":"RJNH","radius_nm":5,"alt":"SFC～(告示高度)","freq":"TWR 126.2"},"geometry":{"type":"Point","coordinates":[137.703,34.7502]}},{"type":"Feature","properties":{"type":"airspace","class":"CTR","name":"Komatsu Airport / JASDF Komatsu Air Base 管制圏","apt":"RJNK","radius_nm":5,"alt":"SFC～(告示高度)","freq":"TWR 118.25"},"geometry":{"type":"Point","coordinates":[136.407,36.3946]}},{"type":"Feature","properties":{"type":"airspace","class":"CTR","name":"Toyama Airport 管制圏","apt":"RJNT","radius_nm":5,"alt":"SFC～(告示高度)","freq":"TWR 124.3"},"geometry":{"type":"Point","coordinates":[137.188,36.6483]}},{"type":"Feature","properties":{"type":"airspace","class":"CTR","name":"JASDF Shizuhama Air Base 管制圏","apt":"RJNY","radius_nm":5,"alt":"SFC～(告示高度)","freq":"TWR 120.1"},"geometry":{"type":"Point","coordinates":[138.298,34.8128]}},{"type":"Feature","properties":{"type":"airspace","class":"CTR","name":"Hiroshima Airport 管制圏","apt":"RJOA","radius_nm":5,"alt":"SFC～(告示高度)","freq":"TWR 118.6"},"geometry":{"type":"Point","coordinates":[132.91901,34.4361]}},{"type":"Feature","properties":{"type":"airspace","class":"CTR","name":"Okayama Momotaro Airport 管制圏","apt":"RJOB","radius_nm":5,"alt":"SFC～(告示高度)","freq":"TWR 124.3"},"geometry":{"type":"Point","coordinates":[133.855,34.7569]}},{"type":"Feature","properties":{"type":"airspace","class":"CTR","name":"JASDF Hofu Airfield 管制圏","apt":"RJOF","radius_nm":5,"alt":"SFC～(告示高度)","freq":"TWR 126.2"},"geometry":{"type":"Point","coordinates":[131.54872,34.03475]}},{"type":"Feature","properties":{"type":"airspace","class":"CTR","name":"Yonago Kitaro Airport / JASDF Miho Air Base 管制圏","apt":"RJOH","radius_nm":5,"alt":"SFC～(告示高度)","freq":"TWR 126.2"},"geometry":{"type":"Point","coordinates":[133.23599,35.4922]}},{"type":"Feature","properties":{"type":"airspace","class":"CTR","name":"Iwakuni Kintaikyo Airport / Marine Corps Air Station Iwakuni 管制圏","apt":"RJOI","radius_nm":5,"alt":"SFC～(告示高度)","freq":"TWR 123.8"},"geometry":{"type":"Point","coordinates":[132.24724,34.14633]}},{"type":"Feature","properties":{"type":"airspace","class":"CTR","name":"Kochi Ryoma Airport 管制圏","apt":"RJOK","radius_nm":5,"alt":"SFC～(告示高度)","freq":"TWR 118.75"},"geometry":{"type":"Point","coordinates":[133.66901,33.5461]}},{"type":"Feature","properties":{"type":"airspace","class":"CTR","name":"Matsuyama Airport 管制圏","apt":"RJOM","radius_nm":5,"alt":"SFC～(告示高度)","freq":"TWR 118.35"},"geometry":{"type":"Point","coordinates":[132.7,33.8272]}},{"type":"Feature","properties":{"type":"airspace","class":"CTR","name":"Tokushima Awaodori Airport / JMSDF Tokushima Air Base 管制圏","apt":"RJOS","radius_nm":5,"alt":"SFC～(告示高度)","freq":"TWR 118.00"},"geometry":{"type":"Point","coordinates":[134.607,34.1328]}},{"type":"Feature","properties":{"type":"airspace","class":"CTR","name":"Takamatsu Airport 管制圏","apt":"RJOT","radius_nm":5,"alt":"SFC～(告示高度)","freq":"TWR 118.3"},"geometry":{"type":"Point","coordinates":[134.01601,34.2142]}},{"type":"Feature","properties":{"type":"airspace","class":"CTR","name":"Yao Airport 管制圏","apt":"RJOY","radius_nm":5,"alt":"SFC～(告示高度)","freq":"TWR 124.35"},"geometry":{"type":"Point","coordinates":[135.603,34.5963]}},{"type":"Feature","properties":{"type":"airspace","class":"CTR","name":"Aomori Airport 管制圏","apt":"RJSA","radius_nm":5,"alt":"SFC～(告示高度)","freq":"TWR 118.3"},"geometry":{"type":"Point","coordinates":[140.69099,40.7347]}},{"type":"Feature","properties":{"type":"airspace","class":"CTR","name":"JMSDF Hachinohe Air Base / Hachinohe Airport 管制圏","apt":"RJSH","radius_nm":5,"alt":"SFC～(告示高度)","freq":"TWR 126.2"},"geometry":{"type":"Point","coordinates":[141.46543,40.55118]}},{"type":"Feature","properties":{"type":"airspace","class":"CTR","name":"Akita Airport 管制圏","apt":"RJSK","radius_nm":5,"alt":"SFC～(告示高度)","freq":"TWR 118.6"},"geometry":{"type":"Point","coordinates":[140.21899,39.6156]}},{"type":"Feature","properties":{"type":"airspace","class":"CTR","name":"Misawa Airport / Misawa Air Base 管制圏","apt":"RJSM","radius_nm":5,"alt":"SFC～(告示高度)","freq":"TWR 125.3"},"geometry":{"type":"Point","coordinates":[141.368,40.7032]}},{"type":"Feature","properties":{"type":"airspace","class":"CTR","name":"Niigata Airport 管制圏","apt":"RJSN","radius_nm":5,"alt":"SFC～(告示高度)","freq":"TWR 118.00"},"geometry":{"type":"Point","coordinates":[139.121,37.9559]}},{"type":"Feature","properties":{"type":"airspace","class":"CTR","name":"JASDF Matsushima Air Base 管制圏","apt":"RJST","radius_nm":5,"alt":"SFC～(告示高度)","freq":"TWR 126.2"},"geometry":{"type":"Point","coordinates":[141.22,38.4049]}},{"type":"Feature","properties":{"type":"airspace","class":"INFO","name":"Shonai Airport 情報圏","apt":"RJSY","radius_nm":5,"alt":"SFC～(告示高度)","freq":"RDO 118.8"},"geometry":{"type":"Point","coordinates":[139.787,38.8122]}},{"type":"Feature","properties":{"type":"airspace","class":"CTR","name":"JMSDF Atsugi Air Base / Naval Air Facility Atsugi 管制圏","apt":"RJTA","radius_nm":5,"alt":"SFC～(告示高度)","freq":"TWR 126.2"},"geometry":{"type":"Point","coordinates":[139.45,35.4546]}},{"type":"Feature","properties":{"type":"airspace","class":"CTR","name":"JMSDF Tateyama Air Base 管制圏","apt":"RJTE","radius_nm":5,"alt":"SFC～(告示高度)","freq":"TWR 126.2"},"geometry":{"type":"Point","coordinates":[139.82899,34.9871]}},{"type":"Feature","properties":{"type":"airspace","class":"INFO","name":"Hachijojima Airport 情報圏","apt":"RJTH","radius_nm":5,"alt":"SFC～(告示高度)","freq":"RDO 118.7"},"geometry":{"type":"Point","coordinates":[139.786,33.115]}},{"type":"Feature","properties":{"type":"airspace","class":"CTR","name":"Iruma Air Base 管制圏","apt":"RJTJ","radius_nm":5,"alt":"SFC～(告示高度)","freq":"TWR 126.2"},"geometry":{"type":"Point","coordinates":[139.411,35.8419]}},{"type":"Feature","properties":{"type":"airspace","class":"CTR","name":"JGSDF Kisarazu Airfield 管制圏","apt":"RJTK","radius_nm":5,"alt":"SFC～(告示高度)","freq":"TWR 126.2"},"geometry":{"type":"Point","coordinates":[139.91,35.3983]}},{"type":"Feature","properties":{"type":"airspace","class":"CTR","name":"JMSDF Shimofusa Air Base 管制圏","apt":"RJTL","radius_nm":5,"alt":"SFC～(告示高度)","freq":"TWR 138.3"},"geometry":{"type":"Point","coordinates":[140.011,35.7989]}},{"type":"Feature","properties":{"type":"airspace","class":"INFO","name":"Miyakejima Airport 情報圏","apt":"RJTQ","radius_nm":5,"alt":"SFC～(告示高度)","freq":"RDO 118.05"},"geometry":{"type":"Point","coordinates":[139.56,34.0736]}},{"type":"Feature","properties":{"type":"airspace","class":"CTR","name":"Utsunomiya Airport 管制圏","apt":"RJTU","radius_nm":5,"alt":"SFC～(告示高度)","freq":"TWR 23.68"},"geometry":{"type":"Point","coordinates":[139.87101,36.5145]}},{"type":"Feature","properties":{"type":"airspace","class":"INFO","name":"Kumejima Airport 情報圏","apt":"ROKJ","radius_nm":5,"alt":"SFC～(告示高度)","freq":"RDO 122.7"},"geometry":{"type":"Point","coordinates":[126.71384,26.36344]}},{"type":"Feature","properties":{"type":"airspace","class":"INFO","name":"Minamidaito Airport 情報圏","apt":"ROMD","radius_nm":5,"alt":"SFC～(告示高度)","freq":"RDO 126.2"},"geometry":{"type":"Point","coordinates":[131.263,25.8465]}},{"type":"Feature","properties":{"type":"airspace","class":"CTR","name":"Miyako Airport 管制圏","apt":"ROMY","radius_nm":5,"alt":"SFC～(告示高度)","freq":"TWR 118.2"},"geometry":{"type":"Point","coordinates":[125.295,24.7828]}},{"type":"Feature","properties":{"type":"airspace","class":"INFO","name":"Kitadaito Airport 情報圏","apt":"RORK","radius_nm":5,"alt":"SFC～(告示高度)","freq":"RDO 126.2"},"geometry":{"type":"Point","coordinates":[131.327,25.9447]}},{"type":"Feature","properties":{"type":"airspace","class":"CTR","name":"Shimojishima Airport 管制圏","apt":"RORS","radius_nm":5,"alt":"SFC～(告示高度)","freq":"TWR 118.3"},"geometry":{"type":"Point","coordinates":[125.145,24.8267]}},{"type":"Feature","properties":{"type":"airspace","class":"INFO","name":"Tarama Airport 情報圏","apt":"RORT","radius_nm":5,"alt":"SFC～(告示高度)","freq":"RDO 118.6"},"geometry":{"type":"Point","coordinates":[124.67545,24.65379]}},{"type":"Feature","properties":{"type":"airspace","class":"INFO","name":"Yoron Airport 情報圏","apt":"RORY","radius_nm":5,"alt":"SFC～(告示高度)","freq":"RDO 118.3"},"geometry":{"type":"Point","coordinates":[128.40165,27.04385]}},{"type":"Feature","properties":{"type":"airspace","class":"CTR","name":"Futenma Marine Corps Air Station 管制圏","apt":"ROTM","radius_nm":5,"alt":"SFC～(告示高度)","freq":"TWR 123.6"},"geometry":{"type":"Point","coordinates":[127.756,26.2743]}},{"type":"Feature","properties":{"type":"airspace","class":"INFO","name":"Yonaguni Airport 情報圏","apt":"ROYN","radius_nm":5,"alt":"SFC～(告示高度)","freq":"RDO 118.5"},"geometry":{"type":"Point","coordinates":[122.97983,24.4673]}},{"type":"Feature","properties":{"type":"airspace","class":"INFO","name":"Kohnan Airport 情報圏","apt":"RJBK","radius_nm":5,"alt":"SFC～(告示高度)","freq":"RDO 130.75"},"geometry":{"type":"Point","coordinates":[133.933,34.5908]}},{"type":"Feature","properties":{"type":"airspace","class":"CTR","name":"JGSDF Camp Asahikawa Airfield 管制圏","apt":"RJCA","radius_nm":5,"alt":"SFC～(告示高度)","freq":"TWR 126.2"},"geometry":{"type":"Point","coordinates":[142.36543,43.79473]}},{"type":"Feature","properties":{"type":"airspace","class":"INFO","name":"Amakusa Airport 情報圏","apt":"RJDA","radius_nm":5,"alt":"SFC～(告示高度)","freq":"RDO 130.775"},"geometry":{"type":"Point","coordinates":[130.159,32.4825]}},{"type":"Feature","properties":{"type":"airspace","class":"CTR","name":"JASDF Nyūtabaru Air Base 管制圏","apt":"RJFN","radius_nm":5,"alt":"SFC～(告示高度)","freq":"TWR 126.2"},"geometry":{"type":"Point","coordinates":[131.451,32.0836]}},{"type":"Feature","properties":{"type":"airspace","class":"CTR","name":"Ozuki Airfield 管制圏","apt":"RJOZ","radius_nm":5,"alt":"SFC～(告示高度)","freq":"TWR 122.00"},"geometry":{"type":"Point","coordinates":[131.052,34.0453]}},{"type":"Feature","properties":{"type":"airspace","class":"RSTR","name":"泊発電所 上空(飛行回避)","radius_nm":2.2,"alt":"SFC～","note":"原子力関係施設。上空の飛行は回避すること。"},"geometry":{"type":"Point","coordinates":[140.512,43.036]}},{"type":"Feature","properties":{"type":"airspace","class":"RSTR","name":"東通原子力発電所 上空(飛行回避)","radius_nm":2.2,"alt":"SFC～","note":"原子力関係施設。上空の飛行は回避すること。"},"geometry":{"type":"Point","coordinates":[141.39,41.188]}},{"type":"Feature","properties":{"type":"airspace","class":"RSTR","name":"六ヶ所再処理工場 上空(飛行回避)","radius_nm":2.2,"alt":"SFC～","note":"原子力関係施設。上空の飛行は回避すること。"},"geometry":{"type":"Point","coordinates":[141.33,40.965]}},{"type":"Feature","properties":{"type":"airspace","class":"RSTR","name":"女川原子力発電所 上空(飛行回避)","radius_nm":2.2,"alt":"SFC～","note":"原子力関係施設。上空の飛行は回避すること。"},"geometry":{"type":"Point","coordinates":[141.5,38.401]}},{"type":"Feature","properties":{"type":"airspace","class":"RSTR","name":"福島第一原子力発電所 上空(飛行回避)","radius_nm":2.2,"alt":"SFC～","note":"原子力関係施設。上空の飛行は回避すること。"},"geometry":{"type":"Point","coordinates":[141.033,37.421]}},{"type":"Feature","properties":{"type":"airspace","class":"RSTR","name":"福島第二原子力発電所 上空(飛行回避)","radius_nm":2.2,"alt":"SFC～","note":"原子力関係施設。上空の飛行は回避すること。"},"geometry":{"type":"Point","coordinates":[141.026,37.316]}},{"type":"Feature","properties":{"type":"airspace","class":"RSTR","name":"柏崎刈羽原子力発電所 上空(飛行回避)","radius_nm":2.2,"alt":"SFC～","note":"原子力関係施設。上空の飛行は回避すること。"},"geometry":{"type":"Point","coordinates":[138.596,37.429]}},{"type":"Feature","properties":{"type":"airspace","class":"RSTR","name":"東海第二発電所 上空(飛行回避)","radius_nm":2.2,"alt":"SFC～","note":"原子力関係施設。上空の飛行は回避すること。"},"geometry":{"type":"Point","coordinates":[140.607,36.466]}},{"type":"Feature","properties":{"type":"airspace","class":"RSTR","name":"浜岡原子力発電所 上空(飛行回避)","radius_nm":2.2,"alt":"SFC～","note":"原子力関係施設。上空の飛行は回避すること。"},"geometry":{"type":"Point","coordinates":[138.143,34.623]}},{"type":"Feature","properties":{"type":"airspace","class":"RSTR","name":"志賀原子力発電所 上空(飛行回避)","radius_nm":2.2,"alt":"SFC～","note":"原子力関係施設。上空の飛行は回避すること。"},"geometry":{"type":"Point","coordinates":[136.726,37.061]}},{"type":"Feature","properties":{"type":"airspace","class":"RSTR","name":"敦賀発電所 上空(飛行回避)","radius_nm":2.2,"alt":"SFC～","note":"原子力関係施設。上空の飛行は回避すること。"},"geometry":{"type":"Point","coordinates":[136.079,35.674]}},{"type":"Feature","properties":{"type":"airspace","class":"RSTR","name":"美浜発電所 上空(飛行回避)","radius_nm":2.2,"alt":"SFC～","note":"原子力関係施設。上空の飛行は回避すること。"},"geometry":{"type":"Point","coordinates":[135.963,35.703]}},{"type":"Feature","properties":{"type":"airspace","class":"RSTR","name":"大飯発電所 上空(飛行回避)","radius_nm":2.2,"alt":"SFC～","note":"原子力関係施設。上空の飛行は回避すること。"},"geometry":{"type":"Point","coordinates":[135.652,35.541]}},{"type":"Feature","properties":{"type":"airspace","class":"RSTR","name":"高浜発電所 上空(飛行回避)","radius_nm":2.2,"alt":"SFC～","note":"原子力関係施設。上空の飛行は回避すること。"},"geometry":{"type":"Point","coordinates":[135.504,35.522]}},{"type":"Feature","properties":{"type":"airspace","class":"RSTR","name":"島根原子力発電所 上空(飛行回避)","radius_nm":2.2,"alt":"SFC～","note":"原子力関係施設。上空の飛行は回避すること。"},"geometry":{"type":"Point","coordinates":[132.999,35.538]}},{"type":"Feature","properties":{"type":"airspace","class":"RSTR","name":"伊方発電所 上空(飛行回避)","radius_nm":2.2,"alt":"SFC～","note":"原子力関係施設。上空の飛行は回避すること。"},"geometry":{"type":"Point","coordinates":[132.311,33.491]}},{"type":"Feature","properties":{"type":"airspace","class":"RSTR","name":"玄海原子力発電所 上空(飛行回避)","radius_nm":2.2,"alt":"SFC～","note":"原子力関係施設。上空の飛行は回避すること。"},"geometry":{"type":"Point","coordinates":[129.837,33.516]}},{"type":"Feature","properties":{"type":"airspace","class":"RSTR","name":"川内原子力発電所 上空(飛行回避)","radius_nm":2.2,"alt":"SFC～","note":"原子力関係施設。上空の飛行は回避すること。"},"geometry":{"type":"Point","coordinates":[130.19,31.833]}}]}