{"type": "FeatureCollection", "meta": {"dataset": "navaids", "note": "VOR/VORTAC/VOR-DME/TACAN/NDB。OurAirports(パブリックドメイン)由来の周波数・座標。※日本の航法無線施設はコミュニティ由来データのため、再編・周波数変更により古い/相違の可能性があります。運航前に必ず最新の AIP Japan で照合し、必要に応じ[データ取込]で修正版に置換してください。VOR系周波数は MHz、NDB は kHz 表記。", "source": "OurAirports (public domain)", "updated": "2026-07-03", "count": 219}, "features": [{"type": "Feature", "properties": {"type": "navaid", "kind": "VORTAC", "ident": "ALC", "name": "Amami", "freq": "115.50 MHz", "ch": "102X", "elev_ft": 996, "apt": "RJKA", "power": "HIGH"}, "geometry": {"type": "Point", "coordinates": [129.584, 28.443701]}}, {"type": "Feature", "properties": {"type": "navaid", "kind": "VORTAC", "ident": "CVC", "name": "Choshi", "freq": "113.60 MHz", "ch": "083X", "elev_ft": 236, "power": "HIGH"}, "geometry": {"type": "Point", "coordinates": [140.798996, 35.726501]}}, {"type": "Feature", "properties": {"type": "navaid", "kind": "VORTAC", "ident": "DGC", "name": "Fukuoka", "freq": "114.50 MHz", "ch": "092X", "elev_ft": 65, "apt": "RJFF", "power": "HIGH"}, "geometry": {"type": "Point", "coordinates": [130.389999, 33.676201]}}, {"type": "Feature", "properties": {"type": "navaid", "kind": "VORTAC", "ident": "GOC", "name": "Daigo", "freq": "115.30 MHz", "ch": "100X", "elev_ft": 1480, "power": "HIGH"}, "geometry": {"type": "Point", "coordinates": [140.350006, 36.7444]}}, {"type": "Feature", "properties": {"type": "navaid", "kind": "VORTAC", "ident": "GTC", "name": "Niigata", "freq": "115.50 MHz", "ch": "102X", "elev_ft": 39, "apt": "RJSN", "power": "HIGH"}, "geometry": {"type": "Point", "coordinates": [139.115005, 37.958302]}}, {"type": "Feature", "properties": {"type": "navaid", "kind": "VORTAC", "ident": "HKC", "name": "Kagoshima", "freq": "113.30 MHz", "ch": "080X", "elev_ft": 1909, "apt": "RJFK", "power": "HIGH"}, "geometry": {"type": "Point", "coordinates": [130.582993, 31.697201]}}, {"type": "Feature", "properties": {"type": "navaid", "kind": "VORTAC", "ident": "IWC", "name": "Kuga", "freq": "114.30 MHz", "ch": "090X", "elev_ft": 2145, "power": "HIGH"}, "geometry": {"type": "Point", "coordinates": [132.147003, 34.079498]}}, {"type": "Feature", "properties": {"type": "navaid", "kind": "VORTAC", "ident": "JEC", "name": "Miho", "freq": "116.70 MHz", "ch": "114X", "elev_ft": 1700, "apt": "RJOH", "power": "HIGH"}, "geometry": {"type": "Point", "coordinates": [133.093994, 35.531101]}}, {"type": "Feature", "properties": {"type": "navaid", "kind": "VORTAC", "ident": "KAD", "name": "Kadena", "freq": "112.00 MHz", "ch": "057X", "elev_ft": 158, "apt": "RODN", "power": "HIGH"}, "geometry": {"type": "Point", "coordinates": [127.767998, 26.3568]}}, {"type": "Feature", "properties": {"type": "navaid", "kind": "VORTAC", "ident": "KCC", "name": "Nagoya", "freq": "114.20 MHz", "ch": "089X", "elev_ft": 76, "power": "HIGH"}, "geometry": {"type": "Point", "coordinates": [136.914993, 35.265301]}}, {"type": "Feature", "properties": {"type": "navaid", "kind": "VORTAC", "ident": "KEC", "name": "Kushimoto", "freq": "112.90 MHz", "ch": "076X", "elev_ft": 131, "power": "HIGH"}, "geometry": {"type": "Point", "coordinates": [135.794006, 33.447701]}}, {"type": "Feature", "properties": {"type": "navaid", "kind": "VORTAC", "ident": "KMC", "name": "Komatsu", "freq": "112.00 MHz", "ch": "057X", "elev_ft": 53, "apt": "RJNK", "power": "HIGH"}, "geometry": {"type": "Point", "coordinates": [136.404999, 36.3964]}}, {"type": "Feature", "properties": {"type": "navaid", "kind": "VORTAC", "ident": "KXC", "name": "Kumejima", "freq": "116.70 MHz", "ch": "114X", "elev_ft": 42, "apt": "ROKJ", "power": "HIGH"}, "geometry": {"type": "Point", "coordinates": [126.722, 26.371901]}}, {"type": "Feature", "properties": {"type": "navaid", "kind": "VORTAC", "ident": "MIS", "name": "Misawa", "freq": "115.40 MHz", "ch": "101X", "elev_ft": 142, "apt": "RJSM", "power": "HIGH"}, "geometry": {"type": "Point", "coordinates": [141.380997, 40.7038]}}, {"type": "Feature", "properties": {"type": "navaid", "kind": "VORTAC", "ident": "MYC", "name": "Miyako Jima", "freq": "117.50 MHz", "ch": "122X", "elev_ft": 198, "apt": "ROMY", "power": "HIGH"}, "geometry": {"type": "Point", "coordinates": [125.301003, 24.785999]}}, {"type": "Feature", "properties": {"type": "navaid", "kind": "VORTAC", "ident": "NHC", "name": "Naha", "freq": "116.50 MHz", "ch": "112X", "elev_ft": 57, "apt": "ROAH", "power": "HIGH"}, "geometry": {"type": "Point", "coordinates": [127.642998, 26.2085]}}, {"type": "Feature", "properties": {"type": "navaid", "kind": "VORTAC", "ident": "NJC", "name": "Niijima", "freq": "116.50 MHz", "ch": "112X", "elev_ft": 999, "power": "HIGH"}, "geometry": {"type": "Point", "coordinates": [139.270996, 34.348099]}}, {"type": "Feature", "properties": {"type": "navaid", "kind": "VORTAC", "ident": "OJC", "name": "Onjuku", "freq": "115.70 MHz", "ch": "104X", "elev_ft": 365, "power": "HIGH"}, "geometry": {"type": "Point", "coordinates": [140.371002, 35.183498]}}, {"type": "Feature", "properties": {"type": "navaid", "kind": "VORTAC", "ident": "OKC", "name": "Okayama", "freq": "115.90 MHz", "ch": "106X", "elev_ft": 783, "apt": "RJOB", "power": "HIGH"}, "geometry": {"type": "Point", "coordinates": [134.014999, 34.671398]}}, {"type": "Feature", "properties": {"type": "navaid", "kind": "VORTAC", "ident": "ONC", "name": "Erabu", "freq": "113.10 MHz", "ch": "078X", "elev_ft": 218, "apt": "RJKB", "power": "HIGH"}, "geometry": {"type": "Point", "coordinates": [128.699005, 27.432899]}}, {"type": "Feature", "properties": {"type": "navaid", "kind": "VORTAC", "ident": "SUC", "name": "Shimizu", "freq": "115.20 MHz", "ch": "099X", "elev_ft": 1469, "power": "HIGH"}, "geometry": {"type": "Point", "coordinates": [132.996994, 32.756001]}}, {"type": "Feature", "properties": {"type": "navaid", "kind": "VORTAC", "ident": "TIC", "name": "Chinen", "freq": "114.20 MHz", "ch": "089X", "elev_ft": 543, "apt": "ROTM", "power": "HIGH"}, "geometry": {"type": "Point", "coordinates": [127.801003, 26.1609]}}, {"type": "Feature", "properties": {"type": "navaid", "kind": "VORTAC", "ident": "TSC", "name": "Tokushima", "freq": "114.90 MHz", "ch": "096X", "elev_ft": 46, "apt": "RJOS", "power": "HIGH"}, "geometry": {"type": "Point", "coordinates": [134.610001, 34.130001]}}, {"type": "Feature", "properties": {"type": "navaid", "kind": "VORTAC", "ident": "TZC", "name": "Takamatsu", "freq": "117.50 MHz", "ch": "122X", "elev_ft": 1607, "apt": "RJOT", "power": "HIGH"}, "geometry": {"type": "Point", "coordinates": [133.953003, 34.326401]}}, {"type": "Feature", "properties": {"type": "navaid", "kind": "VORTAC", "ident": "XAC", "name": "Oshima", "freq": "113.10 MHz", "ch": "078X", "elev_ft": 2078, "apt": "RJTO", "power": "HIGH"}, "geometry": {"type": "Point", "coordinates": [139.414001, 34.712299]}}, {"type": "Feature", "properties": {"type": "navaid", "kind": "VORTAC", "ident": "XMC", "name": "Kowa", "freq": "113.50 MHz", "ch": "082X", "elev_ft": 314, "power": "HIGH"}, "geometry": {"type": "Point", "coordinates": [136.957993, 34.704601]}}, {"type": "Feature", "properties": {"type": "navaid", "kind": "VOR-DME", "ident": "AJE", "name": "Awaji", "freq": "115.60 MHz", "ch": "103X", "elev_ft": 884, "power": "LOW"}, "geometry": {"type": "Point", "coordinates": [134.712997, 34.270302]}}, {"type": "Feature", "properties": {"type": "navaid", "kind": "VOR-DME", "ident": "AKE", "name": "Amakusa", "freq": "113.45 MHz", "ch": "081Y", "elev_ft": 354, "apt": "RJDA", "power": "LOW"}, "geometry": {"type": "Point", "coordinates": [130.160004, 32.480999]}}, {"type": "Feature", "properties": {"type": "navaid", "kind": "VOR-DME", "ident": "AME", "name": "Kasari", "freq": "113.95 MHz", "ch": "086Y", "elev_ft": 47, "apt": "RJKA", "power": "LOW"}, "geometry": {"type": "Point", "coordinates": [129.710999, 28.4347]}}, {"type": "Feature", "properties": {"type": "navaid", "kind": "VOR-DME", "ident": "ATE", "name": "Akita", "freq": "116.10 MHz", "ch": "108X", "elev_ft": 54, "apt": "RJSK", "power": "HIGH"}, "geometry": {"type": "Point", "coordinates": [140.061996, 39.711601]}}, {"type": "Feature", "properties": {"type": "navaid", "kind": "VOR-DME", "ident": "AWE", "name": "Asahikawa", "freq": "113.50 MHz", "ch": "082X", "elev_ft": 769, "apt": "RJEC", "power": "HIGH"}, "geometry": {"type": "Point", "coordinates": [142.457001, 43.667301]}}, {"type": "Feature", "properties": {"type": "navaid", "kind": "VOR-DME", "ident": "BTE", "name": "Batoh", "freq": "109.40 MHz", "ch": "031X", "elev_ft": 882, "power": "HIGH"}, "geometry": {"type": "Point", "coordinates": [140.033005, 36.768398]}}, {"type": "Feature", "properties": {"type": "navaid", "kind": "VOR-DME", "ident": "CBE", "name": "Chubu", "freq": "117.80 MHz", "ch": "125X", "elev_ft": 39, "apt": "RJGG", "power": "HIGH"}, "geometry": {"type": "Point", "coordinates": [136.802994, 34.858002]}}, {"type": "Feature", "properties": {"type": "navaid", "kind": "VOR-DME", "ident": "CHE", "name": "Chitose", "freq": "116.90 MHz", "ch": "116X", "elev_ft": 88, "apt": "RJCJ", "power": "HIGH"}, "geometry": {"type": "Point", "coordinates": [141.686005, 42.699902]}}, {"type": "Feature", "properties": {"type": "navaid", "kind": "VOR-DME", "ident": "CUE", "name": "Otsu", "freq": "117.10 MHz", "ch": "118X", "elev_ft": 1576, "power": "HIGH"}, "geometry": {"type": "Point", "coordinates": [135.826004, 35.016998]}}, {"type": "Feature", "properties": {"type": "navaid", "kind": "VOR-DME", "ident": "FKE", "name": "Fukushima", "freq": "113.45 MHz", "ch": "081Y", "elev_ft": 1313, "apt": "RJSF", "power": "LOW"}, "geometry": {"type": "Point", "coordinates": [140.436996, 37.2243]}}, {"type": "Feature", "properties": {"type": "navaid", "kind": "VOR-DME", "ident": "FUE", "name": "Fukue", "freq": "115.80 MHz", "ch": "105X", "elev_ft": 296, "apt": "RJFE", "power": "HIGH"}, "geometry": {"type": "Point", "coordinates": [128.826996, 32.668598]}}, {"type": "Feature", "properties": {"type": "navaid", "kind": "VOR-DME", "ident": "GBE", "name": "Goboh", "freq": "116.90 MHz", "ch": "116X", "elev_ft": 1118, "power": "HIGH"}, "geometry": {"type": "Point", "coordinates": [135.106003, 33.910099]}}, {"type": "Feature", "properties": {"type": "navaid", "kind": "VOR-DME", "ident": "GKE", "name": "Ishigaki", "freq": "117.70 MHz", "ch": "124X", "elev_ft": 114, "apt": "JP-3590", "power": "HIGH"}, "geometry": {"type": "Point", "coordinates": [124.185997, 24.341]}}, {"type": "Feature", "properties": {"type": "navaid", "kind": "VOR-DME", "ident": "HCE", "name": "Hachijojima", "freq": "116.65 MHz", "ch": "113Y", "elev_ft": 339, "apt": "RJTH", "power": "HIGH"}, "geometry": {"type": "Point", "coordinates": [139.787994, 33.1143]}}, {"type": "Feature", "properties": {"type": "navaid", "kind": "VOR-DME", "ident": "HGE", "name": "Hongo", "freq": "117.90 MHz", "ch": "126X", "elev_ft": 1123, "apt": "RJOA", "power": "LOW"}, "geometry": {"type": "Point", "coordinates": [132.923996, 34.4338]}}, {"type": "Feature", "properties": {"type": "navaid", "kind": "VOR-DME", "ident": "HKE", "name": "Hokuso", "freq": "117.30 MHz", "ch": "120X", "elev_ft": 164, "power": "LOW"}, "geometry": {"type": "Point", "coordinates": [140.375, 35.808998]}}, {"type": "Feature", "properties": {"type": "navaid", "kind": "VOR-DME", "ident": "HME", "name": "Haneda", "freq": "112.20 MHz", "ch": "059X", "elev_ft": 63, "apt": "RJTT", "power": "LOW"}, "geometry": {"type": "Point", "coordinates": [139.761002, 35.562302]}}, {"type": "Feature", "properties": {"type": "navaid", "kind": "VOR-DME", "ident": "HPE", "name": "Hanamaki", "freq": "112.80 MHz", "ch": "075X", "elev_ft": 339, "apt": "RJSI", "power": "HIGH"}, "geometry": {"type": "Point", "coordinates": [141.132996, 39.433399]}}, {"type": "Feature", "properties": {"type": "navaid", "kind": "VOR-DME", "ident": "HWE", "name": "Hakodate", "freq": "112.30 MHz", "ch": "070X", "elev_ft": 300, "apt": "RJCH", "power": "HIGH"}, "geometry": {"type": "Point", "coordinates": [140.832001, 41.773998]}}, {"type": "Feature", "properties": {"type": "navaid", "kind": "VOR-DME", "ident": "HYE", "name": "Yokosuka", "freq": "116.20 MHz", "ch": "109X", "elev_ft": 490, "power": "HIGH"}, "geometry": {"type": "Point", "coordinates": [139.587997, 35.255798]}}, {"type": "Feature", "properties": {"type": "navaid", "kind": "VOR-DME", "ident": "IKE", "name": "Iki", "freq": "113.20 MHz", "ch": "079X", "elev_ft": 219, "apt": "RJDB", "power": "HIGH"}, "geometry": {"type": "Point", "coordinates": [129.776993, 33.747501]}}, {"type": "Feature", "properties": {"type": "navaid", "kind": "VOR-DME", "ident": "IME", "name": "Iwami", "freq": "115.05 MHz", "ch": "097Y", "elev_ft": 221, "apt": "RJOW", "power": "HIGH"}, "geometry": {"type": "Point", "coordinates": [131.779999, 34.676201]}}, {"type": "Feature", "properties": {"type": "navaid", "kind": "VOR-DME", "ident": "IXE", "name": "Iwaki", "freq": "117.70 MHz", "ch": "124X", "elev_ft": 534, "power": "HIGH"}, "geometry": {"type": "Point", "coordinates": [140.975998, 37.148899]}}, {"type": "Feature", "properties": {"type": "navaid", "kind": "VOR-DME", "ident": "KBE", "name": "Kokubu", "freq": "117.30 MHz", "ch": "120X", "elev_ft": 1499, "apt": "RJFK", "power": "HIGH"}, "geometry": {"type": "Point", "coordinates": [130.841995, 31.6439]}}, {"type": "Feature", "properties": {"type": "navaid", "kind": "VOR-DME", "ident": "KCE", "name": "Kobe", "freq": "111.25 MHz", "ch": "049Y", "elev_ft": 44, "apt": "RJBE", "power": "LOW"}, "geometry": {"type": "Point", "coordinates": [135.227997, 34.631001]}}, {"type": "Feature", "properties": {"type": "navaid", "kind": "VOR-DME", "ident": "KGE", "name": "Kajiki", "freq": "115.70 MHz", "ch": "104X", "elev_ft": 900, "apt": "RJFK", "power": "HIGH"}, "geometry": {"type": "Point", "coordinates": [130.725998, 31.797501]}}, {"type": "Feature", "properties": {"type": "navaid", "kind": "VOR-DME", "ident": "KNE", "name": "Kansai", "freq": "111.80 MHz", "ch": "055X", "elev_ft": 42, "apt": "RJBB", "power": "LOW"}, "geometry": {"type": "Point", "coordinates": [135.251999, 34.430099]}}, {"type": "Feature", "properties": {"type": "navaid", "kind": "VOR-DME", "ident": "KPE", "name": "Kan'On", "freq": "109.85 MHz", "ch": "035Y", "elev_ft": 30, "apt": "RJBH", "power": "LOW"}, "geometry": {"type": "Point", "coordinates": [132.410995, 34.359299]}}, {"type": "Feature", "properties": {"type": "navaid", "kind": "VOR-DME", "ident": "KRE", "name": "Kochi", "freq": "113.70 MHz", "ch": "084X", "elev_ft": 54, "apt": "RJOK", "power": "HIGH"}, "geometry": {"type": "Point", "coordinates": [133.679993, 33.541801]}}, {"type": "Feature", "properties": {"type": "navaid", "kind": "VOR-DME", "ident": "KSE", "name": "Kushiro", "freq": "112.50 MHz", "ch": "072X", "elev_ft": 334, "apt": "RJCK", "power": "HIGH"}, "geometry": {"type": "Point", "coordinates": [144.203995, 43.033798]}}, {"type": "Feature", "properties": {"type": "navaid", "kind": "VOR-DME", "ident": "KTE", "name": "Kagawa", "freq": "108.40 MHz", "ch": "021X", "elev_ft": 696, "apt": "RJOT", "power": "HIGH"}, "geometry": {"type": "Point", "coordinates": [134.022995, 34.212502]}}, {"type": "Feature", "properties": {"type": "navaid", "kind": "VOR-DME", "ident": "KUE", "name": "Kumamoto", "freq": "112.80 MHz", "ch": "075X", "elev_ft": 651, "apt": "RJFT", "power": "HIGH"}, "geometry": {"type": "Point", "coordinates": [130.841995, 32.834801]}}, {"type": "Feature", "properties": {"type": "navaid", "kind": "VOR-DME", "ident": "KWE", "name": "Kohtoh", "freq": "115.00 MHz", "ch": "097X", "elev_ft": 78, "apt": "RJTT", "power": "HIGH"}, "geometry": {"type": "Point", "coordinates": [139.815002, 35.609001]}}, {"type": "Feature", "properties": {"type": "navaid", "kind": "VOR-DME", "ident": "KYE", "name": "Kamiyaku", "freq": "115.40 MHz", "ch": "101X", "elev_ft": 139, "apt": "RJFC", "power": "HIGH"}, "geometry": {"type": "Point", "coordinates": [130.651001, 30.3901]}}, {"type": "Feature", "properties": {"type": "navaid", "kind": "VOR-DME", "ident": "KZE", "name": "Kisarazu", "freq": "114.50 MHz", "ch": "092X", "elev_ft": 45, "apt": "RJTK", "power": "LOW"}, "geometry": {"type": "Point", "coordinates": [139.903, 35.402401]}}, {"type": "Feature", "properties": {"type": "navaid", "kind": "VOR-DME", "ident": "LHE", "name": "Hamamatsu", "freq": "110.00 MHz", "ch": "037X", "elev_ft": 211, "apt": "RJNH", "power": "HIGH"}, "geometry": {"type": "Point", "coordinates": [137.681, 34.747898]}}, {"type": "Feature", "properties": {"type": "navaid", "kind": "VOR-DME", "ident": "MBE", "name": "Matsumoto", "freq": "117.60 MHz", "ch": "123X", "elev_ft": 2260, "apt": "RJAF", "power": "HIGH"}, "geometry": {"type": "Point", "coordinates": [137.919998, 36.155998]}}, {"type": "Feature", "properties": {"type": "navaid", "kind": "VOR-DME", "ident": "MDE", "name": "Minami Daito", "freq": "117.80 MHz", "ch": "125X", "elev_ft": 167, "apt": "ROMD", "power": "LOW"}, "geometry": {"type": "Point", "coordinates": [131.264008, 25.8545]}}, {"type": "Feature", "properties": {"type": "navaid", "kind": "VOR-DME", "ident": "MJE", "name": "Miyakejima", "freq": "109.00 MHz", "ch": "027X", "elev_ft": 144, "apt": "RJTQ", "power": "HIGH"}, "geometry": {"type": "Point", "coordinates": [139.498001, 34.118999]}}, {"type": "Feature", "properties": {"type": "navaid", "kind": "VOR-DME", "ident": "MKE", "name": "Mukawa", "freq": "116.40 MHz", "ch": "111X", "elev_ft": 94, "apt": "RJCC", "power": "LOW"}, "geometry": {"type": "Point", "coordinates": [141.955994, 42.555]}}, {"type": "Feature", "properties": {"type": "navaid", "kind": "VOR-DME", "ident": "MOE", "name": "Oyama", "freq": "108.65 MHz", "ch": "023Y", "elev_ft": 63, "apt": "RJTQ", "power": "HIGH"}, "geometry": {"type": "Point", "coordinates": [139.561005, 34.070999]}}, {"type": "Feature", "properties": {"type": "navaid", "kind": "VOR-DME", "ident": "MPE", "name": "Matsuyama", "freq": "116.30 MHz", "ch": "110X", "elev_ft": 64, "apt": "RJOM", "power": "HIGH"}, "geometry": {"type": "Point", "coordinates": [132.718002, 33.813]}}, {"type": "Feature", "properties": {"type": "navaid", "kind": "VOR-DME", "ident": "MQE", "name": "Miyako", "freq": "116.60 MHz", "ch": "113X", "elev_ft": 628, "power": "HIGH"}, "geometry": {"type": "Point", "coordinates": [141.951004, 39.865601]}}, {"type": "Feature", "properties": {"type": "navaid", "kind": "VOR-DME", "ident": "MRE", "name": "Aomori", "freq": "114.10 MHz", "ch": "088X", "elev_ft": 764, "apt": "RJSA", "power": "HIGH"}, "geometry": {"type": "Point", "coordinates": [140.705002, 40.7388]}}, {"type": "Feature", "properties": {"type": "navaid", "kind": "VOR-DME", "ident": "MVE", "name": "Monbetsu", "freq": "112.90 MHz", "ch": "076X", "elev_ft": 159, "apt": "RJEB", "power": "HIGH"}, "geometry": {"type": "Point", "coordinates": [143.395004, 44.305302]}}, {"type": "Feature", "properties": {"type": "navaid", "kind": "VOR-DME", "ident": "MWE", "name": "Tohoku", "freq": "114.90 MHz", "ch": "096X", "elev_ft": 444, "apt": "RJSM", "power": "HIGH"}, "geometry": {"type": "Point", "coordinates": [141.156998, 40.808899]}}, {"type": "Feature", "properties": {"type": "navaid", "kind": "VOR-DME", "ident": "MZE", "name": "Miyazaki", "freq": "112.40 MHz", "ch": "071X", "elev_ft": 32, "apt": "RJFM", "power": "HIGH"}, "geometry": {"type": "Point", "coordinates": [131.436996, 31.8787]}}, {"type": "Feature", "properties": {"type": "navaid", "kind": "VOR-DME", "ident": "NKE", "name": "Nanki", "freq": "109.05 MHz", "ch": "027Y", "elev_ft": 338, "apt": "RJBD", "power": "HIGH"}, "geometry": {"type": "Point", "coordinates": [135.358994, 33.661301]}}, {"type": "Feature", "properties": {"type": "navaid", "kind": "VOR-DME", "ident": "NRE", "name": "Narita", "freq": "117.90 MHz", "ch": "126X", "elev_ft": 153, "apt": "RJAA", "power": "HIGH"}, "geometry": {"type": "Point", "coordinates": [140.363007, 35.782299]}}, {"type": "Feature", "properties": {"type": "navaid", "kind": "VOR-DME", "ident": "NSE", "name": "Nakashibetsu", "freq": "111.45 MHz", "ch": "051Y", "elev_ft": 263, "apt": "RJCN", "power": "HIGH"}, "geometry": {"type": "Point", "coordinates": [144.951004, 43.5774]}}, {"type": "Feature", "properties": {"type": "navaid", "kind": "VOR-DME", "ident": "NTE", "name": "Noto", "freq": "111.45 MHz", "ch": "051Y", "elev_ft": 786, "apt": "RJNW", "power": "HIGH"}, "geometry": {"type": "Point", "coordinates": [136.962997, 37.290001]}}, {"type": "Feature", "properties": {"type": "navaid", "kind": "VOR-DME", "ident": "NZE", "name": "Nasu", "freq": "114.80 MHz", "ch": "095X", "elev_ft": 761, "power": "HIGH"}, "geometry": {"type": "Point", "coordinates": [140.035995, 36.7827]}}, {"type": "Feature", "properties": {"type": "navaid", "kind": "VOR-DME", "ident": "OBE", "name": "Obihiro", "freq": "109.65 MHz", "ch": "033Y", "elev_ft": 531, "apt": "RJCB", "power": "HIGH"}, "geometry": {"type": "Point", "coordinates": [143.220001, 42.734001]}}, {"type": "Feature", "properties": {"type": "navaid", "kind": "VOR-DME", "ident": "ODE", "name": "Odate Noshiro", "freq": "114.75 MHz", "ch": "094Y", "elev_ft": 308, "apt": "RJSR", "power": "LOW"}, "geometry": {"type": "Point", "coordinates": [140.362, 40.198299]}}, {"type": "Feature", "properties": {"type": "navaid", "kind": "VOR-DME", "ident": "OIE", "name": "Oki", "freq": "109.25 MHz", "ch": "029Y", "elev_ft": 270, "apt": "RJNO", "power": "HIGH"}, "geometry": {"type": "Point", "coordinates": [133.322998, 36.176701]}}, {"type": "Feature", "properties": {"type": "navaid", "kind": "VOR-DME", "ident": "OLE", "name": "Nagasaki", "freq": "116.60 MHz", "ch": "113X", "elev_ft": 154, "apt": "RJFU", "power": "HIGH"}, "geometry": {"type": "Point", "coordinates": [129.917999, 32.905201]}}, {"type": "Feature", "properties": {"type": "navaid", "kind": "VOR-DME", "ident": "ORE", "name": "Okushiri", "freq": "109.85 MHz", "ch": "035Y", "elev_ft": 168, "apt": "RJEO", "power": "HIGH"}, "geometry": {"type": "Point", "coordinates": [139.442993, 42.070301]}}, {"type": "Feature", "properties": {"type": "navaid", "kind": "VOR-DME", "ident": "OSE", "name": "Mihara", "freq": "109.85 MHz", "ch": "035Y", "elev_ft": 155, "apt": "RJTO", "power": "HIGH"}, "geometry": {"type": "Point", "coordinates": [139.365005, 34.787701]}}, {"type": "Feature", "properties": {"type": "navaid", "kind": "VOR-DME", "ident": "OWE", "name": "Osaka", "freq": "113.90 MHz", "ch": "086X", "elev_ft": 76, "apt": "RJOO", "power": "HIGH"}, "geometry": {"type": "Point", "coordinates": [135.451996, 34.776001]}}, {"type": "Feature", "properties": {"type": "navaid", "kind": "VOR-DME", "ident": "OYE", "name": "Kibi", "freq": "111.00 MHz", "ch": "047X", "elev_ft": 880, "apt": "RJOB", "power": "HIGH"}, "geometry": {"type": "Point", "coordinates": [133.835007, 34.750401]}}, {"type": "Feature", "properties": {"type": "navaid", "kind": "VOR-DME", "ident": "PQE", "name": "Tateyama", "freq": "112.50 MHz", "ch": "072X", "elev_ft": 621, "apt": "RJTE", "power": "HIGH"}, "geometry": {"type": "Point", "coordinates": [139.895996, 34.9464]}}, {"type": "Feature", "properties": {"type": "navaid", "kind": "VOR-DME", "ident": "RBE", "name": "Rebun", "freq": "116.20 MHz", "ch": "109X", "elev_ft": 217, "power": "HIGH"}, "geometry": {"type": "Point", "coordinates": [141.039001, 45.451099]}}, {"type": "Feature", "properties": {"type": "navaid", "kind": "VOR-DME", "ident": "RME", "name": "Tarama", "freq": "110.65 MHz", "ch": "043Y", "elev_ft": 59, "apt": "RORT", "power": "HIGH"}, "geometry": {"type": "Point", "coordinates": [124.674004, 24.6507]}}, {"type": "Feature", "properties": {"type": "navaid", "kind": "VOR-DME", "ident": "RSE", "name": "Rishiri", "freq": "114.60 MHz", "ch": "093X", "elev_ft": 113, "apt": "RJER", "power": "HIGH"}, "geometry": {"type": "Point", "coordinates": [141.186996, 45.245701]}}, {"type": "Feature", "properties": {"type": "navaid", "kind": "VOR-DME", "ident": "SDE", "name": "Sendai", "freq": "116.30 MHz", "ch": "110X", "elev_ft": 54, "apt": "RJSS", "power": "HIGH"}, "geometry": {"type": "Point", "coordinates": [140.921005, 38.138599]}}, {"type": "Feature", "properties": {"type": "navaid", "kind": "VOR-DME", "ident": "SGE", "name": "Saga", "freq": "114.75 MHz", "ch": "094Y", "elev_ft": 40, "apt": "RJFS", "power": "HIGH"}, "geometry": {"type": "Point", "coordinates": [130.292999, 33.148602]}}, {"type": "Feature", "properties": {"type": "navaid", "kind": "VOR-DME", "ident": "SIE", "name": "Shigi", "freq": "111.60 MHz", "ch": "053X", "elev_ft": 1494, "apt": "RJBB", "power": "LOW"}, "geometry": {"type": "Point", "coordinates": [135.662003, 34.628399]}}, {"type": "Feature", "properties": {"type": "navaid", "kind": "VOR-DME", "ident": "SJE", "name": "Shimojishima", "freq": "117.10 MHz", "ch": "118X", "elev_ft": 66, "apt": "RORS", "power": "HIGH"}, "geometry": {"type": "Point", "coordinates": [125.143997, 24.821899]}}, {"type": "Feature", "properties": {"type": "navaid", "kind": "VOR-DME", "ident": "SKE", "name": "Shinoda", "freq": "112.30 MHz", "ch": "070X", "elev_ft": 244, "apt": "RJBB", "power": "HIGH"}, "geometry": {"type": "Point", "coordinates": [135.447998, 34.491901]}}, {"type": "Feature", "properties": {"type": "navaid", "kind": "VOR-DME", "ident": "SNE", "name": "Moriya", "freq": "114.00 MHz", "ch": "087X", "elev_ft": 132, "power": "HIGH"}, "geometry": {"type": "Point", "coordinates": [139.981003, 35.934799]}}, {"type": "Feature", "properties": {"type": "navaid", "kind": "VOR-DME", "ident": "SOE", "name": "Sonai", "freq": "114.55 MHz", "ch": "092Y", "elev_ft": 50, "power": "HIGH"}, "geometry": {"type": "Point", "coordinates": [123.012001, 24.4709]}}, {"type": "Feature", "properties": {"type": "navaid", "kind": "VOR-DME", "ident": "SPE", "name": "Sapporo", "freq": "113.90 MHz", "ch": "086X", "elev_ft": 87, "apt": "RJCO", "power": "HIGH"}, "geometry": {"type": "Point", "coordinates": [141.302002, 43.174599]}}, {"type": "Feature", "properties": {"type": "navaid", "kind": "VOR-DME", "ident": "STE", "name": "Shodo", "freq": "114.40 MHz", "ch": "091X", "elev_ft": 2531, "power": "LOW"}, "geometry": {"type": "Point", "coordinates": [134.274002, 34.512402]}}, {"type": "Feature", "properties": {"type": "navaid", "kind": "VOR-DME", "ident": "SWE", "name": "Suoh", "freq": "113.85 MHz", "ch": "085Y", "elev_ft": 54, "apt": "RJFR", "power": "MEDIUM"}, "geometry": {"type": "Point", "coordinates": [131.029007, 33.856602]}}, {"type": "Feature", "properties": {"type": "navaid", "kind": "VOR-DME", "ident": "SYE", "name": "Sekiyado", "freq": "117.00 MHz", "ch": "117X", "elev_ft": 115, "power": "HIGH"}, "geometry": {"type": "Point", "coordinates": [139.839005, 36.010899]}}, {"type": "Feature", "properties": {"type": "navaid", "kind": "VOR-DME", "ident": "TAE", "name": "Oita", "freq": "112.10 MHz", "ch": "058X", "elev_ft": 311, "apt": "RJFO", "power": "HIGH"}, "geometry": {"type": "Point", "coordinates": [131.703003, 33.220299]}}, {"type": "Feature", "properties": {"type": "navaid", "kind": "VOR-DME", "ident": "TBE", "name": "Memanbetsu", "freq": "110.85 MHz", "ch": "045Y", "elev_ft": 132, "apt": "RJCM", "power": "HIGH"}, "geometry": {"type": "Point", "coordinates": [144.166, 43.884899]}}, {"type": "Feature", "properties": {"type": "navaid", "kind": "VOR-DME", "ident": "TFE", "name": "Musashi", "freq": "117.70 MHz", "ch": "124X", "elev_ft": 100, "apt": "RJFO", "power": "HIGH"}, "geometry": {"type": "Point", "coordinates": [131.729004, 33.4897]}}, {"type": "Feature", "properties": {"type": "navaid", "kind": "VOR-DME", "ident": "TGE", "name": "Nakatane", "freq": "115.40 MHz", "ch": "101X", "elev_ft": 808, "apt": "RJFG", "power": "MEDIUM"}, "geometry": {"type": "Point", "coordinates": [130.992004, 30.6022]}}, {"type": "Feature", "properties": {"type": "navaid", "kind": "VOR-DME", "ident": "THE", "name": "Tajima", "freq": "110.45 MHz", "ch": "041Y", "elev_ft": 689, "apt": "RJBT", "power": "HIGH"}, "geometry": {"type": "Point", "coordinates": [134.791, 35.518002]}}, {"type": "Feature", "properties": {"type": "navaid", "kind": "VOR-DME", "ident": "TKE", "name": "Tokunoshima", "freq": "110.45 MHz", "ch": "041Y", "elev_ft": 48, "apt": "RJKN", "power": "HIGH"}, "geometry": {"type": "Point", "coordinates": [128.882004, 27.8248]}}, {"type": "Feature", "properties": {"type": "navaid", "kind": "VOR-DME", "ident": "TLE", "name": "Ami", "freq": "116.00 MHz", "ch": "107X", "elev_ft": 114, "power": "HIGH"}, "geometry": {"type": "Point", "coordinates": [140.205994, 36.021198]}}, {"type": "Feature", "properties": {"type": "navaid", "kind": "VOR-DME", "ident": "TME", "name": "Tomo", "freq": "116.40 MHz", "ch": "111X", "elev_ft": 425, "apt": "RJBB", "power": "LOW"}, "geometry": {"type": "Point", "coordinates": [135.005997, 34.280399]}}, {"type": "Feature", "properties": {"type": "navaid", "kind": "VOR-DME", "ident": "TOE", "name": "Toyama", "freq": "110.85 MHz", "ch": "045Y", "elev_ft": 116, "apt": "RJNT", "power": "HIGH"}, "geometry": {"type": "Point", "coordinates": [137.190994, 36.652199]}}, {"type": "Feature", "properties": {"type": "navaid", "kind": "VOR-DME", "ident": "TRE", "name": "Tottori", "freq": "110.20 MHz", "ch": "039X", "elev_ft": 115, "apt": "RJOR", "power": "LOW"}, "geometry": {"type": "Point", "coordinates": [134.164993, 35.527302]}}, {"type": "Feature", "properties": {"type": "navaid", "kind": "VOR-DME", "ident": "TTE", "name": "Toyota", "freq": "117.20 MHz", "ch": "119X", "elev_ft": 2234, "power": "HIGH"}, "geometry": {"type": "Point", "coordinates": [131.016006, 34.190701]}}, {"type": "Feature", "properties": {"type": "navaid", "kind": "VOR-DME", "ident": "TYE", "name": "Sakura", "freq": "112.70 MHz", "ch": "074X", "elev_ft": 97, "apt": "RJAA", "power": "HIGH"}, "geometry": {"type": "Point", "coordinates": [140.263, 35.7836]}}, {"type": "Feature", "properties": {"type": "navaid", "kind": "VOR-DME", "ident": "UBE", "name": "Ube", "freq": "110.80 MHz", "ch": "045X", "elev_ft": 64, "apt": "RJDC", "power": "HIGH"}, "geometry": {"type": "Point", "coordinates": [131.283997, 33.9356]}}, {"type": "Feature", "properties": {"type": "navaid", "kind": "VOR-DME", "ident": "UWE", "name": "Yuwa", "freq": "110.65 MHz", "ch": "043Y", "elev_ft": 286, "apt": "RJSK", "power": "LOW"}, "geometry": {"type": "Point", "coordinates": [140.186996, 39.6171]}}, {"type": "Feature", "properties": {"type": "navaid", "kind": "VOR-DME", "ident": "VCE", "name": "Tsushima", "freq": "111.45 MHz", "ch": "051Y", "elev_ft": 220, "apt": "RJDT", "power": "HIGH"}, "geometry": {"type": "Point", "coordinates": [129.337006, 34.281502]}}, {"type": "Feature", "properties": {"type": "navaid", "kind": "VOR-DME", "ident": "WKE", "name": "Wakkanai", "freq": "115.30 MHz", "ch": "100X", "elev_ft": 49, "apt": "RJCW", "power": "HIGH"}, "geometry": {"type": "Point", "coordinates": [141.806, 45.407398]}}, {"type": "Feature", "properties": {"type": "navaid", "kind": "VOR-DME", "ident": "XZE", "name": "Izumo", "freq": "113.40 MHz", "ch": "081X", "elev_ft": 43, "apt": "RJOC", "power": "LOW"}, "geometry": {"type": "Point", "coordinates": [132.891998, 35.417198]}}, {"type": "Feature", "properties": {"type": "navaid", "kind": "VOR-DME", "ident": "YKE", "name": "Yakushima", "freq": "117.00 MHz", "ch": "117X", "elev_ft": 190, "apt": "RJFC", "power": "HIGH"}, "geometry": {"type": "Point", "coordinates": [130.662994, 30.3794]}}, {"type": "Feature", "properties": {"type": "navaid", "kind": "VOR-DME", "ident": "YME", "name": "Miyazu", "freq": "112.60 MHz", "ch": "073X", "elev_ft": 2428, "power": "HIGH"}, "geometry": {"type": "Point", "coordinates": [135.136993, 35.480701]}}, {"type": "Feature", "properties": {"type": "navaid", "kind": "VOR-DME", "ident": "YNE", "name": "Yonaguni", "freq": "115.05 MHz", "ch": "097Y", "elev_ft": 315, "apt": "ROYN", "power": "HIGH"}, "geometry": {"type": "Point", "coordinates": [122.998001, 24.464899]}}, {"type": "Feature", "properties": {"type": "navaid", "kind": "VOR-DME", "ident": "YOE", "name": "Yao", "freq": "114.60 MHz", "ch": "093X", "elev_ft": 101, "apt": "RJOY", "power": "HIGH"}, "geometry": {"type": "Point", "coordinates": [135.593994, 34.598499]}}, {"type": "Feature", "properties": {"type": "navaid", "kind": "VOR-DME", "ident": "YRE", "name": "Yoron", "freq": "112.25 MHz", "ch": "059Y", "elev_ft": 63, "apt": "RORY", "power": "HIGH"}, "geometry": {"type": "Point", "coordinates": [128.397995, 27.044399]}}, {"type": "Feature", "properties": {"type": "navaid", "kind": "VOR-DME", "ident": "YSE", "name": "Shonai", "freq": "109.60 MHz", "ch": "033X", "elev_ft": 162, "apt": "RJSY", "power": "HIGH"}, "geometry": {"type": "Point", "coordinates": [139.798996, 38.810799]}}, {"type": "Feature", "properties": {"type": "navaid", "kind": "VOR-DME", "ident": "YTE", "name": "Yamagata", "freq": "113.00 MHz", "ch": "077X", "elev_ft": 361, "apt": "RJSC", "power": "HIGH"}, "geometry": {"type": "Point", "coordinates": [140.358002, 38.388599]}}, {"type": "Feature", "properties": {"type": "navaid", "kind": "VOR-DME", "ident": "YVE", "name": "Yonago", "freq": "114.10 MHz", "ch": "088X", "elev_ft": 39, "apt": "RJOH", "power": "LOW"}, "geometry": {"type": "Point", "coordinates": [133.233002, 35.493401]}}, {"type": "Feature", "properties": {"type": "navaid", "kind": "VOR", "ident": "ZMO", "name": "Zao-Yamada", "freq": "110.80 MHz", "apt": "RJSC", "power": "LOW"}, "geometry": {"type": "Point", "coordinates": [140.335999, 38.189999]}}, {"type": "Feature", "properties": {"type": "navaid", "kind": "TACAN", "ident": "AHT", "name": "Ashiya", "freq": "108.60 MHz", "ch": "023X", "elev_ft": 84, "apt": "RJFA", "power": "HIGH"}, "geometry": {"type": "Point", "coordinates": [130.649994, 33.888302]}}, {"type": "Feature", "properties": {"type": "navaid", "kind": "TACAN", "ident": "AKT", "name": "Akeno", "freq": "112.05 MHz", "ch": "057Y", "elev_ft": 20, "apt": "RJOE", "power": "HIGH"}, "geometry": {"type": "Point", "coordinates": [136.675003, 34.5285]}}, {"type": "Feature", "properties": {"type": "navaid", "kind": "TACAN", "ident": "FMT", "name": "Hofu", "freq": "113.00 MHz", "ch": "077X", "elev_ft": 37, "apt": "RJOF", "power": "HIGH"}, "geometry": {"type": "Point", "coordinates": [131.546005, 34.0383]}}, {"type": "Feature", "properties": {"type": "navaid", "kind": "TACAN", "ident": "GFT", "name": "Gifu", "freq": "112.25 MHz", "ch": "059Y", "elev_ft": 146, "apt": "RJNG", "power": "HIGH"}, "geometry": {"type": "Point", "coordinates": [136.858994, 35.391399]}}, {"type": "Feature", "properties": {"type": "navaid", "kind": "TACAN", "ident": "HUT", "name": "Hyakuri", "freq": "113.30 MHz", "ch": "080X", "elev_ft": 137, "apt": "RJAH", "power": "HIGH"}, "geometry": {"type": "Point", "coordinates": [140.414993, 36.188301]}}, {"type": "Feature", "properties": {"type": "navaid", "kind": "TACAN", "ident": "HVT", "name": "Hachinohe", "freq": "108.60 MHz", "ch": "023X", "elev_ft": 180, "apt": "RJSH", "power": "HIGH"}, "geometry": {"type": "Point", "coordinates": [141.470001, 40.555801]}}, {"type": "Feature", "properties": {"type": "navaid", "kind": "TACAN", "ident": "IJT", "name": "Iwo Jima", "freq": "109.80 MHz", "ch": "035X", "elev_ft": 410, "apt": "RJAW", "power": "HIGH"}, "geometry": {"type": "Point", "coordinates": [141.317001, 24.784201]}}, {"type": "Feature", "properties": {"type": "navaid", "kind": "TACAN", "ident": "JAT", "name": "Kanoya", "freq": "113.80 MHz", "ch": "085X", "elev_ft": 252, "apt": "RJFY", "power": "HIGH"}, "geometry": {"type": "Point", "coordinates": [130.830002, 31.362801]}}, {"type": "Feature", "properties": {"type": "navaid", "kind": "TACAN", "ident": "JBT", "name": "Omura", "freq": "114.05 MHz", "ch": "087Y", "elev_ft": 80, "apt": "RJFU", "power": "HIGH"}, "geometry": {"type": "Point", "coordinates": [129.932007, 32.9258]}}, {"type": "Feature", "properties": {"type": "navaid", "kind": "TACAN", "ident": "JDT", "name": "Utsunomiya", "freq": "112.15 MHz", "ch": "058Y", "elev_ft": 406, "apt": "RJTU", "power": "HIGH"}, "geometry": {"type": "Point", "coordinates": [139.876007, 36.516899]}}, {"type": "Feature", "properties": {"type": "navaid", "kind": "TACAN", "ident": "KJT", "name": "Komatsujima", "freq": "113.55 MHz", "ch": "082Y", "elev_ft": 60, "power": "HIGH"}, "geometry": {"type": "Point", "coordinates": [134.626007, 34.004101]}}, {"type": "Feature", "properties": {"type": "navaid", "kind": "TACAN", "ident": "LHT", "name": "Hamamatsu", "freq": "114.70 MHz", "ch": "094X", "elev_ft": 233, "apt": "RJNH", "power": "HIGH"}, "geometry": {"type": "Point", "coordinates": [137.710007, 34.7472]}}, {"type": "Feature", "properties": {"type": "navaid", "kind": "TACAN", "ident": "MIT", "name": "Mishima", "freq": "110.60 MHz", "ch": "043X", "elev_ft": 652, "power": "HIGH"}, "geometry": {"type": "Point", "coordinates": [131.138, 34.771702]}}, {"type": "Feature", "properties": {"type": "navaid", "kind": "TACAN", "ident": "MLT", "name": "Minami Torishima", "freq": "108.60 MHz", "ch": "023X", "elev_ft": 39, "apt": "RJAM", "power": "HIGH"}, "geometry": {"type": "Point", "coordinates": [153.983994, 24.2953]}}, {"type": "Feature", "properties": {"type": "navaid", "kind": "TACAN", "ident": "MXT", "name": "Matsushima", "freq": "114.30 MHz", "ch": "090X", "elev_ft": 37, "apt": "RJST", "power": "LOW"}, "geometry": {"type": "Point", "coordinates": [141.225998, 38.4039]}}, {"type": "Feature", "properties": {"type": "navaid", "kind": "TACAN", "ident": "MZT", "name": "Maizuru", "freq": "109.65 MHz", "ch": "033Y", "elev_ft": 2014, "power": "LOW"}, "geometry": {"type": "Point", "coordinates": [135.425995, 35.5481]}}, {"type": "Feature", "properties": {"type": "navaid", "kind": "TACAN", "ident": "NEU", "name": "Iwakuni", "freq": "109.80 MHz", "ch": "035X", "elev_ft": 51, "apt": "RJOI", "power": "HIGH"}, "geometry": {"type": "Point", "coordinates": [132.231995, 34.1408]}}, {"type": "Feature", "properties": {"type": "navaid", "kind": "TACAN", "ident": "NFO", "name": "Futenma", "freq": "110.50 MHz", "ch": "042X", "elev_ft": 246, "apt": "ROTM", "power": "HIGH"}, "geometry": {"type": "Point", "coordinates": [127.744003, 26.267099]}}, {"type": "Feature", "properties": {"type": "navaid", "kind": "TACAN", "ident": "NHT", "name": "Nyutabaru", "freq": "115.00 MHz", "ch": "097X", "elev_ft": 278, "apt": "RJFN", "power": "HIGH"}, "geometry": {"type": "Point", "coordinates": [131.453995, 32.080299]}}, {"type": "Feature", "properties": {"type": "navaid", "kind": "TACAN", "ident": "NJA", "name": "Atsugi", "freq": "115.10 MHz", "ch": "098X", "elev_ft": 236, "apt": "RJTA", "power": "HIGH"}, "geometry": {"type": "Point", "coordinates": [139.453995, 35.445801]}}, {"type": "Feature", "properties": {"type": "navaid", "kind": "TACAN", "ident": "OCT", "name": "Ozuki", "freq": "112.15 MHz", "ch": "058Y", "elev_ft": 50, "apt": "RJOZ", "power": "HIGH"}, "geometry": {"type": "Point", "coordinates": [131.050003, 34.044201]}}, {"type": "Feature", "properties": {"type": "navaid", "kind": "TACAN", "ident": "OMT", "name": "Ominato", "freq": "114.85 MHz", "ch": "095Y", "elev_ft": 44, "power": "HIGH"}, "geometry": {"type": "Point", "coordinates": [141.136002, 41.230801]}}, {"type": "Feature", "properties": {"type": "navaid", "kind": "TACAN", "ident": "SHT", "name": "Shimofusa", "freq": "108.20 MHz", "ch": "019X", "elev_ft": 130, "apt": "RJTL", "power": "LOW"}, "geometry": {"type": "Point", "coordinates": [140.009995, 35.801899]}}, {"type": "Feature", "properties": {"type": "navaid", "kind": "TACAN", "ident": "TET", "name": "Tateyama", "freq": "108.80 MHz", "ch": "025X", "elev_ft": 502, "apt": "RJTE", "power": "HIGH"}, "geometry": {"type": "Point", "coordinates": [139.837997, 34.970798]}}, {"type": "Feature", "properties": {"type": "navaid", "kind": "TACAN", "ident": "TQT", "name": "Tsuiki", "freq": "110.40 MHz", "ch": "041X", "elev_ft": 84, "apt": "RJFZ", "power": "HIGH"}, "geometry": {"type": "Point", "coordinates": [131.037994, 33.688099]}}, {"type": "Feature", "properties": {"type": "navaid", "kind": "TACAN", "ident": "VCT", "name": "Shimotsushima", "freq": "113.60 MHz", "ch": "083X", "elev_ft": 597, "power": "HIGH"}, "geometry": {"type": "Point", "coordinates": [129.281006, 34.1325]}}, {"type": "Feature", "properties": {"type": "navaid", "kind": "TACAN", "ident": "WMT", "name": "Matsumae", "freq": "112.10 MHz", "ch": "058X", "elev_ft": 656, "power": "LOW"}, "geometry": {"type": "Point", "coordinates": [140.085007, 41.435398]}}, {"type": "Feature", "properties": {"type": "navaid", "kind": "TACAN", "ident": "YLT", "name": "Iruma", "freq": "110.60 MHz", "ch": "043X", "elev_ft": 319, "apt": "RJTJ", "power": "HIGH"}, "geometry": {"type": "Point", "coordinates": [139.414993, 35.84]}}, {"type": "Feature", "properties": {"type": "navaid", "kind": "TACAN", "ident": "YOK", "name": "Yokota", "freq": "113.80 MHz", "ch": "085X", "elev_ft": 438, "apt": "RJTY", "power": "HIGH"}, "geometry": {"type": "Point", "coordinates": [139.350006, 35.749001]}}, {"type": "Feature", "properties": {"type": "navaid", "kind": "TACAN", "ident": "YZT", "name": "Shizuhama", "freq": "109.20 MHz", "ch": "029X", "elev_ft": 78, "apt": "RJNY", "power": "HIGH"}, "geometry": {"type": "Point", "coordinates": [138.296005, 34.8144]}}, {"type": "Feature", "properties": {"type": "navaid", "kind": "TACAN", "ident": "ZYT", "name": "Chitose", "freq": "109.20 MHz", "ch": "029X", "elev_ft": 121, "apt": "RJCJ", "power": "HIGH"}, "geometry": {"type": "Point", "coordinates": [141.673996, 42.7644]}}, {"type": "Feature", "properties": {"type": "navaid", "kind": "NDB", "ident": "AK", "name": "Akeno", "freq": "380 kHz", "apt": "RJOE", "power": "MEDIUM"}, "geometry": {"type": "Point", "coordinates": [136.697006, 34.527802]}}, {"type": "Feature", "properties": {"type": "navaid", "kind": "NDB", "ident": "AN", "name": "Aguni", "freq": "268 kHz", "elev_ft": 44, "apt": "RORA", "power": "LOW"}, "geometry": {"type": "Point", "coordinates": [127.236, 26.5937]}}, {"type": "Feature", "properties": {"type": "navaid", "kind": "NDB", "ident": "AY", "name": "Kumagaya", "freq": "283 kHz", "power": "MEDIUM"}, "geometry": {"type": "Point", "coordinates": [139.311005, 36.163898]}}, {"type": "Feature", "properties": {"type": "navaid", "kind": "NDB", "ident": "CA", "name": "Kamigoto", "freq": "367 kHz", "elev_ft": 277, "apt": "RJDK", "power": "MEDIUM"}, "geometry": {"type": "Point", "coordinates": [129.190002, 33.012001]}}, {"type": "Feature", "properties": {"type": "navaid", "kind": "NDB", "ident": "CH", "name": "Chitose", "freq": "347 kHz", "elev_ft": 87, "apt": "RJCJ", "power": "MEDIUM"}, "geometry": {"type": "Point", "coordinates": [141.679993, 42.6688]}}, {"type": "Feature", "properties": {"type": "navaid", "kind": "NDB", "ident": "CI", "name": "Chichijima", "freq": "257 kHz", "power": "MEDIUM"}, "geometry": {"type": "Point", "coordinates": [142.214005, 27.089199]}}, {"type": "Feature", "properties": {"type": "navaid", "kind": "NDB", "ident": "CU", "name": "Otsu", "freq": "368 kHz", "power": "MEDIUM"}, "geometry": {"type": "Point", "coordinates": [135.871002, 35.050301]}}, {"type": "Feature", "properties": {"type": "navaid", "kind": "NDB", "ident": "DF", "name": "Zama", "freq": "401 kHz", "power": "MEDIUM"}, "geometry": {"type": "Point", "coordinates": [139.376007, 35.5798]}}, {"type": "Feature", "properties": {"type": "navaid", "kind": "NDB", "ident": "FO", "name": "Fukuoka", "freq": "203 kHz", "apt": "RJFF", "power": "MEDIUM"}, "geometry": {"type": "Point", "coordinates": [130.391006, 33.6749]}}, {"type": "Feature", "properties": {"type": "navaid", "kind": "NDB", "ident": "FQ", "name": "Fukui", "freq": "400 kHz", "apt": "RJNF", "power": "MEDIUM"}, "geometry": {"type": "Point", "coordinates": [136.220001, 36.1754]}}, {"type": "Feature", "properties": {"type": "navaid", "kind": "NDB", "ident": "FU", "name": "Fukue", "freq": "263 kHz", "elev_ft": 273, "apt": "RJFE", "power": "MEDIUM"}, "geometry": {"type": "Point", "coordinates": [128.830994, 32.670799]}}, {"type": "Feature", "properties": {"type": "navaid", "kind": "NDB", "ident": "GO", "name": "Daigo", "freq": "221 kHz", "power": "MEDIUM"}, "geometry": {"type": "Point", "coordinates": [140.358994, 36.764]}}, {"type": "Feature", "properties": {"type": "navaid", "kind": "NDB", "ident": "GT", "name": "Niigata", "freq": "253 kHz", "elev_ft": 29, "apt": "RJSN", "power": "MEDIUM"}, "geometry": {"type": "Point", "coordinates": [139.110001, 37.950901]}}, {"type": "Feature", "properties": {"type": "navaid", "kind": "NDB", "ident": "HC", "name": "Hachijojima", "freq": "340 kHz", "elev_ft": 303, "apt": "RJTH", "power": "MEDIUM"}, "geometry": {"type": "Point", "coordinates": [139.791, 33.1133]}}, {"type": "Feature", "properties": {"type": "navaid", "kind": "NDB", "ident": "HK", "name": "Kagoshima", "freq": "390 kHz", "power": "HIGH"}, "geometry": {"type": "Point", "coordinates": [130.565994, 31.644699]}}, {"type": "Feature", "properties": {"type": "navaid", "kind": "NDB", "ident": "HM", "name": "Haneda", "freq": "337 kHz", "elev_ft": 23, "apt": "RJTT", "power": "MEDIUM"}, "geometry": {"type": "Point", "coordinates": [139.755005, 35.5588]}}, {"type": "Feature", "properties": {"type": "navaid", "kind": "NDB", "ident": "HR", "name": "Hateruma", "freq": "332 kHz", "apt": "RORH", "power": "LOW"}, "geometry": {"type": "Point", "coordinates": [123.803001, 24.060699]}}, {"type": "Feature", "properties": {"type": "navaid", "kind": "NDB", "ident": "HW", "name": "Hakodate", "freq": "388 kHz", "elev_ft": 151, "apt": "RJCH", "power": "MEDIUM"}, "geometry": {"type": "Point", "coordinates": [140.819, 41.775398]}}, {"type": "Feature", "properties": {"type": "navaid", "kind": "NDB", "ident": "IK", "name": "Ikishima", "freq": "355 kHz", "apt": "RJDB", "power": "MEDIUM"}, "geometry": {"type": "Point", "coordinates": [129.781998, 33.7523]}}, {"type": "Feature", "properties": {"type": "navaid", "kind": "NDB", "ident": "JA", "name": "Kanoya", "freq": "238 kHz", "elev_ft": 214, "apt": "RJFY", "power": "MEDIUM"}, "geometry": {"type": "Point", "coordinates": [130.848999, 31.3564]}}, {"type": "Feature", "properties": {"type": "navaid", "kind": "NDB", "ident": "JB", "name": "Omura", "freq": "343 kHz", "apt": "RJFU", "power": "MEDIUM"}, "geometry": {"type": "Point", "coordinates": [129.929993, 32.9417]}}, {"type": "Feature", "properties": {"type": "navaid", "kind": "NDB", "ident": "JC", "name": "Hachinohe", "freq": "381 kHz", "elev_ft": 152, "apt": "RJSH", "power": "MEDIUM"}, "geometry": {"type": "Point", "coordinates": [141.477997, 40.550301]}}, {"type": "Feature", "properties": {"type": "navaid", "kind": "NDB", "ident": "JD", "name": "Nikko", "freq": "389 kHz", "apt": "RJTU", "power": "MEDIUM"}, "geometry": {"type": "Point", "coordinates": [139.863007, 36.489799]}}, {"type": "Feature", "properties": {"type": "navaid", "kind": "NDB", "ident": "KC", "name": "Nagoya", "freq": "360 kHz", "elev_ft": 52, "power": "MEDIUM"}, "geometry": {"type": "Point", "coordinates": [136.916, 35.259399]}}, {"type": "Feature", "properties": {"type": "navaid", "kind": "NDB", "ident": "KI", "name": "Kikai", "freq": "382 kHz", "apt": "RJKI", "power": "LOW"}, "geometry": {"type": "Point", "coordinates": [129.923996, 28.317801]}}, {"type": "Feature", "properties": {"type": "navaid", "kind": "NDB", "ident": "KJ", "name": "Komatsujima", "freq": "352 kHz", "power": "MEDIUM"}, "geometry": {"type": "Point", "coordinates": [134.649002, 33.976898]}}, {"type": "Feature", "properties": {"type": "navaid", "kind": "NDB", "ident": "KN", "name": "Kansai", "freq": "346 kHz", "apt": "RJBB", "power": "MEDIUM"}, "geometry": {"type": "Point", "coordinates": [135.345001, 34.495098]}}, {"type": "Feature", "properties": {"type": "navaid", "kind": "NDB", "ident": "KQ", "name": "Akan", "freq": "221 kHz", "apt": "RJCK", "power": "LOW"}, "geometry": {"type": "Point", "coordinates": [144.143997, 43.134499]}}, {"type": "Feature", "properties": {"type": "navaid", "kind": "NDB", "ident": "KR", "name": "Kochi", "freq": "399 kHz", "elev_ft": 31, "apt": "RJOK", "power": "MEDIUM"}, "geometry": {"type": "Point", "coordinates": [133.677994, 33.546101]}}, {"type": "Feature", "properties": {"type": "navaid", "kind": "NDB", "ident": "KS", "name": "Kushiro", "freq": "194 kHz", "elev_ft": 327, "apt": "RJCK", "power": "MEDIUM"}, "geometry": {"type": "Point", "coordinates": [144.201004, 43.035999]}}, {"type": "Feature", "properties": {"type": "navaid", "kind": "NDB", "ident": "KU", "name": "Kumamoto", "freq": "249 kHz", "apt": "RJFT", "power": "MEDIUM"}, "geometry": {"type": "Point", "coordinates": [130.768005, 32.8055]}}, {"type": "Feature", "properties": {"type": "navaid", "kind": "NDB", "ident": "KX", "name": "Kumejima", "freq": "295 kHz", "apt": "ROKJ", "power": "MEDIUM"}, "geometry": {"type": "Point", "coordinates": [126.716003, 26.3624]}}, {"type": "Feature", "properties": {"type": "navaid", "kind": "NDB", "ident": "MD", "name": "Minami Daito", "freq": "405 kHz", "apt": "ROMD", "power": "MEDIUM"}, "geometry": {"type": "Point", "coordinates": [131.246002, 25.840599]}}, {"type": "Feature", "properties": {"type": "navaid", "kind": "NDB", "ident": "MI", "name": "Omiya", "freq": "228 kHz", "power": "LOW"}, "geometry": {"type": "Point", "coordinates": [139.613998, 35.9184]}}, {"type": "Feature", "properties": {"type": "navaid", "kind": "NDB", "ident": "ML", "name": "Minami Torishima", "freq": "343 kHz", "elev_ft": 22, "apt": "RJAM", "power": "MEDIUM"}, "geometry": {"type": "Point", "coordinates": [153.983002, 24.2908]}}, {"type": "Feature", "properties": {"type": "navaid", "kind": "NDB", "ident": "MQ", "name": "Miyako", "freq": "209 kHz", "power": "MEDIUM"}, "geometry": {"type": "Point", "coordinates": [141.945999, 39.855701]}}, {"type": "Feature", "properties": {"type": "navaid", "kind": "NDB", "ident": "MY", "name": "Miyako Jima", "freq": "340 kHz", "elev_ft": 150, "apt": "ROMY", "power": "MEDIUM"}, "geometry": {"type": "Point", "coordinates": [125.294998, 24.788099]}}, {"type": "Feature", "properties": {"type": "navaid", "kind": "NDB", "ident": "NA", "name": "Naganuma", "freq": "377 kHz", "apt": "RJCC", "power": "MEDIUM"}, "geometry": {"type": "Point", "coordinates": [141.651001, 43.000198]}}, {"type": "Feature", "properties": {"type": "navaid", "kind": "NDB", "ident": "NG", "name": "Aichi", "freq": "397 kHz", "power": "LOW"}, "geometry": {"type": "Point", "coordinates": [136.996994, 35.1423]}}, {"type": "Feature", "properties": {"type": "navaid", "kind": "NDB", "ident": "NI", "name": "Sado", "freq": "370 kHz", "power": "MEDIUM"}, "geometry": {"type": "Point", "coordinates": [138.410004, 38.0658]}}, {"type": "Feature", "properties": {"type": "navaid", "kind": "NDB", "ident": "OB", "name": "Obihiro", "freq": "326 kHz", "elev_ft": 505, "apt": "RJCB", "power": "MEDIUM"}, "geometry": {"type": "Point", "coordinates": [143.257004, 42.656101]}}, {"type": "Feature", "properties": {"type": "navaid", "kind": "NDB", "ident": "OC", "name": "Ozuki", "freq": "253 kHz", "elev_ft": 13, "apt": "RJOZ", "power": "MEDIUM"}, "geometry": {"type": "Point", "coordinates": [131.059998, 34.047501]}}, {"type": "Feature", "properties": {"type": "navaid", "kind": "NDB", "ident": "OH", "name": "Tokachi", "freq": "239 kHz", "elev_ft": 275, "apt": "RJCT", "power": "MEDIUM"}, "geometry": {"type": "Point", "coordinates": [143.158005, 42.8997]}}, {"type": "Feature", "properties": {"type": "navaid", "kind": "NDB", "ident": "OK", "name": "Okinawa", "freq": "308 kHz", "apt": "ROAH", "power": "MEDIUM"}, "geometry": {"type": "Point", "coordinates": [127.665001, 26.1017]}}, {"type": "Feature", "properties": {"type": "navaid", "kind": "NDB", "ident": "OM", "name": "Ominato", "freq": "353 kHz", "power": "MEDIUM"}, "geometry": {"type": "Point", "coordinates": [141.145004, 41.241699]}}, {"type": "Feature", "properties": {"type": "navaid", "kind": "NDB", "ident": "ON", "name": "Erabu", "freq": "398 kHz", "apt": "RJKB", "power": "MEDIUM"}, "geometry": {"type": "Point", "coordinates": [128.707993, 27.43]}}, {"type": "Feature", "properties": {"type": "navaid", "kind": "NDB", "ident": "OW", "name": "Itami", "freq": "211 kHz", "apt": "RJOO", "power": "MEDIUM"}, "geometry": {"type": "Point", "coordinates": [135.404007, 34.8055]}}, {"type": "Feature", "properties": {"type": "navaid", "kind": "NDB", "ident": "OX", "name": "Iwo Jima", "freq": "360 kHz", "elev_ft": 378, "apt": "RJAW", "power": "MEDIUM"}, "geometry": {"type": "Point", "coordinates": [141.307007, 24.7722]}}, {"type": "Feature", "properties": {"type": "navaid", "kind": "NDB", "ident": "PQ", "name": "Tateyama", "freq": "373 kHz", "apt": "RJTE", "power": "HIGH"}, "geometry": {"type": "Point", "coordinates": [139.875, 34.9939]}}, {"type": "Feature", "properties": {"type": "navaid", "kind": "NDB", "ident": "RB", "name": "Eda", "freq": "357 kHz", "power": "MEDIUM"}, "geometry": {"type": "Point", "coordinates": [139.541, 35.5597]}}, {"type": "Feature", "properties": {"type": "navaid", "kind": "NDB", "ident": "RK", "name": "Osaka", "freq": "340 kHz", "apt": "RJOO", "power": "MEDIUM"}, "geometry": {"type": "Point", "coordinates": [135.550995, 34.686501]}}, {"type": "Feature", "properties": {"type": "navaid", "kind": "NDB", "ident": "SK", "name": "Shinoda", "freq": "219 kHz", "apt": "RJOY", "power": "MEDIUM"}, "geometry": {"type": "Point", "coordinates": [135.444, 34.491299]}}, {"type": "Feature", "properties": {"type": "navaid", "kind": "NDB", "ident": "SP", "name": "Sapporo", "freq": "357 kHz", "apt": "RJCO", "power": "MEDIUM"}, "geometry": {"type": "Point", "coordinates": [141.320999, 43.1688]}}, {"type": "Feature", "properties": {"type": "navaid", "kind": "NDB", "ident": "TN", "name": "Shin-Tachikawa", "freq": "366 kHz", "elev_ft": 313, "apt": "RJTC", "power": "MEDIUM"}, "geometry": {"type": "Point", "coordinates": [139.399994, 35.7183]}}, {"type": "Feature", "properties": {"type": "navaid", "kind": "NDB", "ident": "TS", "name": "Tokushima", "freq": "333 kHz", "elev_ft": 26, "apt": "RJOS", "power": "MEDIUM"}, "geometry": {"type": "Point", "coordinates": [134.606003, 34.128101]}}, {"type": "Feature", "properties": {"type": "navaid", "kind": "NDB", "ident": "VC", "name": "Tsushima", "freq": "393 kHz", "elev_ft": 213, "apt": "RJDT", "power": "LOW"}, "geometry": {"type": "Point", "coordinates": [129.324005, 34.287601]}}, {"type": "Feature", "properties": {"type": "navaid", "kind": "NDB", "ident": "XA", "name": "Oshima", "freq": "214 kHz", "apt": "RJTO", "power": "MEDIUM"}, "geometry": {"type": "Point", "coordinates": [139.397003, 34.688801]}}, {"type": "Feature", "properties": {"type": "navaid", "kind": "NDB", "ident": "XM", "name": "Kowa", "freq": "325 kHz", "power": "MEDIUM"}, "geometry": {"type": "Point", "coordinates": [136.925995, 34.752102]}}, {"type": "Feature", "properties": {"type": "navaid", "kind": "NDB", "ident": "YU", "name": "Yokosuka", "freq": "249 kHz", "power": "LOW"}, "geometry": {"type": "Point", "coordinates": [139.615005, 35.1991]}}, {"type": "Feature", "properties": {"type": "navaid", "kind": "NDB", "ident": "YZ", "name": "Yaizu", "freq": "344 kHz", "elev_ft": 23, "apt": "RJNY", "power": "MEDIUM"}, "geometry": {"type": "Point", "coordinates": [138.289001, 34.8223]}}, {"type": "Feature", "properties": {"type": "navaid", "kind": "NDB-DME", "ident": "XR", "name": "Kastner", "freq": "379 kHz", "ch": "035X", "elev_ft": 368, "apt": "RJTR", "power": "MEDIUM"}, "geometry": {"type": "Point", "coordinates": [139.395004, 35.514999]}}]}