{"type":"FeatureCollection","meta":{"dataset":"powerlines_sample","note":"送電線ハザードのサンプル(概略・不完全)。実運用では [ハザード取得] ボタンで表示範囲の OpenStreetMap power=line/tower を取得し、端末にキャッシュしてください。送電線は低高度飛行の重大障害物です — 本レイヤは網羅的ではありません。","source":"サンプル(要 OSM/公式データ取得)","updated":"2026-07-03"},"features":[{"type":"Feature","properties":{"type":"powerline","name":"サンプル送電線 (房総)","sample":true},"geometry":{"type":"LineString","coordinates":[[139.9,35.3],[139.98,35.38],[140.08,35.45]]}},{"type":"Feature","properties":{"type":"powerline","name":"サンプル送電線 (多摩)","sample":true},"geometry":{"type":"LineString","coordinates":[[139.3,35.62],[139.42,35.66],[139.55,35.7]]}},{"type":"Feature","properties":{"type":"obstacle","name":"東京スカイツリー","height_m":634,"kind":"tower","sample":true},"geometry":{"type":"Point","coordinates":[139.8107,35.7101]}},{"type":"Feature","properties":{"type":"obstacle","name":"東京タワー","height_m":333,"kind":"tower","sample":true},"geometry":{"type":"Point","coordinates":[139.7454,35.6586]}},{"type":"Feature","properties":{"type":"obstacle","name":"横浜ランドマークタワー","height_m":296,"kind":"building","sample":true},"geometry":{"type":"Point","coordinates":[139.6317,35.4548]}},{"type":"Feature","properties":{"type":"obstacle","name":"あべのハルカス","height_m":300,"kind":"building","sample":true},"geometry":{"type":"Point","coordinates":[135.5136,34.6459]}},{"type":"Feature","properties":{"type":"obstacle","name":"明石海峡大橋 主塔","height_m":297,"kind":"bridge-tower","sample":true},"geometry":{"type":"Point","coordinates":[135.0219,34.6169]}},{"type":"Feature","properties":{"type":"obstacle","name":"福岡タワー","height_m":234,"kind":"tower","sample":true},"geometry":{"type":"Point","coordinates":[130.3512,33.5932]}}]}